[{"name":"ADELAIDE","postcode":"5000","state":"SA"},{"name":"ALBANY","postcode":"6330","state":"WA"},{"name":"ALBURY","postcode":"2640","state":"NSW"},{"name":"ARARAT","postcode":"3377","state":"VIC"},{"name":"ARMADALE","postcode":"6112","state":"WA"},{"name":"ARMIDALE","postcode":"2350","state":"NSW"},{"name":"BAIRNSDALE","postcode":"3875","state":"VIC"},{"name":"BALLARAT","postcode":"3350","state":"VIC"},{"name":"BATHURST","postcode":"2795","state":"NSW"},{"name":"BAYSWATER","postcode":"6053","state":"WA"},{"name":"BELGRAVE","postcode":"3160","state":"VIC"},{"name":"BELMONT","postcode":"6104","state":"WA"},{"name":"BENALLA","postcode":"3671","state":"VIC"},{"name":"BENDIGO","postcode":"3550","state":"VIC"},{"name":"","postcode":"","state":"NSW"},{"name":"BOULDER","postcode":"6432","state":"WA"},{"name":"BOX HILL","postcode":"3128","state":"VIC"},{"name":"BRISBANE","postcode":"4000","state":"QLD"},{"name":"BROKEN HILL","postcode":"2880","state":"NSW"},{"name":"BUNBURY","postcode":"6230","state":"WA"},{"name":"BUNDABERG","postcode":"4670","state":"QLD"},{"name":"BURNIE","postcode":"7320","state":"TAS"},{"name":"CAIRNS","postcode":"4870","state":"QLD"},{"name":"CALOUNDRA","postcode":"4551","state":"QLD"},{"name":"CAMPBELLTOWN","postcode":"2560","state":"NSW"},{"name":"CANBERRA","postcode":"2600","state":"ACT"},{"name":"","postcode":"","state":"WA"},{"name":"CESSNOCK","postcode":"2325","state":"NSW"},{"name":"CHARTERS TOWERS","postcode":"4820","state":"QLD"},{"name":"","postcode":"","state":"WA"},{"name":"DANDENONG","postcode":"3175","state":"VIC"},{"name":"DARWIN","postcode":"0800","state":"NT"},{"name":"DEVONPORT","postcode":"7310","state":"TAS"},{"name":"DUBBO","postcode":"2830","state":"NSW"},{"name":"FRANKSTON","postcode":"3199","state":"VIC"},{"name":"FREMANTLE","postcode":"6160","state":"WA"},{"name":"GEELONG","postcode":"3220","state":"VIC"},{"name":"GERALDTON","postcode":"6530","state":"WA"},{"name":"GLADSTONE","postcode":"4680","state":"QLD"},{"name":"","postcode":"","state":"QLD"},{"name":"GOSNELLS","postcode":"6110","state":"WA"},{"name":"GOULBURN","postcode":"2580","state":"NSW"},{"name":"GRAFTON","postcode":"2460","state":"NSW"},{"name":"GREENOUGH","postcode":"6532","state":"WA"},{"name":"HAMILTON","postcode":"3300","state":"VIC"},{"name":"HERVEY BAY","postcode":"4655","state":"QLD"},{"name":"HOBART","postcode":"7000","state":"TAS"},{"name":"HORSHAM","postcode":"3400","state":"VIC"},{"name":"IPSWICH","postcode":"4305","state":"QLD"},{"name":"JOONDALUP","postcode":"6027","state":"WA"},{"name":"KALGOORLIE","postcode":"6430","state":"WA"},{"name":"LAUNCESTON","postcode":"7250","state":"TAS"},{"name":"LITHGOW","postcode":"2790","state":"NSW"},{"name":"LIVERPOOL","postcode":"2170","state":"NSW"},{"name":"","postcode":"","state":"QLD"},{"name":"MACKAY","postcode":"4740","state":"QLD"},{"name":"MANDURAH","postcode":"6210","state":"WA"},{"name":"MARYBOROUGH","postcode":"4650","state":"QLD"},{"name":"MELBOURNE","postcode":"3000","state":"VIC"},{"name":"MELTON","postcode":"3337","state":"VIC"},{"name":"MELVILLE","postcode":"6156","state":"WA"},{"name":"MILDURA","postcode":"3500","state":"VIC"},{"name":"MOE","postcode":"3825","state":"VIC"},{"name":"MORWELL","postcode":"3840","state":"VIC"},{"name":"MOUNT BARKER","postcode":"5251","state":"SA"},{"name":"MOUNT GAMBIER","postcode":"5290","state":"SA"},{"name":"MOUNT ISA","postcode":"4825","state":"QLD"},{"name":"MURRAY BRIDGE","postcode":"5253","state":"SA"},{"name":"NEDLANDS","postcode":"6009","state":"WA"},{"name":"NEWCASTLE","postcode":"2300","state":"NSW"},{"name":"ORANGE","postcode":"2800","state":"NSW"},{"name":"PALMERSTON","postcode":"0830","state":"NT"},{"name":"PARRAMATTA","postcode":"2150","state":"NSW"},{"name":"PENRITH","postcode":"2751","state":"NSW"},{"name":"PERTH","postcode":"6000","state":"WA"},{"name":"PORT AUGUSTA","postcode":"5700","state":"SA"},{"name":"PORT LINCOLN","postcode":"5606","state":"SA"},{"name":"PORT PIRIE","postcode":"5540","state":"SA"},{"name":"QUEANBEYAN","postcode":"2620","state":"NSW"},{"name":"REDCLIFFE","postcode":"4020","state":"QLD"},{"name":"","postcode":"","state":"QLD"},{"name":"ROCKHAMPTON","postcode":"4700","state":"QLD"},{"name":"ROCKINGHAM","postcode":"6168","state":"WA"},{"name":"SALE","postcode":"3850","state":"VIC"},{"name":"SHEPPARTON","postcode":"3630","state":"VIC"},{"name":"SOUTH PERTH","postcode":"6151","state":"WA"},{"name":"SOUTH YARRA","postcode":"3141","state":"VIC"},{"name":"STIRLING","postcode":"6021","state":"WA"},{"name":"WODONGA","postcode":"3689","state":"VIC"},{"name":"WOLLONGONG","postcode":"2520","state":"NSW"}]
