[
    {
        "name": "ABERFOYLE PARK",
        "postcode": "5159"
    },
    {
        "name": "ADELAIDE",
        "postcode": "5000"
    },
    {
        "name": "ADELAIDE AIRPORT",
        "postcode": "5950"
    },
    {
        "name": "ADELAIDE BC",
        "postcode": "5000"
    },
    {
        "name": "ADELAIDE MAIL CENTRE",
        "postcode": "5860"
    },
    {
        "name": "ADELAIDE UNIVERSITY",
        "postcode": "5005"
    },
    {
        "name": "AGERY",
        "postcode": "5558"
    },
    {
        "name": "ALAWOONA",
        "postcode": "5311"
    },
    {
        "name": "ALBERT PARK",
        "postcode": "5014"
    },
    {
        "name": "ALBERTON",
        "postcode": "5014"
    },
    {
        "name": "ALDGATE",
        "postcode": "5154"
    },
    {
        "name": "ALDINGA",
        "postcode": "5173"
    },
    {
        "name": "ALDINGA BEACH",
        "postcode": "5173"
    },
    {
        "name": "ALFORD",
        "postcode": "5555"
    },
    {
        "name": "ALLENBY GARDENS",
        "postcode": "5009"
    },
    {
        "name": "ALLENDALE EAST",
        "postcode": "5291"
    },
    {
        "name": "ALLENDALE NORTH",
        "postcode": "5373"
    },
    {
        "name": "ALMA",
        "postcode": "5401"
    },
    {
        "name": "ALTONA",
        "postcode": "5351"
    },
    {
        "name": "AMATA",
        "postcode": "0872"
    },
    {
        "name": "AMERICAN BEACH",
        "postcode": "5222"
    },
    {
        "name": "AMERICAN RIVER",
        "postcode": "5221"
    },
    {
        "name": "AMYTON",
        "postcode": "5431"
    },
    {
        "name": "ANAMA",
        "postcode": "5464"
    },
    {
        "name": "ANDAMOOKA",
        "postcode": "5722"
    },
    {
        "name": "ANDREWS",
        "postcode": "5454"
    },
    {
        "name": "ANDREWS FARM",
        "postcode": "5114"
    },
    {
        "name": "ANGAS PLAINS",
        "postcode": "5255"
    },
    {
        "name": "ANGAS VALLEY",
        "postcode": "5238"
    },
    {
        "name": "ANGASTON",
        "postcode": "5353"
    },
    {
        "name": "ANGLE PARK",
        "postcode": "5010"
    },
    {
        "name": "ANGLE VALE",
        "postcode": "5117"
    },
    {
        "name": "ANNADALE",
        "postcode": "5356"
    },
    {
        "name": "ANTECHAMBER BAY",
        "postcode": "5222"
    },
    {
        "name": "APAMURRA",
        "postcode": "5237"
    },
    {
        "name": "APOINGA",
        "postcode": "5413"
    },
    {
        "name": "APPILA",
        "postcode": "5480"
    },
    {
        "name": "ARDROSSAN",
        "postcode": "5571"
    },
    {
        "name": "ARKAROOLA VILLAGE",
        "postcode": "5710"
    },
    {
        "name": "ARMAGH",
        "postcode": "5453"
    },
    {
        "name": "ARNO BAY",
        "postcode": "5603"
    },
    {
        "name": "ARTHURTON",
        "postcode": "5572"
    },
    {
        "name": "ASCOT PARK",
        "postcode": "5043"
    },
    {
        "name": "ASHBOURNE",
        "postcode": "5157"
    },
    {
        "name": "ASHFORD",
        "postcode": "5035"
    },
    {
        "name": "ASHTON",
        "postcode": "5137"
    },
    {
        "name": "ASHVILLE",
        "postcode": "5259"
    },
    {
        "name": "ATHELSTONE",
        "postcode": "5076"
    },
    {
        "name": "ATHOL PARK",
        "postcode": "5012"
    },
    {
        "name": "AUBURN",
        "postcode": "5451"
    },
    {
        "name": "AULDANA",
        "postcode": "5072"
    },
    {
        "name": "AUSTRALIA PLAINS",
        "postcode": "5374"
    },
    {
        "name": "AVENUE RANGE",
        "postcode": "5273"
    },
    {
        "name": "AVOCA DELL",
        "postcode": "5253"
    },
    {
        "name": "AVON",
        "postcode": "5501"
    },
    {
        "name": "BACK VALLEY",
        "postcode": "5211"
    },
    {
        "name": "BACKY POINT",
        "postcode": "5600"
    },
    {
        "name": "BAGOT WELL",
        "postcode": "5373"
    },
    {
        "name": "BAIRD BAY",
        "postcode": "5671"
    },
    {
        "name": "BAKARA",
        "postcode": "5354"
    },
    {
        "name": "BAKARA WELL",
        "postcode": "5354"
    },
    {
        "name": "BALAKLAVA",
        "postcode": "5461"
    },
    {
        "name": "BALD HILLS",
        "postcode": "5203"
    },
    {
        "name": "BALDINA",
        "postcode": "5417"
    },
    {
        "name": "BALGOWAN",
        "postcode": "5573"
    },
    {
        "name": "BALHANNAH",
        "postcode": "5242"
    },
    {
        "name": "BALLAST HEAD",
        "postcode": "5221"
    },
    {
        "name": "BANGHAM",
        "postcode": "5268"
    },
    {
        "name": "BANGOR",
        "postcode": "5481"
    },
    {
        "name": "BANKSIA PARK",
        "postcode": "5091"
    },
    {
        "name": "BARABBA",
        "postcode": "5460"
    },
    {
        "name": "BARINIA",
        "postcode": "5453"
    },
    {
        "name": "BARMERA",
        "postcode": "5345"
    },
    {
        "name": "BARNA",
        "postcode": "5641"
    },
    {
        "name": "BARNDIOOTA",
        "postcode": "5434"
    },
    {
        "name": "BAROOTA",
        "postcode": "5495"
    },
    {
        "name": "BAROSSA GOLDFIELDS",
        "postcode": "5351"
    },
    {
        "name": "BARUNGA GAP",
        "postcode": "5520"
    },
    {
        "name": "BASKET RANGE",
        "postcode": "5138"
    },
    {
        "name": "BAUDIN BEACH",
        "postcode": "5222"
    },
    {
        "name": "BAY OF SHOALS",
        "postcode": "5223"
    },
    {
        "name": "BEACHPORT",
        "postcode": "5280"
    },
    {
        "name": "BEATTY",
        "postcode": "5320"
    },
    {
        "name": "BEAUFORT",
        "postcode": "5550"
    },
    {
        "name": "BEAUMONT",
        "postcode": "5066"
    },
    {
        "name": "BEAUMONTS",
        "postcode": "5320"
    },
    {
        "name": "BEDFORD PARK",
        "postcode": "5042"
    },
    {
        "name": "BEETALOO",
        "postcode": "5523"
    },
    {
        "name": "BELAIR",
        "postcode": "5052"
    },
    {
        "name": "BELALIE EAST",
        "postcode": "5491"
    },
    {
        "name": "BELALIE NORTH",
        "postcode": "5491"
    },
    {
        "name": "BELLEVUE HEIGHTS",
        "postcode": "5050"
    },
    {
        "name": "BELTANA",
        "postcode": "5730"
    },
    {
        "name": "BELTON",
        "postcode": "5432"
    },
    {
        "name": "BELVIDERE",
        "postcode": "5255"
    },
    {
        "name": "BENBOURNIE",
        "postcode": "5453"
    },
    {
        "name": "BERRI",
        "postcode": "5343"
    },
    {
        "name": "BETHANY",
        "postcode": "5352"
    },
    {
        "name": "BETHEL",
        "postcode": "5373"
    },
    {
        "name": "BEULAH PARK",
        "postcode": "5067"
    },
    {
        "name": "BEVERLEY",
        "postcode": "5009"
    },
    {
        "name": "BIBARINGA",
        "postcode": "5118"
    },
    {
        "name": "BIG BEND",
        "postcode": "5238"
    },
    {
        "name": "BIGGS FLAT",
        "postcode": "5153"
    },
    {
        "name": "BILLIATT",
        "postcode": "5311"
    },
    {
        "name": "BINNUM",
        "postcode": "5262"
    },
    {
        "name": "BIRCHMORE",
        "postcode": "5223"
    },
    {
        "name": "BIRDWOOD",
        "postcode": "5234"
    },
    {
        "name": "BIRKENHEAD",
        "postcode": "5015"
    },
    {
        "name": "BLACK FOREST",
        "postcode": "5035"
    },
    {
        "name": "BLACK HILL",
        "postcode": "5353"
    },
    {
        "name": "BLACK POINT",
        "postcode": "5571"
    },
    {
        "name": "BLACK ROCK",
        "postcode": "5431"
    },
    {
        "name": "BLACK SPRINGS",
        "postcode": "5413"
    },
    {
        "name": "BLACKFELLOWS CAVES",
        "postcode": "5291"
    },
    {
        "name": "BLACKFELLOWS CREEK",
        "postcode": "5201"
    },
    {
        "name": "BLACKFORD",
        "postcode": "5275"
    },
    {
        "name": "BLACKWOOD",
        "postcode": "5051"
    },
    {
        "name": "BLAIR ATHOL",
        "postcode": "5084"
    },
    {
        "name": "BLAIR ATHOL WEST",
        "postcode": "5084"
    },
    {
        "name": "BLAKEVIEW",
        "postcode": "5114"
    },
    {
        "name": "BLAKISTON",
        "postcode": "5250"
    },
    {
        "name": "BLANCHE HARBOR",
        "postcode": "5700"
    },
    {
        "name": "BLANCHETOWN",
        "postcode": "5357"
    },
    {
        "name": "BLETCHLEY",
        "postcode": "5255"
    },
    {
        "name": "BLEWITT SPRINGS",
        "postcode": "5171"
    },
    {
        "name": "BLINMAN",
        "postcode": "5730"
    },
    {
        "name": "BLUFF BEACH",
        "postcode": "5575"
    },
    {
        "name": "BLYTH",
        "postcode": "5462"
    },
    {
        "name": "BOATSWAIN POINT",
        "postcode": "5275"
    },
    {
        "name": "BOCKELBERG",
        "postcode": "5655"
    },
    {
        "name": "BOCONNOC PARK",
        "postcode": "5453"
    },
    {
        "name": "BOLIVAR",
        "postcode": "5110"
    },
    {
        "name": "BOLTO",
        "postcode": "5238"
    },
    {
        "name": "BOOBOROWIE",
        "postcode": "5417"
    },
    {
        "name": "BOOKABIE",
        "postcode": "5690"
    },
    {
        "name": "BOOKPURNONG",
        "postcode": "5333"
    },
    {
        "name": "BOOL LAGOON",
        "postcode": "5271"
    },
    {
        "name": "BOOLEROO CENTRE",
        "postcode": "5482"
    },
    {
        "name": "BOOLGUN",
        "postcode": "5330"
    },
    {
        "name": "BOONERDO",
        "postcode": "5633"
    },
    {
        "name": "BOORS PLAIN",
        "postcode": "5554"
    },
    {
        "name": "BORDERTOWN",
        "postcode": "5268"
    },
    {
        "name": "BORDERTOWN SOUTH",
        "postcode": "5268"
    },
    {
        "name": "BORRIKA",
        "postcode": "5309"
    },
    {
        "name": "BOSTON",
        "postcode": "5607"
    },
    {
        "name": "BOWDEN",
        "postcode": "5007"
    },
    {
        "name": "BOWER",
        "postcode": "5374"
    },
    {
        "name": "BOWHILL",
        "postcode": "5238"
    },
    {
        "name": "BOWILLIA",
        "postcode": "5461"
    },
    {
        "name": "BOWMANS",
        "postcode": "5550"
    },
    {
        "name": "BRADBURY",
        "postcode": "5153"
    },
    {
        "name": "BRADY CREEK",
        "postcode": "5381"
    },
    {
        "name": "BRAHMA LODGE",
        "postcode": "5109"
    },
    {
        "name": "BRAMFIELD",
        "postcode": "5670"
    },
    {
        "name": "BRAY",
        "postcode": "5276"
    },
    {
        "name": "BRENDA PARK",
        "postcode": "5320"
    },
    {
        "name": "BRENTWOOD",
        "postcode": "5575"
    },
    {
        "name": "BRIDGEWATER",
        "postcode": "5155"
    },
    {
        "name": "BRIGHT",
        "postcode": "5381"
    },
    {
        "name": "BRIGHTON",
        "postcode": "5048"
    },
    {
        "name": "BRIMBAGO",
        "postcode": "5267"
    },
    {
        "name": "BRINKLEY",
        "postcode": "5253"
    },
    {
        "name": "BRINKWORTH",
        "postcode": "5464"
    },
    {
        "name": "BROADVIEW",
        "postcode": "5083"
    },
    {
        "name": "BROMPTON",
        "postcode": "5007"
    },
    {
        "name": "BROOKER",
        "postcode": "5607"
    },
    {
        "name": "BROOKLYN PARK",
        "postcode": "5032"
    },
    {
        "name": "BROUGHTON RIVER VALLEY",
        "postcode": "5454"
    },
    {
        "name": "BROWN BEACH",
        "postcode": "5222"
    },
    {
        "name": "BROWN HILL CREEK",
        "postcode": "5062"
    },
    {
        "name": "BROWNLOW",
        "postcode": "5374"
    },
    {
        "name": "BROWNLOW KI",
        "postcode": "5223"
    },
    {
        "name": "BRUCE",
        "postcode": "5433"
    },
    {
        "name": "BRUKUNGA",
        "postcode": "5252"
    },
    {
        "name": "BUCHANAN",
        "postcode": "5374"
    },
    {
        "name": "BUCHFELDE",
        "postcode": "5118"
    },
    {
        "name": "BUCKINGHAM",
        "postcode": "5270"
    },
    {
        "name": "BUCKLAND PARK",
        "postcode": "5120"
    },
    {
        "name": "BUCKLEBOO",
        "postcode": "5641"
    },
    {
        "name": "BUGLE HUT",
        "postcode": "5311"
    },
    {
        "name": "BUGLE RANGES",
        "postcode": "5251"
    },
    {
        "name": "BULL CREEK",
        "postcode": "5157"
    },
    {
        "name": "BUMBUNGA",
        "postcode": "5520"
    },
    {
        "name": "BUNBURY",
        "postcode": "5266"
    },
    {
        "name": "BUNDALEER GARDENS",
        "postcode": "5491"
    },
    {
        "name": "BUNDALEER NORTH",
        "postcode": "5491"
    },
    {
        "name": "BUNDEY",
        "postcode": "5320"
    },
    {
        "name": "BUNGAMA",
        "postcode": "5540"
    },
    {
        "name": "BUNGAREE",
        "postcode": "5464"
    },
    {
        "name": "BURDETT",
        "postcode": "5253"
    },
    {
        "name": "BURNSFIELD",
        "postcode": "5520"
    },
    {
        "name": "BURNSIDE",
        "postcode": "5066"
    },
    {
        "name": "BURRA",
        "postcode": "5417"
    },
    {
        "name": "BURRA EASTERN DISTRICTS",
        "postcode": "5417"
    },
    {
        "name": "BURRUNGULE",
        "postcode": "5291"
    },
    {
        "name": "BURTON",
        "postcode": "5110"
    },
    {
        "name": "BUTE",
        "postcode": "5560"
    },
    {
        "name": "BUTLER",
        "postcode": "5605"
    },
    {
        "name": "CADELL",
        "postcode": "5321"
    },
    {
        "name": "CADELL LAGOON",
        "postcode": "5321"
    },
    {
        "name": "CADGEE",
        "postcode": "5271"
    },
    {
        "name": "CALCA",
        "postcode": "5671"
    },
    {
        "name": "CALIPH",
        "postcode": "5310"
    },
    {
        "name": "CALLINGTON",
        "postcode": "5254"
    },
    {
        "name": "CALOMBA",
        "postcode": "5501"
    },
    {
        "name": "CALOOTE",
        "postcode": "5254"
    },
    {
        "name": "CALTOWIE",
        "postcode": "5490"
    },
    {
        "name": "CALTOWIE NORTH",
        "postcode": "5490"
    },
    {
        "name": "CALTOWIE WEST",
        "postcode": "5490"
    },
    {
        "name": "CAMBRAI",
        "postcode": "5353"
    },
    {
        "name": "CAMDEN PARK",
        "postcode": "5038"
    },
    {
        "name": "CAMPBELLTOWN",
        "postcode": "5074"
    },
    {
        "name": "CAMPOONA",
        "postcode": "5640"
    },
    {
        "name": "CANNAWIGARA",
        "postcode": "5268"
    },
    {
        "name": "CANOWIE",
        "postcode": "5419"
    },
    {
        "name": "CANOWIE BELT",
        "postcode": "5420"
    },
    {
        "name": "CANUNDA",
        "postcode": "5291"
    },
    {
        "name": "CAPE BORDA",
        "postcode": "5223"
    },
    {
        "name": "CAPE DOUGLAS",
        "postcode": "5291"
    },
    {
        "name": "CAPE JAFFA",
        "postcode": "5275"
    },
    {
        "name": "CAPE JERVIS",
        "postcode": "5204"
    },
    {
        "name": "CARALUE",
        "postcode": "5641"
    },
    {
        "name": "CARAWA",
        "postcode": "5680"
    },
    {
        "name": "CARCUMA",
        "postcode": "5301"
    },
    {
        "name": "CAREW",
        "postcode": "5270"
    },
    {
        "name": "CAREY GULLY",
        "postcode": "5144"
    },
    {
        "name": "CAROLINE",
        "postcode": "5291"
    },
    {
        "name": "CARPENTER ROCKS",
        "postcode": "5291"
    },
    {
        "name": "CARRICKALINGA",
        "postcode": "5204"
    },
    {
        "name": "CARRIETON",
        "postcode": "5432"
    },
    {
        "name": "CASSINI",
        "postcode": "5223"
    },
    {
        "name": "CASTAMBUL",
        "postcode": "5076"
    },
    {
        "name": "CAURNAMONT",
        "postcode": "5238"
    },
    {
        "name": "CAVAN",
        "postcode": "5094"
    },
    {
        "name": "CAVENAGH",
        "postcode": "5422"
    },
    {
        "name": "CAVETON",
        "postcode": "5291"
    },
    {
        "name": "CEDUNA",
        "postcode": "5690"
    },
    {
        "name": "CHAFFEY",
        "postcode": "5341"
    },
    {
        "name": "CHAIN OF PONDS",
        "postcode": "5231"
    },
    {
        "name": "CHANDADA",
        "postcode": "5680"
    },
    {
        "name": "CHANDLERS HILL",
        "postcode": "5159"
    },
    {
        "name": "CHAPEL HILL",
        "postcode": "5153"
    },
    {
        "name": "CHAPMAN BORE",
        "postcode": "5253"
    },
    {
        "name": "CHARLESTON",
        "postcode": "5244"
    },
    {
        "name": "CHARLTON GULLY",
        "postcode": "5607"
    },
    {
        "name": "CHARRA",
        "postcode": "5690"
    },
    {
        "name": "CHELTENHAM",
        "postcode": "5014"
    },
    {
        "name": "CHERRY GARDENS",
        "postcode": "5157"
    },
    {
        "name": "CHERRYVILLE",
        "postcode": "5134"
    },
    {
        "name": "CHILPENUNDA",
        "postcode": "5660"
    },
    {
        "name": "CHINAMAN WELLS",
        "postcode": "5573"
    },
    {
        "name": "CHINBINGINA",
        "postcode": "5680"
    },
    {
        "name": "CHRISTIE DOWNS",
        "postcode": "5164"
    },
    {
        "name": "CHRISTIES BEACH",
        "postcode": "5165"
    },
    {
        "name": "CHRISTIES BEACH NORTH",
        "postcode": "5165"
    },
    {
        "name": "CITY WEST CAMPUS",
        "postcode": "5000"
    },
    {
        "name": "CLAPHAM",
        "postcode": "5062"
    },
    {
        "name": "CLARE",
        "postcode": "5453"
    },
    {
        "name": "CLARENCE GARDENS",
        "postcode": "5039"
    },
    {
        "name": "CLARENCE PARK",
        "postcode": "5034"
    },
    {
        "name": "CLARENDON",
        "postcode": "5157"
    },
    {
        "name": "CLAY WELLS",
        "postcode": "5280"
    },
    {
        "name": "CLAYPANS",
        "postcode": "5238"
    },
    {
        "name": "CLAYTON BAY",
        "postcode": "5256"
    },
    {
        "name": "CLEARVIEW",
        "postcode": "5085"
    },
    {
        "name": "CLELAND",
        "postcode": "5152"
    },
    {
        "name": "CLEMENTS GAP",
        "postcode": "5523"
    },
    {
        "name": "CLEVE",
        "postcode": "5640"
    },
    {
        "name": "CLINTON",
        "postcode": "5570"
    },
    {
        "name": "CLINTON CENTRE",
        "postcode": "5570"
    },
    {
        "name": "CLOVELLY PARK",
        "postcode": "5042"
    },
    {
        "name": "COBDOGLA",
        "postcode": "5346"
    },
    {
        "name": "COCATA",
        "postcode": "5654"
    },
    {
        "name": "COCKALEECHIE",
        "postcode": "5631"
    },
    {
        "name": "COCKATOO VALLEY",
        "postcode": "5351"
    },
    {
        "name": "COCKBURN",
        "postcode": "5440"
    },
    {
        "name": "COFFIN BAY",
        "postcode": "5607"
    },
    {
        "name": "COLEBATCH",
        "postcode": "5266"
    },
    {
        "name": "COLES",
        "postcode": "5272"
    },
    {
        "name": "COLLEGE PARK",
        "postcode": "5069"
    },
    {
        "name": "COLLEY",
        "postcode": "5671"
    },
    {
        "name": "COLLINSFIELD",
        "postcode": "5555"
    },
    {
        "name": "COLLINSVILLE",
        "postcode": "5418"
    },
    {
        "name": "COLLINSWOOD",
        "postcode": "5081"
    },
    {
        "name": "COLONEL LIGHT GARDENS",
        "postcode": "5041"
    },
    {
        "name": "COLTON",
        "postcode": "5670"
    },
    {
        "name": "COMAUM",
        "postcode": "5277"
    },
    {
        "name": "COMMISSARIAT POINT",
        "postcode": "5710"
    },
    {
        "name": "COMPTON",
        "postcode": "5291"
    },
    {
        "name": "CONCORDIA",
        "postcode": "5118"
    },
    {
        "name": "CONDOWIE",
        "postcode": "5464"
    },
    {
        "name": "CONMURRA",
        "postcode": "5272"
    },
    {
        "name": "COOBER PEDY",
        "postcode": "5723"
    },
    {
        "name": "COOBOWIE",
        "postcode": "5583"
    },
    {
        "name": "COOK",
        "postcode": "5710"
    },
    {
        "name": "COOKE PLAINS",
        "postcode": "5261"
    },
    {
        "name": "COOLILLIE",
        "postcode": "5670"
    },
    {
        "name": "COOLTONG",
        "postcode": "5341"
    },
    {
        "name": "COOMANDOOK",
        "postcode": "5261"
    },
    {
        "name": "COOMBE",
        "postcode": "5267"
    },
    {
        "name": "COOMOOROO",
        "postcode": "5431"
    },
    {
        "name": "COOMUNGA",
        "postcode": "5607"
    },
    {
        "name": "COONALPYN",
        "postcode": "5265"
    },
    {
        "name": "COONAMIA",
        "postcode": "5540"
    },
    {
        "name": "COONAWARRA",
        "postcode": "5263"
    },
    {
        "name": "COOPERS CREEK",
        "postcode": "5731"
    },
    {
        "name": "COORABIE",
        "postcode": "5690"
    },
    {
        "name": "COORONG",
        "postcode": "5264"
    },
    {
        "name": "COOTRA",
        "postcode": "5650"
    },
    {
        "name": "COPEVILLE",
        "postcode": "5308"
    },
    {
        "name": "COPLEY",
        "postcode": "5732"
    },
    {
        "name": "CORDILLO DOWNS",
        "postcode": "5731"
    },
    {
        "name": "CORNY POINT",
        "postcode": "5575"
    },
    {
        "name": "COROMANDEL EAST",
        "postcode": "5157"
    },
    {
        "name": "COROMANDEL VALLEY",
        "postcode": "5051"
    },
    {
        "name": "CORTLINYE",
        "postcode": "5641"
    },
    {
        "name": "COUCH BEACH",
        "postcode": "5575"
    },
    {
        "name": "COULTA",
        "postcode": "5607"
    },
    {
        "name": "COWANDILLA",
        "postcode": "5033"
    },
    {
        "name": "COWELL",
        "postcode": "5602"
    },
    {
        "name": "COWIRRA",
        "postcode": "5238"
    },
    {
        "name": "CRADOCK",
        "postcode": "5432"
    },
    {
        "name": "CRAFERS",
        "postcode": "5152"
    },
    {
        "name": "CRAFERS WEST",
        "postcode": "5152"
    },
    {
        "name": "CRAIGBURN FARM",
        "postcode": "5051"
    },
    {
        "name": "CRAIGMORE",
        "postcode": "5114"
    },
    {
        "name": "CRESCENT",
        "postcode": "5341"
    },
    {
        "name": "CROMER",
        "postcode": "5235"
    },
    {
        "name": "CROSS ROADS",
        "postcode": "5558"
    },
    {
        "name": "CROYDON",
        "postcode": "5008"
    },
    {
        "name": "CROYDON PARK",
        "postcode": "5008"
    },
    {
        "name": "CROYDON PARK SOUTH",
        "postcode": "5008"
    },
    {
        "name": "CRYSTAL BROOK",
        "postcode": "5523"
    },
    {
        "name": "CUDLEE CREEK",
        "postcode": "5232"
    },
    {
        "name": "CULBURRA",
        "postcode": "5261"
    },
    {
        "name": "CULTANA",
        "postcode": "5600"
    },
    {
        "name": "CUMBERLAND PARK",
        "postcode": "5041"
    },
    {
        "name": "CUMMINS",
        "postcode": "5631"
    },
    {
        "name": "CUNGENA",
        "postcode": "5660"
    },
    {
        "name": "CUNLIFFE",
        "postcode": "5554"
    },
    {
        "name": "CUNNINGHAM",
        "postcode": "5571"
    },
    {
        "name": "CUNYARIE",
        "postcode": "5641"
    },
    {
        "name": "CURRAMULKA",
        "postcode": "5580"
    },
    {
        "name": "CURRENCY CREEK",
        "postcode": "5214"
    },
    {
        "name": "CUSTON",
        "postcode": "5269"
    },
    {
        "name": "CUTTLEFISH BAY",
        "postcode": "5222"
    },
    {
        "name": "CYGNET RIVER",
        "postcode": "5223"
    },
    {
        "name": "DALKEY",
        "postcode": "5461"
    },
    {
        "name": "DARKE PEAK",
        "postcode": "5642"
    },
    {
        "name": "DARLINGTON",
        "postcode": "5047"
    },
    {
        "name": "DAVEYSTON",
        "postcode": "5355"
    },
    {
        "name": "DAVOREN PARK",
        "postcode": "5113"
    },
    {
        "name": "DAVOREN PARK NORTH",
        "postcode": "5113"
    },
    {
        "name": "DAVOREN PARK SOUTH",
        "postcode": "5113"
    },
    {
        "name": "DAW PARK",
        "postcode": "5041"
    },
    {
        "name": "DAWESLEY",
        "postcode": "5252"
    },
    {
        "name": "DAWSON",
        "postcode": "5422"
    },
    {
        "name": "DE MOLE RIVER",
        "postcode": "5223"
    },
    {
        "name": "DEEP CREEK",
        "postcode": "5204"
    },
    {
        "name": "DEEPWATER",
        "postcode": "5266"
    },
    {
        "name": "DELAMERE",
        "postcode": "5204"
    },
    {
        "name": "DENIAL BAY",
        "postcode": "5690"
    },
    {
        "name": "DERNANCOURT",
        "postcode": "5075"
    },
    {
        "name": "D'ESTREES BAY",
        "postcode": "5223"
    },
    {
        "name": "DEVLINS POUND",
        "postcode": "5330"
    },
    {
        "name": "DEVON PARK",
        "postcode": "5008"
    },
    {
        "name": "DINGABLEDINGA",
        "postcode": "5172"
    },
    {
        "name": "DIREK",
        "postcode": "5110"
    },
    {
        "name": "DISMAL SWAMP",
        "postcode": "5291"
    },
    {
        "name": "DONOVANS",
        "postcode": "5291"
    },
    {
        "name": "DORSET VALE",
        "postcode": "5157"
    },
    {
        "name": "DOUGLAS POINT",
        "postcode": "5600"
    },
    {
        "name": "DOUGLAS POINT SOUTH",
        "postcode": "5600"
    },
    {
        "name": "DOVER GARDENS",
        "postcode": "5048"
    },
    {
        "name": "DOWLING",
        "postcode": "5555"
    },
    {
        "name": "DOWLINGVILLE",
        "postcode": "5555"
    },
    {
        "name": "DRY CREEK",
        "postcode": "5094"
    },
    {
        "name": "DUBLIN",
        "postcode": "5501"
    },
    {
        "name": "DUCK PONDS",
        "postcode": "5607"
    },
    {
        "name": "DUDLEY EAST",
        "postcode": "5222"
    },
    {
        "name": "DUDLEY PARK",
        "postcode": "5008"
    },
    {
        "name": "DUDLEY WEST",
        "postcode": "5222"
    },
    {
        "name": "DULWICH",
        "postcode": "5065"
    },
    {
        "name": "DUNCAN",
        "postcode": "5223"
    },
    {
        "name": "DURHAM DOWNS",
        "postcode": "5731"
    },
    {
        "name": "DUTTON",
        "postcode": "5356"
    },
    {
        "name": "DUTTON EAST",
        "postcode": "5356"
    },
    {
        "name": "EAGLE ON THE HILL",
        "postcode": "5150"
    },
    {
        "name": "EAST MOONTA",
        "postcode": "5558"
    },
    {
        "name": "EASTWOOD",
        "postcode": "5063"
    },
    {
        "name": "EBA",
        "postcode": "5320"
    },
    {
        "name": "EBA ANCHORAGE",
        "postcode": "5680"
    },
    {
        "name": "EBENEZER",
        "postcode": "5355"
    },
    {
        "name": "ECHUNGA",
        "postcode": "5153"
    },
    {
        "name": "EDEN HILLS",
        "postcode": "5050"
    },
    {
        "name": "EDEN VALLEY",
        "postcode": "5235"
    },
    {
        "name": "EDILLILIE",
        "postcode": "5630"
    },
    {
        "name": "EDINBURGH",
        "postcode": "5111"
    },
    {
        "name": "EDINBURGH RAAF",
        "postcode": "5111"
    },
    {
        "name": "EDITHBURGH",
        "postcode": "5583"
    },
    {
        "name": "EDWARDSTOWN",
        "postcode": "5039"
    },
    {
        "name": "EIGHT MILE CREEK",
        "postcode": "5291"
    },
    {
        "name": "ELIZABETH",
        "postcode": "5112"
    },
    {
        "name": "ELIZABETH DOWNS",
        "postcode": "5113"
    },
    {
        "name": "ELIZABETH EAST",
        "postcode": "5112"
    },
    {
        "name": "ELIZABETH GROVE",
        "postcode": "5112"
    },
    {
        "name": "ELIZABETH NORTH",
        "postcode": "5113"
    },
    {
        "name": "ELIZABETH PARK",
        "postcode": "5113"
    },
    {
        "name": "ELIZABETH SOUTH",
        "postcode": "5112"
    },
    {
        "name": "ELIZABETH VALE",
        "postcode": "5112"
    },
    {
        "name": "ELIZABETH WEST",
        "postcode": "5113"
    },
    {
        "name": "ELIZABETH WEST DC",
        "postcode": "5113"
    },
    {
        "name": "ELLISTON",
        "postcode": "5670"
    },
    {
        "name": "ELWOMPLE",
        "postcode": "5260"
    },
    {
        "name": "EMU BAY",
        "postcode": "5223"
    },
    {
        "name": "EMU DOWNS",
        "postcode": "5381"
    },
    {
        "name": "EMU FLAT",
        "postcode": "5453"
    },
    {
        "name": "ENCOUNTER BAY",
        "postcode": "5211"
    },
    {
        "name": "ENFIELD",
        "postcode": "5085"
    },
    {
        "name": "ENFIELD PLAZA",
        "postcode": "5085"
    },
    {
        "name": "ERINDALE",
        "postcode": "5066"
    },
    {
        "name": "ERITH",
        "postcode": "5461"
    },
    {
        "name": "ERNABELLA",
        "postcode": "0872"
    },
    {
        "name": "ERSKINE",
        "postcode": "5422"
    },
    {
        "name": "ETHELTON",
        "postcode": "5015"
    },
    {
        "name": "ETTRICK",
        "postcode": "5253"
    },
    {
        "name": "EUDUNDA",
        "postcode": "5374"
    },
    {
        "name": "EURELIA",
        "postcode": "5431"
    },
    {
        "name": "EUROMINA",
        "postcode": "5454"
    },
    {
        "name": "EVANDALE",
        "postcode": "5069"
    },
    {
        "name": "EVANSTON",
        "postcode": "5116"
    },
    {
        "name": "EVANSTON GARDENS",
        "postcode": "5116"
    },
    {
        "name": "EVANSTON PARK",
        "postcode": "5116"
    },
    {
        "name": "EVANSTON SOUTH",
        "postcode": "5116"
    },
    {
        "name": "EVERARD CENTRAL",
        "postcode": "5461"
    },
    {
        "name": "EVERARD PARK",
        "postcode": "5035"
    },
    {
        "name": "EXETER",
        "postcode": "5019"
    },
    {
        "name": "EXPORT PARK",
        "postcode": "5950"
    },
    {
        "name": "FAIRVIEW PARK",
        "postcode": "5126"
    },
    {
        "name": "FALSE BAY",
        "postcode": "5600"
    },
    {
        "name": "FARINA",
        "postcode": "5733"
    },
    {
        "name": "FARM BEACH",
        "postcode": "5607"
    },
    {
        "name": "FARRELL FLAT",
        "postcode": "5416"
    },
    {
        "name": "FELIXSTOW",
        "postcode": "5070"
    },
    {
        "name": "FERRYDEN PARK",
        "postcode": "5010"
    },
    {
        "name": "FIELD",
        "postcode": "5265"
    },
    {
        "name": "FINDON",
        "postcode": "5023"
    },
    {
        "name": "FINNISS",
        "postcode": "5255"
    },
    {
        "name": "FIRLE",
        "postcode": "5070"
    },
    {
        "name": "FISCHER",
        "postcode": "5502"
    },
    {
        "name": "FISHER",
        "postcode": "5354"
    },
    {
        "name": "FISHERMAN BAY",
        "postcode": "5522"
    },
    {
        "name": "FITZGERALD BAY",
        "postcode": "5600"
    },
    {
        "name": "FITZROY",
        "postcode": "5082"
    },
    {
        "name": "FIVE MILES",
        "postcode": "5238"
    },
    {
        "name": "FLAGSTAFF HILL",
        "postcode": "5159"
    },
    {
        "name": "FLAXLEY",
        "postcode": "5153"
    },
    {
        "name": "FLAXMAN VALLEY",
        "postcode": "5235"
    },
    {
        "name": "FLINDERS CHASE",
        "postcode": "5223"
    },
    {
        "name": "FLINDERS PARK",
        "postcode": "5025"
    },
    {
        "name": "FLINDERS UNIVERSITY",
        "postcode": "5042"
    },
    {
        "name": "FORDS",
        "postcode": "5373"
    },
    {
        "name": "FOREST RANGE",
        "postcode": "5139"
    },
    {
        "name": "FORESTVILLE",
        "postcode": "5035"
    },
    {
        "name": "FORRESTON",
        "postcode": "5233"
    },
    {
        "name": "FORSTER",
        "postcode": "5238"
    },
    {
        "name": "FOUL BAY",
        "postcode": "5577"
    },
    {
        "name": "FOUNTAIN",
        "postcode": "5607"
    },
    {
        "name": "FOWLERS BAY",
        "postcode": "5690"
    },
    {
        "name": "FOX",
        "postcode": "5272"
    },
    {
        "name": "FRAHNS",
        "postcode": "5238"
    },
    {
        "name": "FRANCES",
        "postcode": "5262"
    },
    {
        "name": "FRANKLYN",
        "postcode": "5421"
    },
    {
        "name": "FRANKTON",
        "postcode": "5374"
    },
    {
        "name": "FRAYVILLE",
        "postcode": "5238"
    },
    {
        "name": "FREELING",
        "postcode": "5372"
    },
    {
        "name": "FREGON",
        "postcode": "0872"
    },
    {
        "name": "FREWVILLE",
        "postcode": "5063"
    },
    {
        "name": "FULHAM",
        "postcode": "5024"
    },
    {
        "name": "FULHAM GARDENS",
        "postcode": "5024"
    },
    {
        "name": "FULLARTON",
        "postcode": "5063"
    },
    {
        "name": "FURNER",
        "postcode": "5280"
    },
    {
        "name": "GALGA",
        "postcode": "5308"
    },
    {
        "name": "GARDEN ISLAND",
        "postcode": "5960"
    },
    {
        "name": "GAWLER",
        "postcode": "5118"
    },
    {
        "name": "GAWLER BELT",
        "postcode": "5118"
    },
    {
        "name": "GAWLER EAST",
        "postcode": "5118"
    },
    {
        "name": "GAWLER RIVER",
        "postcode": "5118"
    },
    {
        "name": "GAWLER SOUTH",
        "postcode": "5118"
    },
    {
        "name": "GAWLER WEST",
        "postcode": "5118"
    },
    {
        "name": "GEMMELLS",
        "postcode": "5255"
    },
    {
        "name": "GEORGETOWN",
        "postcode": "5472"
    },
    {
        "name": "GEPPS CROSS",
        "postcode": "5094"
    },
    {
        "name": "GERANIUM",
        "postcode": "5301"
    },
    {
        "name": "GERANIUM PLAINS",
        "postcode": "5381"
    },
    {
        "name": "GERARD",
        "postcode": "5343"
    },
    {
        "name": "GERMAN CREEK",
        "postcode": "5280"
    },
    {
        "name": "GERMAN FLAT",
        "postcode": "5280"
    },
    {
        "name": "GERMEIN BAY",
        "postcode": "5495"
    },
    {
        "name": "GIFFORD HILL",
        "postcode": "5253"
    },
    {
        "name": "GILBERTON",
        "postcode": "5081"
    },
    {
        "name": "GILES CORNER",
        "postcode": "5411"
    },
    {
        "name": "GILLENTOWN",
        "postcode": "5453"
    },
    {
        "name": "GILLES PLAINS",
        "postcode": "5086"
    },
    {
        "name": "GILLMAN",
        "postcode": "5013"
    },
    {
        "name": "GLADSTONE",
        "postcode": "5473"
    },
    {
        "name": "GLANDORE",
        "postcode": "5037"
    },
    {
        "name": "GLANVILLE",
        "postcode": "5015"
    },
    {
        "name": "GLEESON HILL",
        "postcode": "5520"
    },
    {
        "name": "GLEN OSMOND",
        "postcode": "5064"
    },
    {
        "name": "GLENALTA",
        "postcode": "5052"
    },
    {
        "name": "GLENBURNIE",
        "postcode": "5291"
    },
    {
        "name": "GLENCOE",
        "postcode": "5291"
    },
    {
        "name": "GLENCOE WEST",
        "postcode": "5291"
    },
    {
        "name": "GLENDAMBO",
        "postcode": "5710"
    },
    {
        "name": "GLENELG",
        "postcode": "5045"
    },
    {
        "name": "GLENELG EAST",
        "postcode": "5045"
    },
    {
        "name": "GLENELG JETTY ROAD",
        "postcode": "5045"
    },
    {
        "name": "GLENELG NORTH",
        "postcode": "5045"
    },
    {
        "name": "GLENELG SOUTH",
        "postcode": "5045"
    },
    {
        "name": "GLENGOWRIE",
        "postcode": "5044"
    },
    {
        "name": "GLENROY",
        "postcode": "5277"
    },
    {
        "name": "GLENSIDE",
        "postcode": "5065"
    },
    {
        "name": "GLENUNGA",
        "postcode": "5064"
    },
    {
        "name": "GLOBE DERBY PARK",
        "postcode": "5110"
    },
    {
        "name": "GLOSSOP",
        "postcode": "5344"
    },
    {
        "name": "GLYNDE",
        "postcode": "5070"
    },
    {
        "name": "GLYNDE DC",
        "postcode": "5070"
    },
    {
        "name": "GLYNDE PLAZA",
        "postcode": "5070"
    },
    {
        "name": "GOLDEN GROVE",
        "postcode": "5125"
    },
    {
        "name": "GOLDEN GROVE VILLAGE",
        "postcode": "5125"
    },
    {
        "name": "GOLDEN HEIGHTS",
        "postcode": "5322"
    },
    {
        "name": "GOMERSAL",
        "postcode": "5352"
    },
    {
        "name": "GOOD HOPE LANDING",
        "postcode": "5330"
    },
    {
        "name": "GOODWOOD",
        "postcode": "5034"
    },
    {
        "name": "GOOLWA",
        "postcode": "5214"
    },
    {
        "name": "GOOLWA BEACH",
        "postcode": "5214"
    },
    {
        "name": "GOOLWA NORTH",
        "postcode": "5214"
    },
    {
        "name": "GOOLWA SOUTH",
        "postcode": "5214"
    },
    {
        "name": "GOSSE",
        "postcode": "5223"
    },
    {
        "name": "GOULD CREEK",
        "postcode": "5114"
    },
    {
        "name": "GOYDER",
        "postcode": "5461"
    },
    {
        "name": "GRACE PLAINS",
        "postcode": "5502"
    },
    {
        "name": "GRANGE",
        "postcode": "5022"
    },
    {
        "name": "GREEN FIELDS",
        "postcode": "5107"
    },
    {
        "name": "GREEN HILLS RANGE",
        "postcode": "5153"
    },
    {
        "name": "GREEN PATCH",
        "postcode": "5607"
    },
    {
        "name": "GREENACRES",
        "postcode": "5086"
    },
    {
        "name": "GREENBANKS",
        "postcode": "5253"
    },
    {
        "name": "GREENHILL",
        "postcode": "5140"
    },
    {
        "name": "GREENOCK",
        "postcode": "5360"
    },
    {
        "name": "GREENWAYS",
        "postcode": "5272"
    },
    {
        "name": "GREENWAYS LANDING",
        "postcode": "5354"
    },
    {
        "name": "GREENWITH",
        "postcode": "5125"
    },
    {
        "name": "GULFVIEW HEIGHTS",
        "postcode": "5096"
    },
    {
        "name": "GULNARE",
        "postcode": "5471"
    },
    {
        "name": "GUM CREEK",
        "postcode": "5417"
    },
    {
        "name": "GUMERACHA",
        "postcode": "5233"
    },
    {
        "name": "GURRA GURRA",
        "postcode": "5343"
    },
    {
        "name": "HACKHAM",
        "postcode": "5163"
    },
    {
        "name": "HACKHAM WEST",
        "postcode": "5163"
    },
    {
        "name": "HACKLINS CORNER",
        "postcode": "5454"
    },
    {
        "name": "HACKNEY",
        "postcode": "5069"
    },
    {
        "name": "HAHNDORF",
        "postcode": "5245"
    },
    {
        "name": "HAINES",
        "postcode": "5223"
    },
    {
        "name": "HALBURY",
        "postcode": "5461"
    },
    {
        "name": "HALIDON",
        "postcode": "5309"
    },
    {
        "name": "HALIFAX STREET",
        "postcode": "5000"
    },
    {
        "name": "HALLELUJAH HILLS",
        "postcode": "5381"
    },
    {
        "name": "HALLETT",
        "postcode": "5419"
    },
    {
        "name": "HALLETT COVE",
        "postcode": "5158"
    },
    {
        "name": "HAMBIDGE",
        "postcode": "5642"
    },
    {
        "name": "HAMILTON",
        "postcode": "5373"
    },
    {
        "name": "HAMLEY",
        "postcode": "5558"
    },
    {
        "name": "HAMLEY BRIDGE",
        "postcode": "5401"
    },
    {
        "name": "HAMMOND",
        "postcode": "5431"
    },
    {
        "name": "HAMPDEN",
        "postcode": "5374"
    },
    {
        "name": "HAMPSTEAD GARDENS",
        "postcode": "5086"
    },
    {
        "name": "HANSBOROUGH",
        "postcode": "5374"
    },
    {
        "name": "HANSON",
        "postcode": "5417"
    },
    {
        "name": "HAPPY VALLEY",
        "postcode": "5159"
    },
    {
        "name": "HARDWICKE BAY",
        "postcode": "5575"
    },
    {
        "name": "HARDY",
        "postcode": "5422"
    },
    {
        "name": "HARRIET RIVER",
        "postcode": "5223"
    },
    {
        "name": "HARROGATE",
        "postcode": "5244"
    },
    {
        "name": "HART",
        "postcode": "5464"
    },
    {
        "name": "HARTLEY",
        "postcode": "5255"
    },
    {
        "name": "HASLAM",
        "postcode": "5680"
    },
    {
        "name": "HATHERLEIGH",
        "postcode": "5280"
    },
    {
        "name": "HAWKER",
        "postcode": "5434"
    },
    {
        "name": "HAWSON",
        "postcode": "5607"
    },
    {
        "name": "HAWTHORN",
        "postcode": "5062"
    },
    {
        "name": "HAWTHORNDENE",
        "postcode": "5051"
    },
    {
        "name": "HAY FLAT",
        "postcode": "5204"
    },
    {
        "name": "HAY VALLEY",
        "postcode": "5252"
    },
    {
        "name": "HAYBOROUGH",
        "postcode": "5211"
    },
    {
        "name": "HAZELWOOD PARK",
        "postcode": "5066"
    },
    {
        "name": "HEATHFIELD",
        "postcode": "5153"
    },
    {
        "name": "HEATHPOOL",
        "postcode": "5068"
    },
    {
        "name": "HECTORVILLE",
        "postcode": "5073"
    },
    {
        "name": "HENDON",
        "postcode": "5014"
    },
    {
        "name": "HENLEY BEACH",
        "postcode": "5022"
    },
    {
        "name": "HENLEY BEACH SOUTH",
        "postcode": "5022"
    },
    {
        "name": "HEWETT",
        "postcode": "5118"
    },
    {
        "name": "HIGHBURY",
        "postcode": "5089"
    },
    {
        "name": "HIGHGATE",
        "postcode": "5063"
    },
    {
        "name": "HIGHLAND VALLEY",
        "postcode": "5255"
    },
    {
        "name": "HILL RIVER",
        "postcode": "5453"
    },
    {
        "name": "HILLBANK",
        "postcode": "5112"
    },
    {
        "name": "HILLCREST",
        "postcode": "5086"
    },
    {
        "name": "HILLIER",
        "postcode": "5116"
    },
    {
        "name": "HILLTOWN",
        "postcode": "5455"
    },
    {
        "name": "HILTON",
        "postcode": "5033"
    },
    {
        "name": "HILTON PLAZA",
        "postcode": "5033"
    },
    {
        "name": "HINCKS",
        "postcode": "5603"
    },
    {
        "name": "HINDMARSH",
        "postcode": "5007"
    },
    {
        "name": "HINDMARSH ISLAND",
        "postcode": "5214"
    },
    {
        "name": "HINDMARSH TIERS",
        "postcode": "5202"
    },
    {
        "name": "HINDMARSH VALLEY",
        "postcode": "5211"
    },
    {
        "name": "HOLDEN HILL",
        "postcode": "5088"
    },
    {
        "name": "HOLDER",
        "postcode": "5330"
    },
    {
        "name": "HOLDER SIDING",
        "postcode": "5330"
    },
    {
        "name": "HONITON",
        "postcode": "5576"
    },
    {
        "name": "HOPE FOREST",
        "postcode": "5172"
    },
    {
        "name": "HOPE GAP",
        "postcode": "5555"
    },
    {
        "name": "HOPE VALLEY",
        "postcode": "5090"
    },
    {
        "name": "HORNSDALE",
        "postcode": "5491"
    },
    {
        "name": "HORSNELL GULLY",
        "postcode": "5141"
    },
    {
        "name": "HOSKIN CORNER",
        "postcode": "5461"
    },
    {
        "name": "HOUGHTON",
        "postcode": "5131"
    },
    {
        "name": "HOVE",
        "postcode": "5048"
    },
    {
        "name": "HOYLETON",
        "postcode": "5453"
    },
    {
        "name": "HUDDLESTON",
        "postcode": "5523"
    },
    {
        "name": "HUMBUG SCRUB",
        "postcode": "5114"
    },
    {
        "name": "HUNGERFORD",
        "postcode": "5222"
    },
    {
        "name": "HUNTFIELD HEIGHTS",
        "postcode": "5163"
    },
    {
        "name": "HUTT STREET",
        "postcode": "5000"
    },
    {
        "name": "HYDE PARK",
        "postcode": "5061"
    },
    {
        "name": "HYNAM",
        "postcode": "5262"
    },
    {
        "name": "INDULKANA",
        "postcode": "0872"
    },
    {
        "name": "INGLE FARM",
        "postcode": "5098"
    },
    {
        "name": "INGLEWOOD",
        "postcode": "5133"
    },
    {
        "name": "INKERMAN",
        "postcode": "5550"
    },
    {
        "name": "INKSTER",
        "postcode": "5680"
    },
    {
        "name": "INMAN VALLEY",
        "postcode": "5211"
    },
    {
        "name": "INNAMINCKA",
        "postcode": "5731"
    },
    {
        "name": "INNESTON",
        "postcode": "5577"
    },
    {
        "name": "INVERBRACKIE",
        "postcode": "5244"
    },
    {
        "name": "IRON BARON",
        "postcode": "5600"
    },
    {
        "name": "IRON KNOB",
        "postcode": "5601"
    },
    {
        "name": "IRONBANK",
        "postcode": "5153"
    },
    {
        "name": "IRONSTONE",
        "postcode": "5222"
    },
    {
        "name": "ISLAND BEACH",
        "postcode": "5222"
    },
    {
        "name": "JABUK",
        "postcode": "5301"
    },
    {
        "name": "JAMES WELL",
        "postcode": "5571"
    },
    {
        "name": "JAMESTOWN",
        "postcode": "5491"
    },
    {
        "name": "JAMIESON",
        "postcode": "5640"
    },
    {
        "name": "JERICHO",
        "postcode": "5554"
    },
    {
        "name": "JERUSALEM",
        "postcode": "5554"
    },
    {
        "name": "JERVOIS",
        "postcode": "5259"
    },
    {
        "name": "JOANNA",
        "postcode": "5271"
    },
    {
        "name": "JOHNBURGH",
        "postcode": "5431"
    },
    {
        "name": "JOSLIN",
        "postcode": "5070"
    },
    {
        "name": "JULANKA HOLDINGS",
        "postcode": "5238"
    },
    {
        "name": "JULIA",
        "postcode": "5374"
    },
    {
        "name": "JUPITER CREEK",
        "postcode": "5153"
    },
    {
        "name": "KADINA",
        "postcode": "5554"
    },
    {
        "name": "KAINTON",
        "postcode": "5552"
    },
    {
        "name": "KALANBI",
        "postcode": "5690"
    },
    {
        "name": "KALANGADOO",
        "postcode": "5278"
    },
    {
        "name": "KALBEEBA",
        "postcode": "5118"
    },
    {
        "name": "KALDOONERA",
        "postcode": "5655"
    },
    {
        "name": "KALLORA",
        "postcode": "5550"
    },
    {
        "name": "KALYAN",
        "postcode": "5308"
    },
    {
        "name": "KANGARILLA",
        "postcode": "5157"
    },
    {
        "name": "KANGAROO FLAT",
        "postcode": "5118"
    },
    {
        "name": "KANGAROO HEAD",
        "postcode": "5222"
    },
    {
        "name": "KANGAROO INN",
        "postcode": "5280"
    },
    {
        "name": "KANMANTOO",
        "postcode": "5252"
    },
    {
        "name": "KANNI",
        "postcode": "5330"
    },
    {
        "name": "KANYAKA",
        "postcode": "5434"
    },
    {
        "name": "KAPINNIE",
        "postcode": "5632"
    },
    {
        "name": "KAPPAWANTA",
        "postcode": "5670"
    },
    {
        "name": "KAPUNDA",
        "postcode": "5373"
    },
    {
        "name": "KARATTA",
        "postcode": "5223"
    },
    {
        "name": "KARCULTABY",
        "postcode": "5654"
    },
    {
        "name": "KARKOO",
        "postcode": "5607"
    },
    {
        "name": "KAROONDA",
        "postcode": "5307"
    },
    {
        "name": "KARTE",
        "postcode": "5307"
    },
    {
        "name": "KATARAPKO",
        "postcode": "5343"
    },
    {
        "name": "KEILIRA",
        "postcode": "5275"
    },
    {
        "name": "KEITH",
        "postcode": "5267"
    },
    {
        "name": "KELLIDIE BAY",
        "postcode": "5607"
    },
    {
        "name": "KELLY",
        "postcode": "5641"
    },
    {
        "name": "KENSINGTON",
        "postcode": "5068"
    },
    {
        "name": "KENSINGTON GARDENS",
        "postcode": "5068"
    },
    {
        "name": "KENSINGTON PARK",
        "postcode": "5068"
    },
    {
        "name": "KENT TOWN",
        "postcode": "5067"
    },
    {
        "name": "KENT TOWN DC",
        "postcode": "5071"
    },
    {
        "name": "KEPA",
        "postcode": "5259"
    },
    {
        "name": "KEPPOCH",
        "postcode": "5271"
    },
    {
        "name": "KERSBROOK",
        "postcode": "5231"
    },
    {
        "name": "KESWICK",
        "postcode": "5035"
    },
    {
        "name": "KESWICK TERMINAL",
        "postcode": "5035"
    },
    {
        "name": "KEYNETON",
        "postcode": "5353"
    },
    {
        "name": "KI KI",
        "postcode": "5261"
    },
    {
        "name": "KIANA",
        "postcode": "5607"
    },
    {
        "name": "KIDMAN PARK",
        "postcode": "5025"
    },
    {
        "name": "KIELPA",
        "postcode": "5642"
    },
    {
        "name": "KILBURN",
        "postcode": "5084"
    },
    {
        "name": "KILBURN NORTH",
        "postcode": "5084"
    },
    {
        "name": "KILKENNY",
        "postcode": "5009"
    },
    {
        "name": "KIMBA",
        "postcode": "5641"
    },
    {
        "name": "KINGOONYA",
        "postcode": "5710"
    },
    {
        "name": "KINGS PARK",
        "postcode": "5034"
    },
    {
        "name": "KINGSCOTE",
        "postcode": "5223"
    },
    {
        "name": "KINGSFORD",
        "postcode": "5118"
    },
    {
        "name": "KINGSTON ON MURRAY",
        "postcode": "5331"
    },
    {
        "name": "KINGSTON PARK",
        "postcode": "5049"
    },
    {
        "name": "KINGSTON SE",
        "postcode": "5275"
    },
    {
        "name": "KINGSWOOD",
        "postcode": "5062"
    },
    {
        "name": "KIRKCALDY",
        "postcode": "5022"
    },
    {
        "name": "KIRTON POINT",
        "postcode": "5606"
    },
    {
        "name": "KLEMZIG",
        "postcode": "5087"
    },
    {
        "name": "KOHINOOR",
        "postcode": "5223"
    },
    {
        "name": "KONGAL",
        "postcode": "5270"
    },
    {
        "name": "KONGOLIA",
        "postcode": "5353"
    },
    {
        "name": "KONGORONG",
        "postcode": "5291"
    },
    {
        "name": "KOOLGERA",
        "postcode": "5661"
    },
    {
        "name": "KOOLUNGA",
        "postcode": "5464"
    },
    {
        "name": "KOOLYWURTIE",
        "postcode": "5575"
    },
    {
        "name": "KOONGAWA",
        "postcode": "5650"
    },
    {
        "name": "KOONIBBA",
        "postcode": "5690"
    },
    {
        "name": "KOONOONA",
        "postcode": "5417"
    },
    {
        "name": "KOONUNGA",
        "postcode": "5373"
    },
    {
        "name": "KOORINE",
        "postcode": "5279"
    },
    {
        "name": "KOOROONA",
        "postcode": "5558"
    },
    {
        "name": "KOPPAMURRA",
        "postcode": "5271"
    },
    {
        "name": "KOPPIO",
        "postcode": "5607"
    },
    {
        "name": "KORUNYE",
        "postcode": "5502"
    },
    {
        "name": "KRINGIN",
        "postcode": "5304"
    },
    {
        "name": "KRONDORF",
        "postcode": "5352"
    },
    {
        "name": "KRONGART",
        "postcode": "5278"
    },
    {
        "name": "KUDLA",
        "postcode": "5115"
    },
    {
        "name": "KUITPO",
        "postcode": "5172"
    },
    {
        "name": "KUITPO COLONY",
        "postcode": "5172"
    },
    {
        "name": "KULKAMI",
        "postcode": "5307"
    },
    {
        "name": "KULPARA",
        "postcode": "5555"
    },
    {
        "name": "KURRALTA PARK",
        "postcode": "5037"
    },
    {
        "name": "KYANCUTTA",
        "postcode": "5651"
    },
    {
        "name": "KYBUNGA",
        "postcode": "5453"
    },
    {
        "name": "KYBYBOLITE",
        "postcode": "5262"
    },
    {
        "name": "KYEEMA",
        "postcode": "5172"
    },
    {
        "name": "LAFFER",
        "postcode": "5267"
    },
    {
        "name": "LAKE CARLET",
        "postcode": "5238"
    },
    {
        "name": "LAKE PLAINS",
        "postcode": "5255"
    },
    {
        "name": "LAKE VIEW",
        "postcode": "5555"
    },
    {
        "name": "LAMEROO",
        "postcode": "5302"
    },
    {
        "name": "LANGHORNE CREEK",
        "postcode": "5255"
    },
    {
        "name": "LANGS LANDING",
        "postcode": "5354"
    },
    {
        "name": "LARGS BAY",
        "postcode": "5016"
    },
    {
        "name": "LARGS NORTH",
        "postcode": "5016"
    },
    {
        "name": "LAURA",
        "postcode": "5480"
    },
    {
        "name": "LAURA BAY",
        "postcode": "5680"
    },
    {
        "name": "LAURIE PARK",
        "postcode": "5271"
    },
    {
        "name": "LEABROOK",
        "postcode": "5068"
    },
    {
        "name": "LEASINGHAM",
        "postcode": "5452"
    },
    {
        "name": "LEAWOOD GARDENS",
        "postcode": "5150"
    },
    {
        "name": "LEIGH CREEK",
        "postcode": "5731"
    },
    {
        "name": "LEIGHTON",
        "postcode": "5417"
    },
    {
        "name": "LENSWOOD",
        "postcode": "5240"
    },
    {
        "name": "LEWISTON",
        "postcode": "5501"
    },
    {
        "name": "LIGHT PASS",
        "postcode": "5355"
    },
    {
        "name": "LINCOLN NATIONAL PARK",
        "postcode": "5607"
    },
    {
        "name": "LINDEN PARK",
        "postcode": "5065"
    },
    {
        "name": "LINDLEY",
        "postcode": "5320"
    },
    {
        "name": "LINWOOD",
        "postcode": "5410"
    },
    {
        "name": "LIPSON",
        "postcode": "5607"
    },
    {
        "name": "LITTLE DOUGLAS",
        "postcode": "5607"
    },
    {
        "name": "LITTLEHAMPTON",
        "postcode": "5250"
    },
    {
        "name": "LOBETHAL",
        "postcode": "5241"
    },
    {
        "name": "LOCHABER",
        "postcode": "5271"
    },
    {
        "name": "LOCHIEL",
        "postcode": "5510"
    },
    {
        "name": "LOCK",
        "postcode": "5633"
    },
    {
        "name": "LOCKLEYS",
        "postcode": "5032"
    },
    {
        "name": "LONG FLAT",
        "postcode": "5253"
    },
    {
        "name": "LONG PLAINS",
        "postcode": "5501"
    },
    {
        "name": "LONGWOOD",
        "postcode": "5153"
    },
    {
        "name": "LONSDALE",
        "postcode": "5160"
    },
    {
        "name": "LONSDALE DC",
        "postcode": "5160"
    },
    {
        "name": "LOUTH BAY",
        "postcode": "5607"
    },
    {
        "name": "LOVEDAY",
        "postcode": "5345"
    },
    {
        "name": "LOWAN VALE",
        "postcode": "5268"
    },
    {
        "name": "LOWBANK",
        "postcode": "5330"
    },
    {
        "name": "LOWER BROUGHTON",
        "postcode": "5522"
    },
    {
        "name": "LOWER HERMITAGE",
        "postcode": "5131"
    },
    {
        "name": "LOWER INMAN VALLEY",
        "postcode": "5211"
    },
    {
        "name": "LOWER LIGHT",
        "postcode": "5501"
    },
    {
        "name": "LOWER MITCHAM",
        "postcode": "5062"
    },
    {
        "name": "LOXTON",
        "postcode": "5333"
    },
    {
        "name": "LOXTON NORTH",
        "postcode": "5333"
    },
    {
        "name": "LUCINDALE",
        "postcode": "5272"
    },
    {
        "name": "LUCKY BAY",
        "postcode": "5602"
    },
    {
        "name": "LYNDHURST",
        "postcode": "5731"
    },
    {
        "name": "LYNDOCH",
        "postcode": "5351"
    },
    {
        "name": "LYNTON",
        "postcode": "5062"
    },
    {
        "name": "LYRUP",
        "postcode": "5343"
    },
    {
        "name": "MAAOUPE",
        "postcode": "5277"
    },
    {
        "name": "MACCLESFIELD",
        "postcode": "5153"
    },
    {
        "name": "MACDONALD PARK",
        "postcode": "5121"
    },
    {
        "name": "MACGILLIVRAY",
        "postcode": "5223"
    },
    {
        "name": "MAGAREY",
        "postcode": "5280"
    },
    {
        "name": "MAGDALA",
        "postcode": "5400"
    },
    {
        "name": "MAGGEA",
        "postcode": "5311"
    },
    {
        "name": "MAGILL",
        "postcode": "5072"
    },
    {
        "name": "MAGILL NORTH",
        "postcode": "5072"
    },
    {
        "name": "MAGILL SOUTH",
        "postcode": "5072"
    },
    {
        "name": "MAITLAND",
        "postcode": "5573"
    },
    {
        "name": "MAKIN",
        "postcode": "5267"
    },
    {
        "name": "MALINONG",
        "postcode": "5259"
    },
    {
        "name": "MALLALA",
        "postcode": "5502"
    },
    {
        "name": "MALPAS",
        "postcode": "5311"
    },
    {
        "name": "MALTEE",
        "postcode": "5690"
    },
    {
        "name": "MALVERN",
        "postcode": "5061"
    },
    {
        "name": "MAMBRAY CREEK",
        "postcode": "5495"
    },
    {
        "name": "MANGALO",
        "postcode": "5602"
    },
    {
        "name": "MANNA HILL",
        "postcode": "5440"
    },
    {
        "name": "MANNANARIE",
        "postcode": "5422"
    },
    {
        "name": "MANNINGHAM",
        "postcode": "5086"
    },
    {
        "name": "MANNUM",
        "postcode": "5238"
    },
    {
        "name": "MANOORA",
        "postcode": "5414"
    },
    {
        "name": "MANSFIELD PARK",
        "postcode": "5012"
    },
    {
        "name": "MANTUNG",
        "postcode": "5308"
    },
    {
        "name": "MARAMA",
        "postcode": "5307"
    },
    {
        "name": "MARANANGA",
        "postcode": "5355"
    },
    {
        "name": "MARBLE HILL",
        "postcode": "5137"
    },
    {
        "name": "MARCOLLAT",
        "postcode": "5271"
    },
    {
        "name": "MARDEN",
        "postcode": "5070"
    },
    {
        "name": "MARINO",
        "postcode": "5049"
    },
    {
        "name": "MARION",
        "postcode": "5043"
    },
    {
        "name": "MARION BAY",
        "postcode": "5575"
    },
    {
        "name": "MARKARANKA",
        "postcode": "5330"
    },
    {
        "name": "MARKS LANDING",
        "postcode": "5354"
    },
    {
        "name": "MARLA",
        "postcode": "5724"
    },
    {
        "name": "MARLESTON",
        "postcode": "5033"
    },
    {
        "name": "MARLESTON DC",
        "postcode": "5033"
    },
    {
        "name": "MAROLA",
        "postcode": "5464"
    },
    {
        "name": "MARRABEL",
        "postcode": "5413"
    },
    {
        "name": "MARREE",
        "postcode": "5733"
    },
    {
        "name": "MARRYATVILLE",
        "postcode": "5068"
    },
    {
        "name": "MARYVALE",
        "postcode": "5680"
    },
    {
        "name": "MASLIN BEACH",
        "postcode": "5170"
    },
    {
        "name": "MATTA FLAT",
        "postcode": "5554"
    },
    {
        "name": "MAUDE",
        "postcode": "5320"
    },
    {
        "name": "MAWSON LAKES",
        "postcode": "5095"
    },
    {
        "name": "MAYFIELD",
        "postcode": "5454"
    },
    {
        "name": "MAYLANDS",
        "postcode": "5069"
    },
    {
        "name": "MCBEAN POUND",
        "postcode": "5357"
    },
    {
        "name": "MCCALLUM",
        "postcode": "5267"
    },
    {
        "name": "MCCRACKEN",
        "postcode": "5211"
    },
    {
        "name": "MCHARG CREEK",
        "postcode": "5157"
    },
    {
        "name": "MCLAREN FLAT",
        "postcode": "5171"
    },
    {
        "name": "MCLAREN VALE",
        "postcode": "5171"
    },
    {
        "name": "MEADOWS",
        "postcode": "5201"
    },
    {
        "name": "MEDINDIE",
        "postcode": "5081"
    },
    {
        "name": "MEDINDIE GARDENS",
        "postcode": "5081"
    },
    {
        "name": "MELROSE",
        "postcode": "5483"
    },
    {
        "name": "MELROSE PARK",
        "postcode": "5039"
    },
    {
        "name": "MELROSE PARK DC",
        "postcode": "5039"
    },
    {
        "name": "MELTON",
        "postcode": "5555"
    },
    {
        "name": "MENINGIE",
        "postcode": "5264"
    },
    {
        "name": "MENINGIE EAST",
        "postcode": "5264"
    },
    {
        "name": "MENINGIE WEST",
        "postcode": "5264"
    },
    {
        "name": "MENZIES",
        "postcode": "5223"
    },
    {
        "name": "MERCUNDA",
        "postcode": "5308"
    },
    {
        "name": "MERGHINY",
        "postcode": "5690"
    },
    {
        "name": "MERIBAH",
        "postcode": "5311"
    },
    {
        "name": "MERRITON",
        "postcode": "5523"
    },
    {
        "name": "MERTY MERTY",
        "postcode": "5731"
    },
    {
        "name": "MIDDLE BEACH",
        "postcode": "5501"
    },
    {
        "name": "MIDDLE RIVER",
        "postcode": "5223"
    },
    {
        "name": "MIDDLETON",
        "postcode": "5213"
    },
    {
        "name": "MIDGEE",
        "postcode": "5602"
    },
    {
        "name": "MILANG",
        "postcode": "5256"
    },
    {
        "name": "MILE END",
        "postcode": "5031"
    },
    {
        "name": "MILE END SOUTH",
        "postcode": "5031"
    },
    {
        "name": "MILENDELLA",
        "postcode": "5237"
    },
    {
        "name": "MILLBROOK",
        "postcode": "5231"
    },
    {
        "name": "MIL-LEL",
        "postcode": "5291"
    },
    {
        "name": "MILLICENT",
        "postcode": "5280"
    },
    {
        "name": "MILLSWOOD",
        "postcode": "5034"
    },
    {
        "name": "MILTALIE",
        "postcode": "5602"
    },
    {
        "name": "MIMILI",
        "postcode": "0872"
    },
    {
        "name": "MINBRIE",
        "postcode": "5602"
    },
    {
        "name": "MINBURRA",
        "postcode": "5431"
    },
    {
        "name": "MINDARIE",
        "postcode": "5309"
    },
    {
        "name": "MINGARY",
        "postcode": "5440"
    },
    {
        "name": "MINGBOOL",
        "postcode": "5291"
    },
    {
        "name": "MINLATON",
        "postcode": "5575"
    },
    {
        "name": "MINNIPA",
        "postcode": "5654"
    },
    {
        "name": "MINTABIE",
        "postcode": "5724"
    },
    {
        "name": "MINTARO",
        "postcode": "5415"
    },
    {
        "name": "MINVALARA",
        "postcode": "5422"
    },
    {
        "name": "MIRANDA",
        "postcode": "5700"
    },
    {
        "name": "MITCHAM",
        "postcode": "5062"
    },
    {
        "name": "MITCHAM SHOPPING CENTRE",
        "postcode": "5062"
    },
    {
        "name": "MITCHELL",
        "postcode": "5607"
    },
    {
        "name": "MITCHELL PARK",
        "postcode": "5043"
    },
    {
        "name": "MITCHELLVILLE",
        "postcode": "5602"
    },
    {
        "name": "MOANA",
        "postcode": "5169"
    },
    {
        "name": "MOBILONG",
        "postcode": "5253"
    },
    {
        "name": "MOCULTA",
        "postcode": "5353"
    },
    {
        "name": "MODBURY",
        "postcode": "5092"
    },
    {
        "name": "MODBURY HEIGHTS",
        "postcode": "5092"
    },
    {
        "name": "MODBURY NORTH",
        "postcode": "5092"
    },
    {
        "name": "MODBURY NORTH DC",
        "postcode": "5092"
    },
    {
        "name": "MOERLONG",
        "postcode": "5278"
    },
    {
        "name": "MONARTO",
        "postcode": "5254"
    },
    {
        "name": "MONARTO SOUTH",
        "postcode": "5254"
    },
    {
        "name": "MONASH",
        "postcode": "5342"
    },
    {
        "name": "MONBULLA",
        "postcode": "5277"
    },
    {
        "name": "MONGOLATA",
        "postcode": "5417"
    },
    {
        "name": "MONTACUTE",
        "postcode": "5134"
    },
    {
        "name": "MONTARRA",
        "postcode": "5172"
    },
    {
        "name": "MONTEITH",
        "postcode": "5254"
    },
    {
        "name": "MOOCKRA",
        "postcode": "5432"
    },
    {
        "name": "MOODY",
        "postcode": "5607"
    },
    {
        "name": "MOOLAWATANA",
        "postcode": "5731"
    },
    {
        "name": "MOONTA",
        "postcode": "5558"
    },
    {
        "name": "MOONTA BAY",
        "postcode": "5558"
    },
    {
        "name": "MOONTA MINES",
        "postcode": "5558"
    },
    {
        "name": "MOORAK",
        "postcode": "5291"
    },
    {
        "name": "MOORLANDS",
        "postcode": "5301"
    },
    {
        "name": "MOOROOK",
        "postcode": "5332"
    },
    {
        "name": "MOOROOK SOUTH",
        "postcode": "5332"
    },
    {
        "name": "MOOTATUNGA",
        "postcode": "5307"
    },
    {
        "name": "MOPPA",
        "postcode": "5355"
    },
    {
        "name": "MORCHARD",
        "postcode": "5431"
    },
    {
        "name": "MORGAN",
        "postcode": "5320"
    },
    {
        "name": "MORN HILL",
        "postcode": "5371"
    },
    {
        "name": "MORPHETT VALE",
        "postcode": "5162"
    },
    {
        "name": "MORPHETTS FLAT",
        "postcode": "5320"
    },
    {
        "name": "MORPHETTVILLE",
        "postcode": "5043"
    },
    {
        "name": "MORTANA",
        "postcode": "5671"
    },
    {
        "name": "MOSELEY",
        "postcode": "5641"
    },
    {
        "name": "MOSQUITO HILL",
        "postcode": "5214"
    },
    {
        "name": "MOUNT BARKER",
        "postcode": "5251"
    },
    {
        "name": "MOUNT BARKER JUNCTION",
        "postcode": "5251"
    },
    {
        "name": "MOUNT BARKER SPRINGS",
        "postcode": "5251"
    },
    {
        "name": "MOUNT BARKER SUMMIT",
        "postcode": "5251"
    },
    {
        "name": "MOUNT BENSON",
        "postcode": "5275"
    },
    {
        "name": "MOUNT BRYAN",
        "postcode": "5418"
    },
    {
        "name": "MOUNT BRYAN EAST",
        "postcode": "5419"
    },
    {
        "name": "MOUNT BURR",
        "postcode": "5279"
    },
    {
        "name": "MOUNT CHARLES",
        "postcode": "5267"
    },
    {
        "name": "MOUNT COMPASS",
        "postcode": "5210"
    },
    {
        "name": "MOUNT COOPER",
        "postcode": "5671"
    },
    {
        "name": "MOUNT CRAWFORD",
        "postcode": "5351"
    },
    {
        "name": "MOUNT DAMPER",
        "postcode": "5654"
    },
    {
        "name": "MOUNT DRUMMOND",
        "postcode": "5607"
    },
    {
        "name": "MOUNT DUTTON BAY",
        "postcode": "5607"
    },
    {
        "name": "MOUNT GAMBIER",
        "postcode": "5290"
    },
    {
        "name": "MOUNT GAMBIER DC",
        "postcode": "5290"
    },
    {
        "name": "MOUNT GAMBIER EAST",
        "postcode": "5291"
    },
    {
        "name": "MOUNT GAMBIER WEST",
        "postcode": "5291"
    },
    {
        "name": "MOUNT GEORGE",
        "postcode": "5155"
    },
    {
        "name": "MOUNT HOPE",
        "postcode": "5607"
    },
    {
        "name": "MOUNT JAGGED",
        "postcode": "5211"
    },
    {
        "name": "MOUNT JOY",
        "postcode": "5670"
    },
    {
        "name": "MOUNT LIGHT",
        "postcode": "5271"
    },
    {
        "name": "MOUNT LOFTY",
        "postcode": "5152"
    },
    {
        "name": "MOUNT MAGNIFICENT",
        "postcode": "5210"
    },
    {
        "name": "MOUNT MARY",
        "postcode": "5374"
    },
    {
        "name": "MOUNT MCINTYRE",
        "postcode": "5279"
    },
    {
        "name": "MOUNT MCKENZIE",
        "postcode": "5353"
    },
    {
        "name": "MOUNT OBSERVATION",
        "postcode": "5255"
    },
    {
        "name": "MOUNT OSMOND",
        "postcode": "5064"
    },
    {
        "name": "MOUNT PLEASANT",
        "postcode": "5235"
    },
    {
        "name": "MOUNT SCHANK",
        "postcode": "5291"
    },
    {
        "name": "MOUNT TEMPLETON",
        "postcode": "5461"
    },
    {
        "name": "MOUNT TORRENS",
        "postcode": "5244"
    },
    {
        "name": "MOUNT WEDGE",
        "postcode": "5670"
    },
    {
        "name": "MOYHALL",
        "postcode": "5271"
    },
    {
        "name": "MUDAMUCKLA",
        "postcode": "5680"
    },
    {
        "name": "MULGUNDAWA",
        "postcode": "5255"
    },
    {
        "name": "MULLAQUANA",
        "postcode": "5600"
    },
    {
        "name": "MUNDALLIO",
        "postcode": "5700"
    },
    {
        "name": "MUNDIC CREEK",
        "postcode": "5340"
    },
    {
        "name": "MUNDOO ISLAND",
        "postcode": "5214"
    },
    {
        "name": "MUNDOORA",
        "postcode": "5555"
    },
    {
        "name": "MUNDULLA",
        "postcode": "5270"
    },
    {
        "name": "MUNDULLA WEST",
        "postcode": "5270"
    },
    {
        "name": "MUNNO PARA",
        "postcode": "5115"
    },
    {
        "name": "MUNNO PARA DOWNS",
        "postcode": "5115"
    },
    {
        "name": "MUNNO PARA WEST",
        "postcode": "5115"
    },
    {
        "name": "MURBKO",
        "postcode": "5320"
    },
    {
        "name": "MURDINGA",
        "postcode": "5607"
    },
    {
        "name": "MURLONG",
        "postcode": "5642"
    },
    {
        "name": "MURPUTJA HOMELANDS",
        "postcode": "0872"
    },
    {
        "name": "MURRAWONG",
        "postcode": "5253"
    },
    {
        "name": "MURRAY BRIDGE",
        "postcode": "5253"
    },
    {
        "name": "MURRAY BRIDGE EAST",
        "postcode": "5253"
    },
    {
        "name": "MURRAY BRIDGE NORTH",
        "postcode": "5253"
    },
    {
        "name": "MURRAY BRIDGE SOUTH",
        "postcode": "5253"
    },
    {
        "name": "MURRAY TOWN",
        "postcode": "5481"
    },
    {
        "name": "MURTHO",
        "postcode": "5340"
    },
    {
        "name": "MUSTON",
        "postcode": "5221"
    },
    {
        "name": "MYLOR",
        "postcode": "5153"
    },
    {
        "name": "MYPOLONGA",
        "postcode": "5254"
    },
    {
        "name": "MYPONGA",
        "postcode": "5202"
    },
    {
        "name": "MYPONGA BEACH",
        "postcode": "5202"
    },
    {
        "name": "MYRTLE BANK",
        "postcode": "5064"
    },
    {
        "name": "NACKARA",
        "postcode": "5440"
    },
    {
        "name": "NADIA",
        "postcode": "5690"
    },
    {
        "name": "NAIDIA",
        "postcode": "5354"
    },
    {
        "name": "NAILSWORTH",
        "postcode": "5083"
    },
    {
        "name": "NAIN",
        "postcode": "5360"
    },
    {
        "name": "NAIRNE",
        "postcode": "5252"
    },
    {
        "name": "NALPA",
        "postcode": "5255"
    },
    {
        "name": "NALYAPPA",
        "postcode": "5558"
    },
    {
        "name": "NANGKITA",
        "postcode": "5210"
    },
    {
        "name": "NANGWARRY",
        "postcode": "5277"
    },
    {
        "name": "NANTAWARRA",
        "postcode": "5550"
    },
    {
        "name": "NAPPERBY",
        "postcode": "5540"
    },
    {
        "name": "NARACOORTE",
        "postcode": "5271"
    },
    {
        "name": "NARRIDY",
        "postcode": "5523"
    },
    {
        "name": "NARRUNG",
        "postcode": "5259"
    },
    {
        "name": "NATURI",
        "postcode": "5259"
    },
    {
        "name": "NAVAN",
        "postcode": "5412"
    },
    {
        "name": "NEALES FLAT",
        "postcode": "5374"
    },
    {
        "name": "NECTAR BROOK",
        "postcode": "5495"
    },
    {
        "name": "NELSHABY",
        "postcode": "5540"
    },
    {
        "name": "NENE VALLEY",
        "postcode": "5291"
    },
    {
        "name": "NEPABUNNA",
        "postcode": "5732"
    },
    {
        "name": "NEPEAN BAY",
        "postcode": "5223"
    },
    {
        "name": "NETHERBY",
        "postcode": "5062"
    },
    {
        "name": "NETHERTON",
        "postcode": "5301"
    },
    {
        "name": "NETLEY",
        "postcode": "5037"
    },
    {
        "name": "NEW PORT",
        "postcode": "5015"
    },
    {
        "name": "NEW RESIDENCE",
        "postcode": "5333"
    },
    {
        "name": "NEW TOWN",
        "postcode": "5554"
    },
    {
        "name": "NEW WELL",
        "postcode": "5357"
    },
    {
        "name": "NEWLAND",
        "postcode": "5223"
    },
    {
        "name": "NEWTON",
        "postcode": "5074"
    },
    {
        "name": "NGAPALA",
        "postcode": "5374"
    },
    {
        "name": "NGARKAT",
        "postcode": "5302"
    },
    {
        "name": "NILDOTTIE",
        "postcode": "5238"
    },
    {
        "name": "NINNES",
        "postcode": "5560"
    },
    {
        "name": "NOARLUNGA CENTRE",
        "postcode": "5168"
    },
    {
        "name": "NOARLUNGA DOWNS",
        "postcode": "5168"
    },
    {
        "name": "NONNING",
        "postcode": "5710"
    },
    {
        "name": "NORA CREINA",
        "postcode": "5276"
    },
    {
        "name": "NORMANVILLE",
        "postcode": "5204"
    },
    {
        "name": "NORTH ADELAIDE",
        "postcode": "5006"
    },
    {
        "name": "NORTH ADELAIDE MELBOURNE ST",
        "postcode": "5006"
    },
    {
        "name": "NORTH BEACH",
        "postcode": "5556"
    },
    {
        "name": "NORTH BOOBOROWIE",
        "postcode": "5417"
    },
    {
        "name": "NORTH BRIGHTON",
        "postcode": "5048"
    },
    {
        "name": "NORTH CAPE",
        "postcode": "5223"
    },
    {
        "name": "NORTH HAVEN",
        "postcode": "5018"
    },
    {
        "name": "NORTH MOONTA",
        "postcode": "5558"
    },
    {
        "name": "NORTH PLYMPTON",
        "postcode": "5037"
    },
    {
        "name": "NORTH SHIELDS",
        "postcode": "5607"
    },
    {
        "name": "NORTH WEST BEND",
        "postcode": "5320"
    },
    {
        "name": "NORTH YELTA",
        "postcode": "5558"
    },
    {
        "name": "NORTHERN HEIGHTS",
        "postcode": "5253"
    },
    {
        "name": "NORTHFIELD",
        "postcode": "5085"
    },
    {
        "name": "NORTHGATE",
        "postcode": "5085"
    },
    {
        "name": "NORTON SUMMIT",
        "postcode": "5136"
    },
    {
        "name": "NORWOOD",
        "postcode": "5067"
    },
    {
        "name": "NORWOOD SOUTH",
        "postcode": "5067"
    },
    {
        "name": "NOTTS WELL",
        "postcode": "5357"
    },
    {
        "name": "NOVAR GARDENS",
        "postcode": "5040"
    },
    {
        "name": "NUNDROO",
        "postcode": "5690"
    },
    {
        "name": "NUNJIKOMPITA",
        "postcode": "5680"
    },
    {
        "name": "NURIOOTPA",
        "postcode": "5355"
    },
    {
        "name": "NUROM",
        "postcode": "5523"
    },
    {
        "name": "NURRAGI",
        "postcode": "5256"
    },
    {
        "name": "NYAPARI",
        "postcode": "0872"
    },
    {
        "name": "OAKBANK",
        "postcode": "5243"
    },
    {
        "name": "OAKDEN",
        "postcode": "5086"
    },
    {
        "name": "OAKLANDS PARK",
        "postcode": "5046"
    },
    {
        "name": "OB FLAT",
        "postcode": "5291"
    },
    {
        "name": "O'HALLORAN HILL",
        "postcode": "5158"
    },
    {
        "name": "O'HALLORAN HILL DC",
        "postcode": "5158"
    },
    {
        "name": "OLARY",
        "postcode": "5440"
    },
    {
        "name": "OLD CALPERUM",
        "postcode": "5341"
    },
    {
        "name": "OLD NOARLUNGA",
        "postcode": "5168"
    },
    {
        "name": "OLD REYNELLA",
        "postcode": "5161"
    },
    {
        "name": "OLD TEAL FLAT",
        "postcode": "5238"
    },
    {
        "name": "OLYMPIC DAM",
        "postcode": "5725"
    },
    {
        "name": "ONE TREE HILL",
        "postcode": "5114"
    },
    {
        "name": "ONKAPARINGA HILLS",
        "postcode": "5163"
    },
    {
        "name": "OODLA WIRRA",
        "postcode": "5422"
    },
    {
        "name": "OODNADATTA",
        "postcode": "5734"
    },
    {
        "name": "ORROROO",
        "postcode": "5431"
    },
    {
        "name": "OSBORNE",
        "postcode": "5017"
    },
    {
        "name": "O'SULLIVAN BEACH",
        "postcode": "5166"
    },
    {
        "name": "OTTOWAY",
        "postcode": "5013"
    },
    {
        "name": "OUTER HARBOR",
        "postcode": "5018"
    },
    {
        "name": "OVERLAND CORNER",
        "postcode": "5330"
    },
    {
        "name": "OVINGHAM",
        "postcode": "5082"
    },
    {
        "name": "OWEN",
        "postcode": "5460"
    },
    {
        "name": "PADTHAWAY",
        "postcode": "5271"
    },
    {
        "name": "PAECHTOWN",
        "postcode": "5245"
    },
    {
        "name": "PAGES FLAT",
        "postcode": "5172"
    },
    {
        "name": "PAISLEY",
        "postcode": "5357"
    },
    {
        "name": "PALKAGEE",
        "postcode": "5670"
    },
    {
        "name": "PALLAMANA",
        "postcode": "5254"
    },
    {
        "name": "PALMER",
        "postcode": "5237"
    },
    {
        "name": "PANEY",
        "postcode": "5652"
    },
    {
        "name": "PANITYA",
        "postcode": "5641"
    },
    {
        "name": "PANORAMA",
        "postcode": "5041"
    },
    {
        "name": "PARA HILLS",
        "postcode": "5096"
    },
    {
        "name": "PARA HILLS WEST",
        "postcode": "5096"
    },
    {
        "name": "PARA VISTA",
        "postcode": "5093"
    },
    {
        "name": "PARACHILNA",
        "postcode": "5730"
    },
    {
        "name": "PARACOMBE",
        "postcode": "5132"
    },
    {
        "name": "PARADISE",
        "postcode": "5075"
    },
    {
        "name": "PARAFIELD",
        "postcode": "5106"
    },
    {
        "name": "PARAFIELD AIRPORT",
        "postcode": "5106"
    },
    {
        "name": "PARAFIELD GARDENS",
        "postcode": "5107"
    },
    {
        "name": "PARALOWIE",
        "postcode": "5108"
    },
    {
        "name": "PARAMATTA",
        "postcode": "5558"
    },
    {
        "name": "PARATOO",
        "postcode": "5422"
    },
    {
        "name": "PARAWA",
        "postcode": "5203"
    },
    {
        "name": "PARHAM",
        "postcode": "5501"
    },
    {
        "name": "PARILLA",
        "postcode": "5303"
    },
    {
        "name": "PARINGA",
        "postcode": "5340"
    },
    {
        "name": "PARIS CREEK",
        "postcode": "5201"
    },
    {
        "name": "PARK HOLME",
        "postcode": "5043"
    },
    {
        "name": "PARKSIDE",
        "postcode": "5063"
    },
    {
        "name": "PARLIAMENT HOUSE",
        "postcode": "5000"
    },
    {
        "name": "PARNAROO",
        "postcode": "5422"
    },
    {
        "name": "PARNDANA",
        "postcode": "5220"
    },
    {
        "name": "PARRAKIE",
        "postcode": "5301"
    },
    {
        "name": "PARUNA",
        "postcode": "5311"
    },
    {
        "name": "PASADENA",
        "postcode": "5042"
    },
    {
        "name": "PASKEVILLE",
        "postcode": "5552"
    },
    {
        "name": "PATA",
        "postcode": "5333"
    },
    {
        "name": "PAYNEHAM",
        "postcode": "5070"
    },
    {
        "name": "PAYNEHAM SOUTH",
        "postcode": "5070"
    },
    {
        "name": "PEACHNA",
        "postcode": "5607"
    },
    {
        "name": "PEAKE",
        "postcode": "5301"
    },
    {
        "name": "PEARLAH",
        "postcode": "5607"
    },
    {
        "name": "PEDLER CREEK",
        "postcode": "5171"
    },
    {
        "name": "PEEBINGA",
        "postcode": "5304"
    },
    {
        "name": "PEEP HILL",
        "postcode": "5374"
    },
    {
        "name": "PEKINA",
        "postcode": "5431"
    },
    {
        "name": "PELICAN LAGOON",
        "postcode": "5222"
    },
    {
        "name": "PELICAN POINT",
        "postcode": "5291"
    },
    {
        "name": "PELLARING FLAT",
        "postcode": "5238"
    },
    {
        "name": "PENFIELD",
        "postcode": "5121"
    },
    {
        "name": "PENFIELD GARDENS",
        "postcode": "5121"
    },
    {
        "name": "PENNESHAW",
        "postcode": "5222"
    },
    {
        "name": "PENNINGTON",
        "postcode": "5013"
    },
    {
        "name": "PENOLA",
        "postcode": "5277"
    },
    {
        "name": "PENONG",
        "postcode": "5690"
    },
    {
        "name": "PENRICE",
        "postcode": "5353"
    },
    {
        "name": "PENWORTHAM",
        "postcode": "5453"
    },
    {
        "name": "PERLUBIE",
        "postcode": "5680"
    },
    {
        "name": "PERPONDA",
        "postcode": "5308"
    },
    {
        "name": "PETERBOROUGH",
        "postcode": "5422"
    },
    {
        "name": "PETERHEAD",
        "postcode": "5016"
    },
    {
        "name": "PETERSVILLE",
        "postcode": "5571"
    },
    {
        "name": "PETHERICK",
        "postcode": "5267"
    },
    {
        "name": "PETINA",
        "postcode": "5680"
    },
    {
        "name": "PETWOOD",
        "postcode": "5254"
    },
    {
        "name": "PEWSEY VALE",
        "postcode": "5351"
    },
    {
        "name": "PICCADILLY",
        "postcode": "5151"
    },
    {
        "name": "PIEDNIPPIE",
        "postcode": "5680"
    },
    {
        "name": "PIKE RIVER",
        "postcode": "5340"
    },
    {
        "name": "PIMBA",
        "postcode": "5720"
    },
    {
        "name": "PIMBAACLA",
        "postcode": "5661"
    },
    {
        "name": "PINE CREEK",
        "postcode": "5419"
    },
    {
        "name": "PINE HILL",
        "postcode": "5269"
    },
    {
        "name": "PINE POINT",
        "postcode": "5571"
    },
    {
        "name": "PINERY",
        "postcode": "5460"
    },
    {
        "name": "PINKAWILLINIE",
        "postcode": "5641"
    },
    {
        "name": "PINKERTON PLAINS",
        "postcode": "5400"
    },
    {
        "name": "PINKS BEACH",
        "postcode": "5275"
    },
    {
        "name": "PINNAROO",
        "postcode": "5304"
    },
    {
        "name": "PIRIE EAST",
        "postcode": "5540"
    },
    {
        "name": "PITJANTJATJARA HOMELANDS",
        "postcode": "0872"
    },
    {
        "name": "PLEASANT PARK",
        "postcode": "5277"
    },
    {
        "name": "PLYMPTON",
        "postcode": "5038"
    },
    {
        "name": "PLYMPTON PARK",
        "postcode": "5038"
    },
    {
        "name": "POINT BOSTON",
        "postcode": "5607"
    },
    {
        "name": "POINT LOWLY",
        "postcode": "5600"
    },
    {
        "name": "POINT LOWLY NORTH",
        "postcode": "5600"
    },
    {
        "name": "POINT MCLEAY",
        "postcode": "5259"
    },
    {
        "name": "POINT PASS",
        "postcode": "5374"
    },
    {
        "name": "POINT PEARCE",
        "postcode": "5573"
    },
    {
        "name": "POINT SOUTTAR",
        "postcode": "5575"
    },
    {
        "name": "POINT STURT",
        "postcode": "5256"
    },
    {
        "name": "POINT TURTON",
        "postcode": "5575"
    },
    {
        "name": "POLDA",
        "postcode": "5670"
    },
    {
        "name": "POLICEMAN POINT",
        "postcode": "5264"
    },
    {
        "name": "POLISH HILL RIVER",
        "postcode": "5453"
    },
    {
        "name": "POLTALLOCH",
        "postcode": "5259"
    },
    {
        "name": "POMPOOTA",
        "postcode": "5238"
    },
    {
        "name": "PONDE",
        "postcode": "5238"
    },
    {
        "name": "POOCHERA",
        "postcode": "5655"
    },
    {
        "name": "POOGINAGORIC",
        "postcode": "5268"
    },
    {
        "name": "POOGINOOK",
        "postcode": "5330"
    },
    {
        "name": "POONINDIE",
        "postcode": "5607"
    },
    {
        "name": "POORAKA",
        "postcode": "5095"
    },
    {
        "name": "PORKY FLAT",
        "postcode": "5222"
    },
    {
        "name": "PORT ADELAIDE",
        "postcode": "5015"
    },
    {
        "name": "PORT ADELAIDE BC",
        "postcode": "5015"
    },
    {
        "name": "PORT ADELAIDE DC",
        "postcode": "5015"
    },
    {
        "name": "PORT ARTHUR",
        "postcode": "5572"
    },
    {
        "name": "PORT AUGUSTA",
        "postcode": "5700"
    },
    {
        "name": "PORT AUGUSTA NORTH",
        "postcode": "5700"
    },
    {
        "name": "PORT AUGUSTA WEST",
        "postcode": "5700"
    },
    {
        "name": "PORT BONYTHON",
        "postcode": "5600"
    },
    {
        "name": "PORT BROUGHTON",
        "postcode": "5522"
    },
    {
        "name": "PORT CLINTON",
        "postcode": "5570"
    },
    {
        "name": "PORT DAVIS",
        "postcode": "5540"
    },
    {
        "name": "PORT ELLIOT",
        "postcode": "5212"
    },
    {
        "name": "PORT FLINDERS",
        "postcode": "5495"
    },
    {
        "name": "PORT GAWLER",
        "postcode": "5501"
    },
    {
        "name": "PORT GERMEIN",
        "postcode": "5495"
    },
    {
        "name": "PORT GIBBON",
        "postcode": "5602"
    },
    {
        "name": "PORT GILES",
        "postcode": "5582"
    },
    {
        "name": "PORT HUGHES",
        "postcode": "5558"
    },
    {
        "name": "PORT JULIA",
        "postcode": "5575"
    },
    {
        "name": "PORT KENNY",
        "postcode": "5671"
    },
    {
        "name": "PORT LINCOLN",
        "postcode": "5606"
    },
    {
        "name": "PORT MACDONNELL",
        "postcode": "5291"
    },
    {
        "name": "PORT MANNUM",
        "postcode": "5238"
    },
    {
        "name": "PORT MOOROWIE",
        "postcode": "5576"
    },
    {
        "name": "PORT NEILL",
        "postcode": "5604"
    },
    {
        "name": "PORT NOARLUNGA",
        "postcode": "5167"
    },
    {
        "name": "PORT NOARLUNGA SOUTH",
        "postcode": "5167"
    },
    {
        "name": "PORT PATERSON",
        "postcode": "5700"
    },
    {
        "name": "PORT PIRIE",
        "postcode": "5540"
    },
    {
        "name": "PORT PIRIE SOUTH",
        "postcode": "5540"
    },
    {
        "name": "PORT PIRIE WEST",
        "postcode": "5540"
    },
    {
        "name": "PORT RICKABY",
        "postcode": "5575"
    },
    {
        "name": "PORT STANVAC",
        "postcode": "5160"
    },
    {
        "name": "PORT VICTORIA",
        "postcode": "5573"
    },
    {
        "name": "PORT VINCENT",
        "postcode": "5581"
    },
    {
        "name": "PORT WAKEFIELD",
        "postcode": "5550"
    },
    {
        "name": "PORT WILLUNGA",
        "postcode": "5173"
    },
    {
        "name": "PORTER LAGOON",
        "postcode": "5416"
    },
    {
        "name": "PRICE",
        "postcode": "5570"
    },
    {
        "name": "PROOF RANGE",
        "postcode": "5550"
    },
    {
        "name": "PROSPECT",
        "postcode": "5082"
    },
    {
        "name": "PROSPECT EAST",
        "postcode": "5082"
    },
    {
        "name": "PROSPECT HILL",
        "postcode": "5201"
    },
    {
        "name": "PROSPECT WEST",
        "postcode": "5082"
    },
    {
        "name": "PUNTABIE",
        "postcode": "5680"
    },
    {
        "name": "PUNTHARI",
        "postcode": "5238"
    },
    {
        "name": "PUNYELROO",
        "postcode": "5354"
    },
    {
        "name": "PUREBA",
        "postcode": "5680"
    },
    {
        "name": "PURNONG",
        "postcode": "5238"
    },
    {
        "name": "PURNONG LANDING",
        "postcode": "5238"
    },
    {
        "name": "PYAP",
        "postcode": "5333"
    },
    {
        "name": "PYAP WEST",
        "postcode": "5333"
    },
    {
        "name": "PYGERY",
        "postcode": "5655"
    },
    {
        "name": "QUALCO",
        "postcode": "5322"
    },
    {
        "name": "QUEENSTOWN",
        "postcode": "5014"
    },
    {
        "name": "QUORN",
        "postcode": "5433"
    },
    {
        "name": "RACECOURSE BAY",
        "postcode": "5291"
    },
    {
        "name": "RAMCO",
        "postcode": "5322"
    },
    {
        "name": "RAMCO HEIGHTS",
        "postcode": "5322"
    },
    {
        "name": "RAMSAY",
        "postcode": "5575"
    },
    {
        "name": "RAPID BAY",
        "postcode": "5204"
    },
    {
        "name": "RAUKKAN",
        "postcode": "5259"
    },
    {
        "name": "RED CREEK",
        "postcode": "5255"
    },
    {
        "name": "REDBANKS",
        "postcode": "5502"
    },
    {
        "name": "REDHILL",
        "postcode": "5521"
    },
    {
        "name": "REDWOOD PARK",
        "postcode": "5097"
    },
    {
        "name": "REEDY CREEK",
        "postcode": "5275"
    },
    {
        "name": "REEVES PLAINS",
        "postcode": "5502"
    },
    {
        "name": "REGENCY PARK",
        "postcode": "5010"
    },
    {
        "name": "REGENCY PARK BC",
        "postcode": "5010"
    },
    {
        "name": "REID",
        "postcode": "5118"
    },
    {
        "name": "RENDELSHAM",
        "postcode": "5280"
    },
    {
        "name": "RENMARK",
        "postcode": "5341"
    },
    {
        "name": "RENMARK NORTH",
        "postcode": "5341"
    },
    {
        "name": "RENMARK SOUTH",
        "postcode": "5341"
    },
    {
        "name": "RENMARK WEST",
        "postcode": "5341"
    },
    {
        "name": "RENOWN PARK",
        "postcode": "5008"
    },
    {
        "name": "REYNELLA",
        "postcode": "5161"
    },
    {
        "name": "REYNELLA EAST",
        "postcode": "5161"
    },
    {
        "name": "RHYNIE",
        "postcode": "5412"
    },
    {
        "name": "RICHMOND",
        "postcode": "5033"
    },
    {
        "name": "RIDGEHAVEN",
        "postcode": "5097"
    },
    {
        "name": "RIDLEYTON",
        "postcode": "5008"
    },
    {
        "name": "RISDON PARK",
        "postcode": "5540"
    },
    {
        "name": "RISDON PARK SOUTH",
        "postcode": "5540"
    },
    {
        "name": "RIVERGLADES",
        "postcode": "5253"
    },
    {
        "name": "RIVERGLEN",
        "postcode": "5253"
    },
    {
        "name": "RIVERTON",
        "postcode": "5412"
    },
    {
        "name": "ROBE",
        "postcode": "5276"
    },
    {
        "name": "ROBERTSTOWN",
        "postcode": "5381"
    },
    {
        "name": "ROCHESTER",
        "postcode": "5464"
    },
    {
        "name": "ROCKLEIGH",
        "postcode": "5254"
    },
    {
        "name": "ROCKY CAMP",
        "postcode": "5280"
    },
    {
        "name": "ROCKY GULLY",
        "postcode": "5253"
    },
    {
        "name": "ROCKY PLAIN",
        "postcode": "5381"
    },
    {
        "name": "ROCKY POINT",
        "postcode": "5238"
    },
    {
        "name": "ROGUES POINT",
        "postcode": "5571"
    },
    {
        "name": "ROSE PARK",
        "postcode": "5067"
    },
    {
        "name": "ROSEDALE",
        "postcode": "5350"
    },
    {
        "name": "ROSETOWN",
        "postcode": "5275"
    },
    {
        "name": "ROSEWATER",
        "postcode": "5013"
    },
    {
        "name": "ROSEWATER EAST",
        "postcode": "5013"
    },
    {
        "name": "ROSEWORTHY",
        "postcode": "5371"
    },
    {
        "name": "ROSSLYN PARK",
        "postcode": "5072"
    },
    {
        "name": "ROSTREVOR",
        "postcode": "5073"
    },
    {
        "name": "ROWLAND FLAT",
        "postcode": "5352"
    },
    {
        "name": "ROXBY DOWNS",
        "postcode": "5725"
    },
    {
        "name": "ROYAL PARK",
        "postcode": "5014"
    },
    {
        "name": "ROYSTON PARK",
        "postcode": "5070"
    },
    {
        "name": "RUDALL",
        "postcode": "5642"
    },
    {
        "name": "RUNDLE MALL",
        "postcode": "5000"
    },
    {
        "name": "SADDLEWORTH",
        "postcode": "5413"
    },
    {
        "name": "SAINTS",
        "postcode": "5461"
    },
    {
        "name": "SALEM",
        "postcode": "5255"
    },
    {
        "name": "SALISBURY",
        "postcode": "5108"
    },
    {
        "name": "SALISBURY DOWNS",
        "postcode": "5108"
    },
    {
        "name": "SALISBURY EAST",
        "postcode": "5109"
    },
    {
        "name": "SALISBURY EAST NORTHBRI AVE",
        "postcode": "5109"
    },
    {
        "name": "SALISBURY HEIGHTS",
        "postcode": "5109"
    },
    {
        "name": "SALISBURY NORTH",
        "postcode": "5108"
    },
    {
        "name": "SALISBURY NORTH WHITES ROAD",
        "postcode": "5108"
    },
    {
        "name": "SALISBURY PARK",
        "postcode": "5109"
    },
    {
        "name": "SALISBURY PLAIN",
        "postcode": "5109"
    },
    {
        "name": "SALISBURY SOUTH",
        "postcode": "5106"
    },
    {
        "name": "SALISBURY SOUTH BC",
        "postcode": "5106"
    },
    {
        "name": "SALISBURY SOUTH DC",
        "postcode": "5106"
    },
    {
        "name": "SALT CREEK",
        "postcode": "5264"
    },
    {
        "name": "SALTER SPRINGS",
        "postcode": "5401"
    },
    {
        "name": "SALTIA",
        "postcode": "5433"
    },
    {
        "name": "SAMPSON FLAT",
        "postcode": "5114"
    },
    {
        "name": "SANDALWOOD",
        "postcode": "5309"
    },
    {
        "name": "SANDERGROVE",
        "postcode": "5255"
    },
    {
        "name": "SANDERSTON",
        "postcode": "5237"
    },
    {
        "name": "SANDILANDS",
        "postcode": "5571"
    },
    {
        "name": "SANDLETON",
        "postcode": "5356"
    },
    {
        "name": "SANDY CREEK",
        "postcode": "5350"
    },
    {
        "name": "SANDY GROVE",
        "postcode": "5275"
    },
    {
        "name": "SAPPHIRETOWN",
        "postcode": "5222"
    },
    {
        "name": "SCEALE BAY",
        "postcode": "5680"
    },
    {
        "name": "SCHELL WELL",
        "postcode": "5311"
    },
    {
        "name": "SCOTT CREEK",
        "postcode": "5153"
    },
    {
        "name": "SEACLIFF",
        "postcode": "5049"
    },
    {
        "name": "SEACLIFF PARK",
        "postcode": "5049"
    },
    {
        "name": "SEACOMBE GARDENS",
        "postcode": "5047"
    },
    {
        "name": "SEACOMBE HEIGHTS",
        "postcode": "5047"
    },
    {
        "name": "SEAFORD",
        "postcode": "5169"
    },
    {
        "name": "SEAFORD HEIGHTS",
        "postcode": "5169"
    },
    {
        "name": "SEAFORD MEADOWS",
        "postcode": "5169"
    },
    {
        "name": "SEAFORD RISE",
        "postcode": "5169"
    },
    {
        "name": "SEAL BAY",
        "postcode": "5223"
    },
    {
        "name": "SEATON",
        "postcode": "5023"
    },
    {
        "name": "SEATON NORTH",
        "postcode": "5023"
    },
    {
        "name": "SEAVIEW DOWNS",
        "postcode": "5049"
    },
    {
        "name": "SEBASTOPOL",
        "postcode": "5280"
    },
    {
        "name": "SECOND VALLEY",
        "postcode": "5204"
    },
    {
        "name": "SEDAN",
        "postcode": "5353"
    },
    {
        "name": "SEDDON",
        "postcode": "5223"
    },
    {
        "name": "SEFTON PARK",
        "postcode": "5083"
    },
    {
        "name": "SELLICKS BEACH",
        "postcode": "5174"
    },
    {
        "name": "SELLICKS HILL",
        "postcode": "5174"
    },
    {
        "name": "SEMAPHORE",
        "postcode": "5019"
    },
    {
        "name": "SEMAPHORE PARK",
        "postcode": "5019"
    },
    {
        "name": "SEMAPHORE SOUTH",
        "postcode": "5019"
    },
    {
        "name": "SENIOR",
        "postcode": "5268"
    },
    {
        "name": "SEPPELTSFIELD",
        "postcode": "5355"
    },
    {
        "name": "SEVENHILL",
        "postcode": "5453"
    },
    {
        "name": "SHAUGH",
        "postcode": "5267"
    },
    {
        "name": "SHEAOAK FLAT",
        "postcode": "5581"
    },
    {
        "name": "SHEA-OAK LOG",
        "postcode": "5371"
    },
    {
        "name": "SHEIDOW PARK",
        "postcode": "5158"
    },
    {
        "name": "SHERINGA",
        "postcode": "5607"
    },
    {
        "name": "SHERLOCK",
        "postcode": "5301"
    },
    {
        "name": "SHERWOOD",
        "postcode": "5267"
    },
    {
        "name": "SHORT",
        "postcode": "5279"
    },
    {
        "name": "SILVER SANDS",
        "postcode": "5173"
    },
    {
        "name": "SILVERTON",
        "postcode": "5204"
    },
    {
        "name": "SKYE",
        "postcode": "5072"
    },
    {
        "name": "SLEAFORD",
        "postcode": "5607"
    },
    {
        "name": "SMITHFIELD",
        "postcode": "5114"
    },
    {
        "name": "SMITHFIELD PLAINS",
        "postcode": "5114"
    },
    {
        "name": "SMITHFIELD WEST",
        "postcode": "5114"
    },
    {
        "name": "SMOKY BAY",
        "postcode": "5680"
    },
    {
        "name": "SNOWTOWN",
        "postcode": "5520"
    },
    {
        "name": "SOLOMON",
        "postcode": "5641"
    },
    {
        "name": "SOLOMONTOWN",
        "postcode": "5540"
    },
    {
        "name": "SOMERTON PARK",
        "postcode": "5044"
    },
    {
        "name": "SOUTH BRIGHTON",
        "postcode": "5048"
    },
    {
        "name": "SOUTH HUMMOCKS",
        "postcode": "5550"
    },
    {
        "name": "SOUTH KILKERRAN",
        "postcode": "5573"
    },
    {
        "name": "SOUTH PLYMPTON",
        "postcode": "5038"
    },
    {
        "name": "SOUTHEND",
        "postcode": "5280"
    },
    {
        "name": "SPALDING",
        "postcode": "5454"
    },
    {
        "name": "SPECTACLE LAKE",
        "postcode": "5345"
    },
    {
        "name": "SPENCE",
        "postcode": "5271"
    },
    {
        "name": "SPRING FARM",
        "postcode": "5453"
    },
    {
        "name": "SPRING GULLY",
        "postcode": "5453"
    },
    {
        "name": "SPRINGFIELD",
        "postcode": "5062"
    },
    {
        "name": "SPRINGTON",
        "postcode": "5235"
    },
    {
        "name": "SQUARE MILE",
        "postcode": "5291"
    },
    {
        "name": "ST AGNES",
        "postcode": "5097"
    },
    {
        "name": "ST GEORGES",
        "postcode": "5064"
    },
    {
        "name": "ST IVES",
        "postcode": "5252"
    },
    {
        "name": "ST JOHNS",
        "postcode": "5373"
    },
    {
        "name": "ST KILDA",
        "postcode": "5110"
    },
    {
        "name": "ST KITTS",
        "postcode": "5356"
    },
    {
        "name": "ST MARYS",
        "postcode": "5042"
    },
    {
        "name": "ST MORRIS",
        "postcode": "5068"
    },
    {
        "name": "ST PETERS",
        "postcode": "5069"
    },
    {
        "name": "STANLEY",
        "postcode": "5415"
    },
    {
        "name": "STANLEY FLAT",
        "postcode": "5453"
    },
    {
        "name": "STANSBURY",
        "postcode": "5582"
    },
    {
        "name": "STATION ARCADE",
        "postcode": "5000"
    },
    {
        "name": "STEELTON",
        "postcode": "5413"
    },
    {
        "name": "STEINFELD",
        "postcode": "5356"
    },
    {
        "name": "STENHOUSE BAY",
        "postcode": "5575"
    },
    {
        "name": "STEPHENSTON",
        "postcode": "5433"
    },
    {
        "name": "STEPNEY",
        "postcode": "5069"
    },
    {
        "name": "STEWART RANGE",
        "postcode": "5271"
    },
    {
        "name": "STIRLING",
        "postcode": "5152"
    },
    {
        "name": "STIRLING NORTH",
        "postcode": "5710"
    },
    {
        "name": "STOCKPORT",
        "postcode": "5410"
    },
    {
        "name": "STOCKWELL",
        "postcode": "5355"
    },
    {
        "name": "STOCKYARD CREEK",
        "postcode": "5460"
    },
    {
        "name": "STOCKYARD PLAIN",
        "postcode": "5330"
    },
    {
        "name": "STOKES BAY",
        "postcode": "5223"
    },
    {
        "name": "STONE HUT",
        "postcode": "5480"
    },
    {
        "name": "STONE WELL",
        "postcode": "5352"
    },
    {
        "name": "STONYFELL",
        "postcode": "5066"
    },
    {
        "name": "STOW",
        "postcode": "5461"
    },
    {
        "name": "STRATHALBYN",
        "postcode": "5255"
    },
    {
        "name": "STREAKY BAY",
        "postcode": "5680"
    },
    {
        "name": "STRUAN",
        "postcode": "5271"
    },
    {
        "name": "STUART",
        "postcode": "5320"
    },
    {
        "name": "STUN'SAIL BOOM",
        "postcode": "5223"
    },
    {
        "name": "STURT",
        "postcode": "5047"
    },
    {
        "name": "STURT STREET",
        "postcode": "5000"
    },
    {
        "name": "SULLIVAN",
        "postcode": "5607"
    },
    {
        "name": "SUMMERTOWN",
        "postcode": "5141"
    },
    {
        "name": "SUNLANDS",
        "postcode": "5322"
    },
    {
        "name": "SUNNYBRAE",
        "postcode": "5422"
    },
    {
        "name": "SUNNYDALE",
        "postcode": "5354"
    },
    {
        "name": "SUNNYSIDE",
        "postcode": "5253"
    },
    {
        "name": "SUNNYVALE",
        "postcode": "5552"
    },
    {
        "name": "SURREY DOWNS",
        "postcode": "5126"
    },
    {
        "name": "SUTHERLANDS",
        "postcode": "5374"
    },
    {
        "name": "SUTTONTOWN",
        "postcode": "5291"
    },
    {
        "name": "SWAN REACH",
        "postcode": "5354"
    },
    {
        "name": "SWANPORT",
        "postcode": "5253"
    },
    {
        "name": "SWEDE FLAT",
        "postcode": "5270"
    },
    {
        "name": "TAILEM BEND",
        "postcode": "5259"
    },
    {
        "name": "TALDRA",
        "postcode": "5311"
    },
    {
        "name": "TALIA",
        "postcode": "5670"
    },
    {
        "name": "TANTANOOLA",
        "postcode": "5280"
    },
    {
        "name": "TANUNDA",
        "postcode": "5352"
    },
    {
        "name": "TAPEROO",
        "postcode": "5017"
    },
    {
        "name": "TAPLAN",
        "postcode": "5311"
    },
    {
        "name": "TARATAP",
        "postcode": "5275"
    },
    {
        "name": "TARCOOLA",
        "postcode": "5710"
    },
    {
        "name": "TARCOWIE",
        "postcode": "5431"
    },
    {
        "name": "TARLEE",
        "postcode": "5411"
    },
    {
        "name": "TARNMA",
        "postcode": "5413"
    },
    {
        "name": "TARPEENA",
        "postcode": "5277"
    },
    {
        "name": "TATACHILLA",
        "postcode": "5171"
    },
    {
        "name": "TAUNTON",
        "postcode": "5235"
    },
    {
        "name": "TAYLORVILLE",
        "postcode": "5330"
    },
    {
        "name": "TEA TREE GULLY",
        "postcode": "5091"
    },
    {
        "name": "TEAL FLAT",
        "postcode": "5238"
    },
    {
        "name": "TELOWIE",
        "postcode": "5540"
    },
    {
        "name": "TEMPLERS",
        "postcode": "5371"
    },
    {
        "name": "TENNYSON",
        "postcode": "5022"
    },
    {
        "name": "TEPKO",
        "postcode": "5254"
    },
    {
        "name": "TERINGIE",
        "postcode": "5072"
    },
    {
        "name": "TEROWIE",
        "postcode": "5421"
    },
    {
        "name": "THE GAP",
        "postcode": "5271"
    },
    {
        "name": "THE PINES",
        "postcode": "5575"
    },
    {
        "name": "THE RANGE",
        "postcode": "5172"
    },
    {
        "name": "THE UNIVERSITY OF ADELAIDE",
        "postcode": "5005"
    },
    {
        "name": "THEBARTON",
        "postcode": "5031"
    },
    {
        "name": "THEVENARD",
        "postcode": "5690"
    },
    {
        "name": "THOMAS PLAIN",
        "postcode": "5554"
    },
    {
        "name": "THOMPSON BEACH",
        "postcode": "5501"
    },
    {
        "name": "THORNGATE",
        "postcode": "5082"
    },
    {
        "name": "THORNLEA",
        "postcode": "5280"
    },
    {
        "name": "THRINGTON",
        "postcode": "5552"
    },
    {
        "name": "TIATUKIA",
        "postcode": "5607"
    },
    {
        "name": "TICKERA",
        "postcode": "5555"
    },
    {
        "name": "TIDDY WIDDY BEACH",
        "postcode": "5571"
    },
    {
        "name": "TILLEY SWAMP",
        "postcode": "5275"
    },
    {
        "name": "TINTINARA",
        "postcode": "5266"
    },
    {
        "name": "TOLDEROL",
        "postcode": "5256"
    },
    {
        "name": "TOOLIGIE",
        "postcode": "5607"
    },
    {
        "name": "TOOPERANG",
        "postcode": "5255"
    },
    {
        "name": "TOORA",
        "postcode": "5253"
    },
    {
        "name": "TOORAK GARDENS",
        "postcode": "5065"
    },
    {
        "name": "TOOTENILLA",
        "postcode": "5607"
    },
    {
        "name": "TORRENS ISLAND",
        "postcode": "5960"
    },
    {
        "name": "TORRENS PARK",
        "postcode": "5062"
    },
    {
        "name": "TORRENS VALE",
        "postcode": "5203"
    },
    {
        "name": "TORRENSVILLE",
        "postcode": "5031"
    },
    {
        "name": "TORRENSVILLE PLAZA",
        "postcode": "5031"
    },
    {
        "name": "TOTHILL BELT",
        "postcode": "5413"
    },
    {
        "name": "TOTHILL CREEK",
        "postcode": "5413"
    },
    {
        "name": "TOTNESS",
        "postcode": "5250"
    },
    {
        "name": "TOWITTA",
        "postcode": "5353"
    },
    {
        "name": "TRANMERE",
        "postcode": "5073"
    },
    {
        "name": "TRANMERE NORTH",
        "postcode": "5073"
    },
    {
        "name": "TRIHI",
        "postcode": "5279"
    },
    {
        "name": "TRINITY GARDENS",
        "postcode": "5068"
    },
    {
        "name": "TROTT PARK",
        "postcode": "5158"
    },
    {
        "name": "TRURO",
        "postcode": "5356"
    },
    {
        "name": "TULKA",
        "postcode": "5607"
    },
    {
        "name": "TULKA NORTH",
        "postcode": "5607"
    },
    {
        "name": "TUMBY BAY",
        "postcode": "5605"
    },
    {
        "name": "TUNGKILLO",
        "postcode": "5236"
    },
    {
        "name": "TUNKALILLA",
        "postcode": "5203"
    },
    {
        "name": "TUSMORE",
        "postcode": "5065"
    },
    {
        "name": "TWO WELLS",
        "postcode": "5501"
    },
    {
        "name": "TYRINGA",
        "postcode": "5671"
    },
    {
        "name": "UCOLTA",
        "postcode": "5422"
    },
    {
        "name": "ULEY",
        "postcode": "5607"
    },
    {
        "name": "ULEYBURY",
        "postcode": "5114"
    },
    {
        "name": "ULOOLOO",
        "postcode": "5419"
    },
    {
        "name": "ULYERRA",
        "postcode": "5670"
    },
    {
        "name": "UNDALYA",
        "postcode": "5451"
    },
    {
        "name": "UNDERDALE",
        "postcode": "5032"
    },
    {
        "name": "UNGARRA",
        "postcode": "5607"
    },
    {
        "name": "UNIVERSITY OF ADELAIDE",
        "postcode": "5005"
    },
    {
        "name": "UNLEY",
        "postcode": "5061"
    },
    {
        "name": "UNLEY BC",
        "postcode": "5061"
    },
    {
        "name": "UNLEY DC",
        "postcode": "5061"
    },
    {
        "name": "UNLEY PARK",
        "postcode": "5061"
    },
    {
        "name": "UPPER HERMITAGE",
        "postcode": "5131"
    },
    {
        "name": "UPPER STURT",
        "postcode": "5156"
    },
    {
        "name": "URAIDLA",
        "postcode": "5142"
    },
    {
        "name": "URANIA",
        "postcode": "5573"
    },
    {
        "name": "URRBRAE",
        "postcode": "5064"
    },
    {
        "name": "UWORRA",
        "postcode": "5690"
    },
    {
        "name": "VALE PARK",
        "postcode": "5081"
    },
    {
        "name": "VALLEY VIEW",
        "postcode": "5093"
    },
    {
        "name": "VEITCH",
        "postcode": "5311"
    },
    {
        "name": "VENUS BAY",
        "postcode": "5607"
    },
    {
        "name": "VERDUN",
        "postcode": "5245"
    },
    {
        "name": "VERRAN",
        "postcode": "5603"
    },
    {
        "name": "VICTOR HARBOR",
        "postcode": "5211"
    },
    {
        "name": "VINE VALE",
        "postcode": "5352"
    },
    {
        "name": "VIRGINIA",
        "postcode": "5120"
    },
    {
        "name": "VISTA",
        "postcode": "5091"
    },
    {
        "name": "VIVONNE BAY",
        "postcode": "5223"
    },
    {
        "name": "WADDIKEE",
        "postcode": "5640"
    },
    {
        "name": "WAIKERIE",
        "postcode": "5330"
    },
    {
        "name": "WAITPINGA",
        "postcode": "5211"
    },
    {
        "name": "WALKER FLAT",
        "postcode": "5238"
    },
    {
        "name": "WALKERVILLE",
        "postcode": "5081"
    },
    {
        "name": "WALKLEY HEIGHTS",
        "postcode": "5098"
    },
    {
        "name": "WALL FLAT",
        "postcode": "5238"
    },
    {
        "name": "WALLALA",
        "postcode": "5661"
    },
    {
        "name": "WALLAROO",
        "postcode": "5556"
    },
    {
        "name": "WALLAROO MINES",
        "postcode": "5554"
    },
    {
        "name": "WALLAROO PLAIN",
        "postcode": "5556"
    },
    {
        "name": "WALLOWAY",
        "postcode": "5431"
    },
    {
        "name": "WALTOWA",
        "postcode": "5264"
    },
    {
        "name": "WAMI KATA",
        "postcode": "5700"
    },
    {
        "name": "WANBI",
        "postcode": "5310"
    },
    {
        "name": "WANDANA",
        "postcode": "5690"
    },
    {
        "name": "WANDEARAH",
        "postcode": "5523"
    },
    {
        "name": "WANDEARAH EAST",
        "postcode": "5523"
    },
    {
        "name": "WANDEARAH WEST",
        "postcode": "5523"
    },
    {
        "name": "WANDILO",
        "postcode": "5291"
    },
    {
        "name": "WANGARY",
        "postcode": "5607"
    },
    {
        "name": "WANGOLINA",
        "postcode": "5275"
    },
    {
        "name": "WANILLA",
        "postcode": "5607"
    },
    {
        "name": "WAPPILKA",
        "postcode": "5332"
    },
    {
        "name": "WARBURTO",
        "postcode": "5556"
    },
    {
        "name": "WARD BELT",
        "postcode": "5118"
    },
    {
        "name": "WARD HILL",
        "postcode": "5522"
    },
    {
        "name": "WARNERTOWN",
        "postcode": "5540"
    },
    {
        "name": "WAROOKA",
        "postcode": "5577"
    },
    {
        "name": "WARRACHIE",
        "postcode": "5607"
    },
    {
        "name": "WARRADALE",
        "postcode": "5046"
    },
    {
        "name": "WARRADALE NORTH",
        "postcode": "5046"
    },
    {
        "name": "WARRAMBOO",
        "postcode": "5650"
    },
    {
        "name": "WARREN",
        "postcode": "5233"
    },
    {
        "name": "WARROW",
        "postcode": "5607"
    },
    {
        "name": "WARUNDA",
        "postcode": "5607"
    },
    {
        "name": "WASHPOOL",
        "postcode": "5454"
    },
    {
        "name": "WASLEYS",
        "postcode": "5400"
    },
    {
        "name": "WATCHMAN",
        "postcode": "5461"
    },
    {
        "name": "WATERFALL GULLY",
        "postcode": "5066"
    },
    {
        "name": "WATERLOO",
        "postcode": "5413"
    },
    {
        "name": "WATERLOO CORNER",
        "postcode": "5110"
    },
    {
        "name": "WATERVALE",
        "postcode": "5452"
    },
    {
        "name": "WATRABA",
        "postcode": "5690"
    },
    {
        "name": "WATTLE FLAT",
        "postcode": "5203"
    },
    {
        "name": "WATTLE PARK",
        "postcode": "5066"
    },
    {
        "name": "WATTLE RANGE",
        "postcode": "5280"
    },
    {
        "name": "WATTLE RANGE EAST",
        "postcode": "5279"
    },
    {
        "name": "WAUKARINGA",
        "postcode": "5440"
    },
    {
        "name": "WAURALTEE",
        "postcode": "5573"
    },
    {
        "name": "WAYVILLE",
        "postcode": "5034"
    },
    {
        "name": "WEBB BEACH",
        "postcode": "5501"
    },
    {
        "name": "WEETULTA",
        "postcode": "5573"
    },
    {
        "name": "WELLAND",
        "postcode": "5007"
    },
    {
        "name": "WELLINGTON",
        "postcode": "5259"
    },
    {
        "name": "WELLINGTON EAST",
        "postcode": "5259"
    },
    {
        "name": "WEPAR",
        "postcode": "5278"
    },
    {
        "name": "WEPOWIE",
        "postcode": "5482"
    },
    {
        "name": "WEST BEACH",
        "postcode": "5024"
    },
    {
        "name": "WEST BUNDALEER",
        "postcode": "5491"
    },
    {
        "name": "WEST CROYDON",
        "postcode": "5008"
    },
    {
        "name": "WEST HINDMARSH",
        "postcode": "5007"
    },
    {
        "name": "WEST LAKES",
        "postcode": "5021"
    },
    {
        "name": "WEST LAKES SHORE",
        "postcode": "5020"
    },
    {
        "name": "WEST RANGE",
        "postcode": "5275"
    },
    {
        "name": "WEST RICHMOND",
        "postcode": "5033"
    },
    {
        "name": "WESTALL",
        "postcode": "5680"
    },
    {
        "name": "WESTBOURNE PARK",
        "postcode": "5041"
    },
    {
        "name": "WESTERN FLAT",
        "postcode": "5268"
    },
    {
        "name": "WESTERN RIVER",
        "postcode": "5223"
    },
    {
        "name": "WHARMINDA",
        "postcode": "5603"
    },
    {
        "name": "WHITE HILL",
        "postcode": "5253"
    },
    {
        "name": "WHITE HUT",
        "postcode": "5575"
    },
    {
        "name": "WHITE SANDS",
        "postcode": "5253"
    },
    {
        "name": "WHITE WELL CORNER",
        "postcode": "5690"
    },
    {
        "name": "WHITES FLAT",
        "postcode": "5607"
    },
    {
        "name": "WHITES RIVER",
        "postcode": "5607"
    },
    {
        "name": "WHITES VALLEY",
        "postcode": "5172"
    },
    {
        "name": "WHITWARTA",
        "postcode": "5461"
    },
    {
        "name": "WHYALLA",
        "postcode": "5600"
    },
    {
        "name": "WHYALLA DC",
        "postcode": "5600"
    },
    {
        "name": "WHYALLA JENKINS",
        "postcode": "5609"
    },
    {
        "name": "WHYALLA NORRIE",
        "postcode": "5608"
    },
    {
        "name": "WHYALLA NORRIE EAST",
        "postcode": "5608"
    },
    {
        "name": "WHYALLA NORRIE NORTH",
        "postcode": "5608"
    },
    {
        "name": "WHYALLA PLAYFORD",
        "postcode": "5600"
    },
    {
        "name": "WHYALLA STUART",
        "postcode": "5608"
    },
    {
        "name": "WHYTE YARCOWIE",
        "postcode": "5420"
    },
    {
        "name": "WIGLEY FLAT",
        "postcode": "5330"
    },
    {
        "name": "WILCHERRY",
        "postcode": "5641"
    },
    {
        "name": "WILD DOG VALLEY",
        "postcode": "5271"
    },
    {
        "name": "WILD HORSE PLAINS",
        "postcode": "5501"
    },
    {
        "name": "WILKAWATT",
        "postcode": "5301"
    },
    {
        "name": "WILLALO",
        "postcode": "5419"
    },
    {
        "name": "WILLALOOKA",
        "postcode": "5267"
    },
    {
        "name": "WILLAMULKA",
        "postcode": "5554"
    },
    {
        "name": "WILLASTON",
        "postcode": "5118"
    },
    {
        "name": "WILLIAMSTOWN",
        "postcode": "5351"
    },
    {
        "name": "WILLOCHRA",
        "postcode": "5433"
    },
    {
        "name": "WILLOUGHBY",
        "postcode": "5222"
    },
    {
        "name": "WILLOW BANKS",
        "postcode": "5253"
    },
    {
        "name": "WILLOW CREEK",
        "postcode": "5211"
    },
    {
        "name": "WILLOWIE",
        "postcode": "5431"
    },
    {
        "name": "WILLSON RIVER",
        "postcode": "5222"
    },
    {
        "name": "WILLUNGA",
        "postcode": "5172"
    },
    {
        "name": "WILLUNGA HILL",
        "postcode": "5172"
    },
    {
        "name": "WILLUNGA SOUTH",
        "postcode": "5172"
    },
    {
        "name": "WILMINGTON",
        "postcode": "5485"
    },
    {
        "name": "WILLYAROO",
        "postcode": "5255"
    },
    {
        "name": "WINDSOR",
        "postcode": "5501"
    },
    {
        "name": "WINDSOR GARDENS",
        "postcode": "5087"
    },
    {
        "name": "WINGFIELD",
        "postcode": "5013"
    },
    {
        "name": "WINKIE",
        "postcode": "5343"
    },
    {
        "name": "WINNINOWIE",
        "postcode": "5710"
    },
    {
        "name": "WINULTA",
        "postcode": "5555"
    },
    {
        "name": "WIRRABARA",
        "postcode": "5481"
    },
    {
        "name": "WIRREGA",
        "postcode": "5267"
    },
    {
        "name": "WIRRINA COVE",
        "postcode": "5204"
    },
    {
        "name": "WIRRULLA",
        "postcode": "5661"
    },
    {
        "name": "WISANGER",
        "postcode": "5223"
    },
    {
        "name": "WISTOW",
        "postcode": "5251"
    },
    {
        "name": "WITCHELINA",
        "postcode": "5731"
    },
    {
        "name": "WITERA",
        "postcode": "5671"
    },
    {
        "name": "WOKURNA",
        "postcode": "5520"
    },
    {
        "name": "WOLSELEY",
        "postcode": "5269"
    },
    {
        "name": "WOMBATS REST",
        "postcode": "5320"
    },
    {
        "name": "WONGULLA",
        "postcode": "5238"
    },
    {
        "name": "WONGYARRA",
        "postcode": "5481"
    },
    {
        "name": "WONNA",
        "postcode": "5419"
    },
    {
        "name": "WONUARRA",
        "postcode": "5340"
    },
    {
        "name": "WOODCHESTER",
        "postcode": "5255"
    },
    {
        "name": "WOODCROFT",
        "postcode": "5162"
    },
    {
        "name": "WOODFORDE",
        "postcode": "5072"
    },
    {
        "name": "WOODHOUSE",
        "postcode": "5246"
    },
    {
        "name": "WOODLANE",
        "postcode": "5238"
    },
    {
        "name": "WOODLEIGH",
        "postcode": "5311"
    },
    {
        "name": "WOODS POINT",
        "postcode": "5253"
    },
    {
        "name": "WOODSIDE",
        "postcode": "5244"
    },
    {
        "name": "WOODVILLE",
        "postcode": "5011"
    },
    {
        "name": "WOODVILLE GARDENS",
        "postcode": "5012"
    },
    {
        "name": "WOODVILLE NORTH",
        "postcode": "5012"
    },
    {
        "name": "WOODVILLE PARK",
        "postcode": "5011"
    },
    {
        "name": "WOODVILLE SOUTH",
        "postcode": "5011"
    },
    {
        "name": "WOODVILLE WEST",
        "postcode": "5011"
    },
    {
        "name": "WOOL BAY",
        "postcode": "5575"
    },
    {
        "name": "WOOLPUNDA",
        "postcode": "5330"
    },
    {
        "name": "WOOLSHED FLAT",
        "postcode": "5412"
    },
    {
        "name": "WOOLSHEDS",
        "postcode": "5400"
    },
    {
        "name": "WOOLUMBOOL",
        "postcode": "5272"
    },
    {
        "name": "WOOLUNDUNGA",
        "postcode": "5710"
    },
    {
        "name": "WOOMERA",
        "postcode": "5720"
    },
    {
        "name": "WORLDS END",
        "postcode": "5381"
    },
    {
        "name": "WORLDS END CREEK",
        "postcode": "5381"
    },
    {
        "name": "WORROLONG",
        "postcode": "5291"
    },
    {
        "name": "WRATTONBULLY",
        "postcode": "5271"
    },
    {
        "name": "WUDINNA",
        "postcode": "5652"
    },
    {
        "name": "WUNKAR",
        "postcode": "5311"
    },
    {
        "name": "WYE",
        "postcode": "5291"
    },
    {
        "name": "WYNARKA",
        "postcode": "5306"
    },
    {
        "name": "WYNN VALE",
        "postcode": "5127"
    },
    {
        "name": "WYOMI",
        "postcode": "5275"
    },
    {
        "name": "YACKA",
        "postcode": "5470"
    },
    {
        "name": "YAHL",
        "postcode": "5291"
    },
    {
        "name": "YALANDA",
        "postcode": "5641"
    },
    {
        "name": "YALATA",
        "postcode": "5690"
    },
    {
        "name": "YALLUNDA FLAT",
        "postcode": "5607"
    },
    {
        "name": "YALPARA",
        "postcode": "5431"
    },
    {
        "name": "YAMBA",
        "postcode": "5340"
    },
    {
        "name": "YANERBIE",
        "postcode": "5680"
    },
    {
        "name": "YANINEE",
        "postcode": "5653"
    },
    {
        "name": "YANKALILLA",
        "postcode": "5203"
    },
    {
        "name": "YANTANABIE",
        "postcode": "5661"
    },
    {
        "name": "YANYARRIE",
        "postcode": "5432"
    },
    {
        "name": "YARRAH",
        "postcode": "5433"
    },
    {
        "name": "YATALA VALE",
        "postcode": "5126"
    },
    {
        "name": "YATINA",
        "postcode": "5422"
    },
    {
        "name": "YATTALUNGA",
        "postcode": "5114"
    },
    {
        "name": "YEELANNA",
        "postcode": "5632"
    },
    {
        "name": "YELTA",
        "postcode": "5558"
    },
    {
        "name": "YILKI",
        "postcode": "5211"
    },
    {
        "name": "YINKANIE",
        "postcode": "5332"
    },
    {
        "name": "YONGALA",
        "postcode": "5493"
    },
    {
        "name": "YORKE VALLEY",
        "postcode": "5573"
    },
    {
        "name": "YORKETOWN",
        "postcode": "5576"
    },
    {
        "name": "YOUNGHUSBAND",
        "postcode": "5238"
    },
    {
        "name": "YOUNGHUSBAND HOLDINGS",
        "postcode": "5238"
    },
    {
        "name": "YUMALI",
        "postcode": "5261"
    },
    {
        "name": "YUNDI",
        "postcode": "5172"
    },
    {
        "name": "YUNTA",
        "postcode": "5440"
    },
    {
        "name": "ZADOWS LANDING",
        "postcode": "5254"
    }
]
