[
    {
        "name": "ABBA RIVER",
        "postcode": "6280"
    },
    {
        "name": "ABBEY",
        "postcode": "6280"
    },
    {
        "name": "ACTON PARK",
        "postcode": "6280"
    },
    {
        "name": "ADAMSVALE",
        "postcode": "6375"
    },
    {
        "name": "AJANA",
        "postcode": "6532"
    },
    {
        "name": "ALBANY",
        "postcode": "6330"
    },
    {
        "name": "ALBANY DC",
        "postcode": "6331"
    },
    {
        "name": "ALBANY PO",
        "postcode": "6332"
    },
    {
        "name": "ALDERSYDE",
        "postcode": "6306"
    },
    {
        "name": "ALEXANDER HEIGHTS",
        "postcode": "6064"
    },
    {
        "name": "ALEXANDRA BRIDGE",
        "postcode": "6288"
    },
    {
        "name": "ALFRED COVE",
        "postcode": "6154"
    },
    {
        "name": "ALKIMOS",
        "postcode": "6038"
    },
    {
        "name": "ALLANOOKA",
        "postcode": "6525"
    },
    {
        "name": "ALLANSON",
        "postcode": "6225"
    },
    {
        "name": "ALMA",
        "postcode": "6535"
    },
    {
        "name": "AMBANIA",
        "postcode": "6632"
    },
    {
        "name": "AMBERGATE",
        "postcode": "6280"
    },
    {
        "name": "AMELUP",
        "postcode": "6338"
    },
    {
        "name": "ANGELO RIVER",
        "postcode": "6642"
    },
    {
        "name": "ANKETELL",
        "postcode": "6167"
    },
    {
        "name": "ANNIEBROOK",
        "postcode": "6280"
    },
    {
        "name": "ANTONYMYRE",
        "postcode": "6714"
    },
    {
        "name": "APPLECROSS",
        "postcode": "6153"
    },
    {
        "name": "APPLECROSS NORTH",
        "postcode": "6153"
    },
    {
        "name": "ARDATH",
        "postcode": "6419"
    },
    {
        "name": "ARDROSS",
        "postcode": "6153"
    },
    {
        "name": "ARGYLE",
        "postcode": "6239"
    },
    {
        "name": "ARMADALE",
        "postcode": "6112"
    },
    {
        "name": "ARRINO",
        "postcode": "6519"
    },
    {
        "name": "ARROWSMITH",
        "postcode": "6525"
    },
    {
        "name": "ARROWSMITH EAST",
        "postcode": "6519"
    },
    {
        "name": "ARTHUR RIVER",
        "postcode": "6315"
    },
    {
        "name": "ASCOT",
        "postcode": "6104"
    },
    {
        "name": "ASHBY",
        "postcode": "6065"
    },
    {
        "name": "ASHENDON",
        "postcode": "6111"
    },
    {
        "name": "ASHFIELD",
        "postcode": "6054"
    },
    {
        "name": "ATTADALE",
        "postcode": "6156"
    },
    {
        "name": "ATWELL",
        "postcode": "6164"
    },
    {
        "name": "AUBIN GROVE",
        "postcode": "6164"
    },
    {
        "name": "AUGUSTA",
        "postcode": "6290"
    },
    {
        "name": "AUSTRALIND",
        "postcode": "6233"
    },
    {
        "name": "AVELEY",
        "postcode": "6069"
    },
    {
        "name": "AVON VALLEY NATIONAL PARK",
        "postcode": "6084"
    },
    {
        "name": "BAANDEE",
        "postcode": "6412"
    },
    {
        "name": "BABAKIN",
        "postcode": "6428"
    },
    {
        "name": "BABBAGE ISLAND",
        "postcode": "6701"
    },
    {
        "name": "BADGEBUP",
        "postcode": "6317"
    },
    {
        "name": "BADGERIN ROCK",
        "postcode": "6475"
    },
    {
        "name": "BADGIN",
        "postcode": "6302"
    },
    {
        "name": "BADGINGARRA",
        "postcode": "6521"
    },
    {
        "name": "BADJALING",
        "postcode": "6383"
    },
    {
        "name": "BAILUP",
        "postcode": "6082"
    },
    {
        "name": "BAKERS HILL",
        "postcode": "6562"
    },
    {
        "name": "BALBARRUP",
        "postcode": "6258"
    },
    {
        "name": "BALCATTA",
        "postcode": "6021"
    },
    {
        "name": "BALDIVIS",
        "postcode": "6171"
    },
    {
        "name": "BALGA",
        "postcode": "6061"
    },
    {
        "name": "BALINGUP",
        "postcode": "6253"
    },
    {
        "name": "BALKULING",
        "postcode": "6383"
    },
    {
        "name": "BALLA BALLA",
        "postcode": "6714"
    },
    {
        "name": "BALLADONG",
        "postcode": "6302"
    },
    {
        "name": "BALLADONIA",
        "postcode": "6443"
    },
    {
        "name": "BALLAJURA",
        "postcode": "6066"
    },
    {
        "name": "BALLAYING",
        "postcode": "6315"
    },
    {
        "name": "BALLIDU",
        "postcode": "6606"
    },
    {
        "name": "BALLY BALLY",
        "postcode": "6304"
    },
    {
        "name": "BAMBUN",
        "postcode": "6503"
    },
    {
        "name": "BANDY CREEK",
        "postcode": "6450"
    },
    {
        "name": "BANDYA",
        "postcode": "6440"
    },
    {
        "name": "BANJUP",
        "postcode": "6164"
    },
    {
        "name": "BANKSIA GROVE",
        "postcode": "6031"
    },
    {
        "name": "BANKSIADALE",
        "postcode": "6213"
    },
    {
        "name": "BANNISTER",
        "postcode": "6390"
    },
    {
        "name": "BARBALIN",
        "postcode": "6479"
    },
    {
        "name": "BARBERTON",
        "postcode": "6510"
    },
    {
        "name": "BARRABUP",
        "postcode": "6275"
    },
    {
        "name": "BARRAGUP",
        "postcode": "6209"
    },
    {
        "name": "BARROW ISLAND",
        "postcode": "6712"
    },
    {
        "name": "BASKERVILLE",
        "postcode": "6056"
    },
    {
        "name": "BASSENDEAN",
        "postcode": "6054"
    },
    {
        "name": "BASSENDEAN DC",
        "postcode": "6942"
    },
    {
        "name": "BATEMAN",
        "postcode": "6150"
    },
    {
        "name": "BAUDIN",
        "postcode": "6284"
    },
    {
        "name": "BAYNTON",
        "postcode": "6714"
    },
    {
        "name": "BAYONET HEAD",
        "postcode": "6330"
    },
    {
        "name": "BAYSWATER",
        "postcode": "6053"
    },
    {
        "name": "BEACHLANDS",
        "postcode": "6530"
    },
    {
        "name": "BEACON",
        "postcode": "6472"
    },
    {
        "name": "BEACONSFIELD",
        "postcode": "6162"
    },
    {
        "name": "BEADELL",
        "postcode": "6440"
    },
    {
        "name": "BEAUFORT RIVER",
        "postcode": "6394"
    },
    {
        "name": "BEAUMONT",
        "postcode": "6450"
    },
    {
        "name": "BECKENHAM",
        "postcode": "6107"
    },
    {
        "name": "BEDFORD",
        "postcode": "6052"
    },
    {
        "name": "BEDFORDALE",
        "postcode": "6112"
    },
    {
        "name": "BEECHBORO",
        "postcode": "6063"
    },
    {
        "name": "BEECHINA",
        "postcode": "6556"
    },
    {
        "name": "BEEDELUP",
        "postcode": "6260"
    },
    {
        "name": "BEELA",
        "postcode": "6224"
    },
    {
        "name": "BEELERUP",
        "postcode": "6239"
    },
    {
        "name": "BEELIAR",
        "postcode": "6164"
    },
    {
        "name": "BEENONG",
        "postcode": "6353"
    },
    {
        "name": "BEERMULLAH",
        "postcode": "6503"
    },
    {
        "name": "BEJOORDING",
        "postcode": "6566"
    },
    {
        "name": "BELDON",
        "postcode": "6027"
    },
    {
        "name": "BELHUS",
        "postcode": "6069"
    },
    {
        "name": "BELLEVUE",
        "postcode": "6056"
    },
    {
        "name": "BELMONT",
        "postcode": "6104"
    },
    {
        "name": "BENCUBBIN",
        "postcode": "6477"
    },
    {
        "name": "BENGER",
        "postcode": "6223"
    },
    {
        "name": "BENJABERRING",
        "postcode": "6463"
    },
    {
        "name": "BENJINUP",
        "postcode": "6255"
    },
    {
        "name": "BENTLEY",
        "postcode": "6102"
    },
    {
        "name": "BENTLEY DC",
        "postcode": "6102"
    },
    {
        "name": "BENTLEY SOUTH",
        "postcode": "6102"
    },
    {
        "name": "BERESFORD",
        "postcode": "6530"
    },
    {
        "name": "BERKSHIRE VALLEY",
        "postcode": "6510"
    },
    {
        "name": "BERNIER ISLAND",
        "postcode": "6701"
    },
    {
        "name": "BERTRAM",
        "postcode": "6167"
    },
    {
        "name": "BEVERLEY",
        "postcode": "6304"
    },
    {
        "name": "BIBRA LAKE",
        "postcode": "6163"
    },
    {
        "name": "BIBRA LAKE DC",
        "postcode": "6163"
    },
    {
        "name": "BICKLEY",
        "postcode": "6076"
    },
    {
        "name": "BICTON",
        "postcode": "6157"
    },
    {
        "name": "BIDDELIA",
        "postcode": "6260"
    },
    {
        "name": "BIG GROVE",
        "postcode": "6330"
    },
    {
        "name": "BILBARIN",
        "postcode": "6375"
    },
    {
        "name": "BILINGURR",
        "postcode": "6725"
    },
    {
        "name": "BIMBIJY",
        "postcode": "6472"
    },
    {
        "name": "BINDI BINDI",
        "postcode": "6574"
    },
    {
        "name": "BINDOON",
        "postcode": "6502"
    },
    {
        "name": "BINDOON TRAINING AREA",
        "postcode": "6502"
    },
    {
        "name": "BINDULI",
        "postcode": "6430"
    },
    {
        "name": "BINNINGUP",
        "postcode": "6233"
    },
    {
        "name": "BINNU",
        "postcode": "6532"
    },
    {
        "name": "BIRCHMONT",
        "postcode": "6214"
    },
    {
        "name": "BLUFF POINT",
        "postcode": "6530"
    },
    {
        "name": "BLYTHEWOOD",
        "postcode": "6208"
    },
    {
        "name": "BOALLIA",
        "postcode": "6280"
    },
    {
        "name": "BOBALONG",
        "postcode": "6320"
    },
    {
        "name": "BODALLIN",
        "postcode": "6424"
    },
    {
        "name": "BODDINGTON",
        "postcode": "6390"
    },
    {
        "name": "BOILUP",
        "postcode": "6394"
    },
    {
        "name": "BOKAL",
        "postcode": "6392"
    },
    {
        "name": "BOLGART",
        "postcode": "6568"
    },
    {
        "name": "BONNIE ROCK",
        "postcode": "6479"
    },
    {
        "name": "BONNIEFIELD",
        "postcode": "6525"
    },
    {
        "name": "BOODARIE",
        "postcode": "6722"
    },
    {
        "name": "BOODAROCKIN",
        "postcode": "6423"
    },
    {
        "name": "BOOKARA",
        "postcode": "6525"
    },
    {
        "name": "BOONANARRING",
        "postcode": "6503"
    },
    {
        "name": "BOORABBIN",
        "postcode": "6429"
    },
    {
        "name": "BOORAGOON",
        "postcode": "6154"
    },
    {
        "name": "BOORALAMING",
        "postcode": "6475"
    },
    {
        "name": "BOORARA",
        "postcode": "6431"
    },
    {
        "name": "BOORARA BROOK",
        "postcode": "6262"
    },
    {
        "name": "BOOTENAL",
        "postcode": "6532"
    },
    {
        "name": "BOOTHENDARRA",
        "postcode": "6521"
    },
    {
        "name": "BORANUP",
        "postcode": "6286"
    },
    {
        "name": "BORDEN",
        "postcode": "6338"
    },
    {
        "name": "BORDERDALE",
        "postcode": "6320"
    },
    {
        "name": "BORNHOLM",
        "postcode": "6330"
    },
    {
        "name": "BOSCABEL",
        "postcode": "6394"
    },
    {
        "name": "BOULDER",
        "postcode": "6432"
    },
    {
        "name": "BOUNDAIN",
        "postcode": "6312"
    },
    {
        "name": "BOUVARD",
        "postcode": "6211"
    },
    {
        "name": "BOVELL",
        "postcode": "6280"
    },
    {
        "name": "BOW BRIDGE",
        "postcode": "6333"
    },
    {
        "name": "BOWELLING",
        "postcode": "6225"
    },
    {
        "name": "BOWES",
        "postcode": "6535"
    },
    {
        "name": "BOWGADA",
        "postcode": "6623"
    },
    {
        "name": "BOXWOOD HILL",
        "postcode": "6338"
    },
    {
        "name": "BOYA",
        "postcode": "6056"
    },
    {
        "name": "BOYANUP",
        "postcode": "6237"
    },
    {
        "name": "BOYATUP",
        "postcode": "6450"
    },
    {
        "name": "BOYERINE",
        "postcode": "6316"
    },
    {
        "name": "BOYUP BROOK",
        "postcode": "6244"
    },
    {
        "name": "BRAMLEY",
        "postcode": "6285"
    },
    {
        "name": "BRAZIER",
        "postcode": "6251"
    },
    {
        "name": "BREERA",
        "postcode": "6503"
    },
    {
        "name": "BREMER BAY",
        "postcode": "6338"
    },
    {
        "name": "BRENTWOOD",
        "postcode": "6153"
    },
    {
        "name": "BRETON BAY",
        "postcode": "6043"
    },
    {
        "name": "BRIDGETOWN",
        "postcode": "6255"
    },
    {
        "name": "BRIGADOON",
        "postcode": "6069"
    },
    {
        "name": "BRINGO",
        "postcode": "6532"
    },
    {
        "name": "BROADWATER",
        "postcode": "6280"
    },
    {
        "name": "BROADWAY NEDLANDS",
        "postcode": "6009"
    },
    {
        "name": "BROADWOOD",
        "postcode": "6430"
    },
    {
        "name": "BROCKMAN",
        "postcode": "6701"
    },
    {
        "name": "BROKE",
        "postcode": "6398"
    },
    {
        "name": "BROOKDALE",
        "postcode": "6112"
    },
    {
        "name": "BROOKHAMPTON",
        "postcode": "6239"
    },
    {
        "name": "BROOKTON",
        "postcode": "6306"
    },
    {
        "name": "BROOME",
        "postcode": "6725"
    },
    {
        "name": "BROOMEHILL",
        "postcode": "6318"
    },
    {
        "name": "BROOMEHILL EAST",
        "postcode": "6318"
    },
    {
        "name": "BROOMEHILL VILLAGE",
        "postcode": "6318"
    },
    {
        "name": "BROOMEHILL WEST",
        "postcode": "6318"
    },
    {
        "name": "BROWN HILL",
        "postcode": "6431"
    },
    {
        "name": "BROWN RANGE",
        "postcode": "6701"
    },
    {
        "name": "BRUCE ROCK",
        "postcode": "6418"
    },
    {
        "name": "BRUNSWICK",
        "postcode": "6224"
    },
    {
        "name": "BUCKINGHAM",
        "postcode": "6225"
    },
    {
        "name": "BUCKLAND",
        "postcode": "6401"
    },
    {
        "name": "BULGARRA",
        "postcode": "6714"
    },
    {
        "name": "BULL CREEK",
        "postcode": "6149"
    },
    {
        "name": "BULLABULLING",
        "postcode": "6429"
    },
    {
        "name": "BULLARING",
        "postcode": "6373"
    },
    {
        "name": "BULLER",
        "postcode": "6532"
    },
    {
        "name": "BULLFINCH",
        "postcode": "6484"
    },
    {
        "name": "BULLOCK HILLS",
        "postcode": "6317"
    },
    {
        "name": "BULLSBROOK",
        "postcode": "6084"
    },
    {
        "name": "BULONG",
        "postcode": "6431"
    },
    {
        "name": "BULYEE",
        "postcode": "6306"
    },
    {
        "name": "BUNBURY",
        "postcode": "6230"
    },
    {
        "name": "BUNDANOON",
        "postcode": "6522"
    },
    {
        "name": "BUNICHE",
        "postcode": "6353"
    },
    {
        "name": "BUNJIL",
        "postcode": "6623"
    },
    {
        "name": "BUNTINE",
        "postcode": "6613"
    },
    {
        "name": "BURAKIN",
        "postcode": "6467"
    },
    {
        "name": "BURAMINYA",
        "postcode": "6452"
    },
    {
        "name": "BUREKUP",
        "postcode": "6227"
    },
    {
        "name": "BURGES",
        "postcode": "6302"
    },
    {
        "name": "BURLONG",
        "postcode": "6401"
    },
    {
        "name": "BURMA ROAD",
        "postcode": "6532"
    },
    {
        "name": "BURNS BEACH",
        "postcode": "6028"
    },
    {
        "name": "BURNSIDE",
        "postcode": "6285"
    },
    {
        "name": "BURRACOPPIN",
        "postcode": "6421"
    },
    {
        "name": "BURRAN ROCK",
        "postcode": "6490"
    },
    {
        "name": "BURRUP",
        "postcode": "6714"
    },
    {
        "name": "BURSWOOD",
        "postcode": "6100"
    },
    {
        "name": "BUSSELTON",
        "postcode": "6280"
    },
    {
        "name": "BUTLER",
        "postcode": "6036"
    },
    {
        "name": "BYFORD",
        "postcode": "6122"
    },
    {
        "name": "CABLE BEACH",
        "postcode": "6726"
    },
    {
        "name": "CADOUX",
        "postcode": "6466"
    },
    {
        "name": "CAIGUNA",
        "postcode": "6443"
    },
    {
        "name": "CALINGIRI",
        "postcode": "6569"
    },
    {
        "name": "CALISTA",
        "postcode": "6167"
    },
    {
        "name": "CALJIE",
        "postcode": "6302"
    },
    {
        "name": "CALLCUP",
        "postcode": "6260"
    },
    {
        "name": "CAMBALLIN",
        "postcode": "6728"
    },
    {
        "name": "CAMBRIDGE GULF",
        "postcode": "6743"
    },
    {
        "name": "CAMILLO",
        "postcode": "6111"
    },
    {
        "name": "CANCANNING",
        "postcode": "6315"
    },
    {
        "name": "CANE",
        "postcode": "6710"
    },
    {
        "name": "CANNA",
        "postcode": "6627"
    },
    {
        "name": "CANNING BRIDGE APPLECROSS",
        "postcode": "6153"
    },
    {
        "name": "CANNING MILLS",
        "postcode": "6111"
    },
    {
        "name": "CANNING VALE",
        "postcode": "6155"
    },
    {
        "name": "CANNING VALE DC",
        "postcode": "6155"
    },
    {
        "name": "CANNING VALE EAST",
        "postcode": "6155"
    },
    {
        "name": "CANNING VALE SOUTH",
        "postcode": "6155"
    },
    {
        "name": "CANNINGTON",
        "postcode": "6107"
    },
    {
        "name": "CAPE ARID",
        "postcode": "6452"
    },
    {
        "name": "CAPE BURNEY",
        "postcode": "6532"
    },
    {
        "name": "CAPE LE GRAND",
        "postcode": "6450"
    },
    {
        "name": "CAPE RANGE NATIONAL PARK",
        "postcode": "6707"
    },
    {
        "name": "CAPEL",
        "postcode": "6271"
    },
    {
        "name": "CAPEL RIVER",
        "postcode": "6271"
    },
    {
        "name": "CAPRICORN",
        "postcode": "6642"
    },
    {
        "name": "CARABAN",
        "postcode": "6041"
    },
    {
        "name": "CARABOODA",
        "postcode": "6033"
    },
    {
        "name": "CARANI",
        "postcode": "6566"
    },
    {
        "name": "CARBLA",
        "postcode": "6701"
    },
    {
        "name": "CARBUNUP RIVER",
        "postcode": "6280"
    },
    {
        "name": "CARDIFF",
        "postcode": "6225"
    },
    {
        "name": "CARDUP",
        "postcode": "6122"
    },
    {
        "name": "CAREY PARK",
        "postcode": "6230"
    },
    {
        "name": "CARINE",
        "postcode": "6020"
    },
    {
        "name": "CARLISLE",
        "postcode": "6101"
    },
    {
        "name": "CARLISLE NORTH",
        "postcode": "6101"
    },
    {
        "name": "CARLISLE SOUTH",
        "postcode": "6101"
    },
    {
        "name": "CARLOTTA",
        "postcode": "6275"
    },
    {
        "name": "CARMEL",
        "postcode": "6076"
    },
    {
        "name": "CARNAMAH",
        "postcode": "6517"
    },
    {
        "name": "CARNARVON",
        "postcode": "6701"
    },
    {
        "name": "CARRABIN",
        "postcode": "6423"
    },
    {
        "name": "CARRAMAR",
        "postcode": "6031"
    },
    {
        "name": "CARRARANG",
        "postcode": "6532"
    },
    {
        "name": "CARROLUP",
        "postcode": "6317"
    },
    {
        "name": "CARTMETICUP",
        "postcode": "6316"
    },
    {
        "name": "CASCADE",
        "postcode": "6450"
    },
    {
        "name": "CASTLETOWN",
        "postcode": "6450"
    },
    {
        "name": "CASUARINA",
        "postcode": "6167"
    },
    {
        "name": "CATABY",
        "postcode": "6507"
    },
    {
        "name": "CATTERICK",
        "postcode": "6255"
    },
    {
        "name": "CAVERSHAM",
        "postcode": "6055"
    },
    {
        "name": "CENTENNIAL PARK",
        "postcode": "6330"
    },
    {
        "name": "CERVANTES",
        "postcode": "6511"
    },
    {
        "name": "CHADWICK",
        "postcode": "6450"
    },
    {
        "name": "CHAMPION LAKES",
        "postcode": "6111"
    },
    {
        "name": "CHANDLER",
        "postcode": "6490"
    },
    {
        "name": "CHANGERUP",
        "postcode": "6394"
    },
    {
        "name": "CHANNYBEARUP",
        "postcode": "6260"
    },
    {
        "name": "CHAPMAN HILL",
        "postcode": "6280"
    },
    {
        "name": "CHARLEY CREEK",
        "postcode": "6239"
    },
    {
        "name": "CHERRY TREE POOL",
        "postcode": "6395"
    },
    {
        "name": "CHEYNES",
        "postcode": "6328"
    },
    {
        "name": "CHICHESTER",
        "postcode": "6751"
    },
    {
        "name": "CHIDLOW",
        "postcode": "6556"
    },
    {
        "name": "CHITTERING",
        "postcode": "6084"
    },
    {
        "name": "CHOWERUP",
        "postcode": "6244"
    },
    {
        "name": "CHRISTMAS ISLAND",
        "postcode": "6798"
    },
    {
        "name": "CHURCHLANDS",
        "postcode": "6018"
    },
    {
        "name": "CITY BEACH",
        "postcode": "6015"
    },
    {
        "name": "CITY DELIVERY CENTRE",
        "postcode": "6000"
    },
    {
        "name": "CLACKLINE",
        "postcode": "6564"
    },
    {
        "name": "CLAREMONT",
        "postcode": "6010"
    },
    {
        "name": "CLAREMONT NORTH",
        "postcode": "6010"
    },
    {
        "name": "CLARKSON",
        "postcode": "6030"
    },
    {
        "name": "CLEARY",
        "postcode": "6472"
    },
    {
        "name": "CLEAVERVILLE",
        "postcode": "6714"
    },
    {
        "name": "CLIFTON",
        "postcode": "6211"
    },
    {
        "name": "CLOISTERS SQUARE PO",
        "postcode": "6850"
    },
    {
        "name": "CLOVERDALE",
        "postcode": "6105"
    },
    {
        "name": "COBLININE",
        "postcode": "6317"
    },
    {
        "name": "COBURN",
        "postcode": "6532"
    },
    {
        "name": "COCKATOO ISLAND",
        "postcode": "6731"
    },
    {
        "name": "COCKBURN CENTRAL",
        "postcode": "6164"
    },
    {
        "name": "COCKLEBIDDY",
        "postcode": "6443"
    },
    {
        "name": "CODJATOTINE",
        "postcode": "6308"
    },
    {
        "name": "COLD HARBOUR",
        "postcode": "6302"
    },
    {
        "name": "COLLANILLING",
        "postcode": "6315"
    },
    {
        "name": "COLLEGE GROVE",
        "postcode": "6230"
    },
    {
        "name": "COLLIE",
        "postcode": "6225"
    },
    {
        "name": "COLLIE BURN",
        "postcode": "6225"
    },
    {
        "name": "COLLINGWOOD HEIGHTS",
        "postcode": "6330"
    },
    {
        "name": "COLLINGWOOD PARK",
        "postcode": "6330"
    },
    {
        "name": "COLLINS",
        "postcode": "6260"
    },
    {
        "name": "COMMODINE",
        "postcode": "6311"
    },
    {
        "name": "COMO",
        "postcode": "6152"
    },
    {
        "name": "CONDINGUP",
        "postcode": "6450"
    },
    {
        "name": "CONNOLLY",
        "postcode": "6027"
    },
    {
        "name": "CONTINE",
        "postcode": "6311"
    },
    {
        "name": "COODANUP",
        "postcode": "6210"
    },
    {
        "name": "COOGEE",
        "postcode": "6166"
    },
    {
        "name": "COOKERNUP",
        "postcode": "6220"
    },
    {
        "name": "COOLADAR HILL",
        "postcode": "6638"
    },
    {
        "name": "COOLBELLUP",
        "postcode": "6163"
    },
    {
        "name": "COOLBINIA",
        "postcode": "6050"
    },
    {
        "name": "COOLCALALAYA",
        "postcode": "6532"
    },
    {
        "name": "COOLGARDIE",
        "postcode": "6429"
    },
    {
        "name": "COOLJARLOO",
        "postcode": "6507"
    },
    {
        "name": "COOLOONGUP",
        "postcode": "6168"
    },
    {
        "name": "COOLUP",
        "postcode": "6214"
    },
    {
        "name": "COOMALBIDGUP",
        "postcode": "6450"
    },
    {
        "name": "COOMBERDALE",
        "postcode": "6512"
    },
    {
        "name": "COONABIDGEE",
        "postcode": "6503"
    },
    {
        "name": "COONDLE",
        "postcode": "6566"
    },
    {
        "name": "COOROW",
        "postcode": "6515"
    },
    {
        "name": "COOYA POOYA",
        "postcode": "6714"
    },
    {
        "name": "COPLEY",
        "postcode": "6562"
    },
    {
        "name": "CORAL BAY",
        "postcode": "6701"
    },
    {
        "name": "CORINTHIA",
        "postcode": "6426"
    },
    {
        "name": "CORRIGIN",
        "postcode": "6375"
    },
    {
        "name": "COSMO NEWBERY",
        "postcode": "6440"
    },
    {
        "name": "COSSACK",
        "postcode": "6720"
    },
    {
        "name": "COTTESLOE",
        "postcode": "6011"
    },
    {
        "name": "COURTENAY",
        "postcode": "6288"
    },
    {
        "name": "COWALELLUP",
        "postcode": "6336"
    },
    {
        "name": "COWALLA",
        "postcode": "6503"
    },
    {
        "name": "COWARAMUP",
        "postcode": "6284"
    },
    {
        "name": "COWCOWING",
        "postcode": "6485"
    },
    {
        "name": "COYRECUP",
        "postcode": "6317"
    },
    {
        "name": "CRAIGIE",
        "postcode": "6025"
    },
    {
        "name": "CRAMPHORNE",
        "postcode": "6420"
    },
    {
        "name": "CRANBROOK",
        "postcode": "6321"
    },
    {
        "name": "CRAWLEY",
        "postcode": "6009"
    },
    {
        "name": "CROOKED BROOK",
        "postcode": "6236"
    },
    {
        "name": "CROSSMAN",
        "postcode": "6390"
    },
    {
        "name": "CROWEA",
        "postcode": "6258"
    },
    {
        "name": "CUBALLING",
        "postcode": "6311"
    },
    {
        "name": "CUBBINE",
        "postcode": "6383"
    },
    {
        "name": "CUE",
        "postcode": "6640"
    },
    {
        "name": "CULHAM",
        "postcode": "6566"
    },
    {
        "name": "CULLACABARDEE",
        "postcode": "6067"
    },
    {
        "name": "CULLALLA",
        "postcode": "6503"
    },
    {
        "name": "CUNDEELEE",
        "postcode": "6434"
    },
    {
        "name": "CUNDERDIN",
        "postcode": "6407"
    },
    {
        "name": "CUNDINUP",
        "postcode": "6275"
    },
    {
        "name": "CUNJARDINE",
        "postcode": "6401"
    },
    {
        "name": "CURRAMBINE",
        "postcode": "6028"
    },
    {
        "name": "CUTHBERT",
        "postcode": "6330"
    },
    {
        "name": "DAADENNING CREEK",
        "postcode": "6410"
    },
    {
        "name": "DAGGAR HILLS",
        "postcode": "6638"
    },
    {
        "name": "DAGLISH",
        "postcode": "6008"
    },
    {
        "name": "DALE",
        "postcode": "6304"
    },
    {
        "name": "DALIAK",
        "postcode": "6302"
    },
    {
        "name": "DALKEITH",
        "postcode": "6009"
    },
    {
        "name": "DALWALLINU",
        "postcode": "6609"
    },
    {
        "name": "DALYELLUP",
        "postcode": "6230"
    },
    {
        "name": "DALYUP",
        "postcode": "6450"
    },
    {
        "name": "DAMPIER",
        "postcode": "6713"
    },
    {
        "name": "DAMPIER ARCHIPELAGO",
        "postcode": "6713"
    },
    {
        "name": "DAMPIER PENINSULA",
        "postcode": "6725"
    },
    {
        "name": "DANDANNING",
        "postcode": "6479"
    },
    {
        "name": "DANDARAGAN",
        "postcode": "6507"
    },
    {
        "name": "DANGIN",
        "postcode": "6383"
    },
    {
        "name": "DARCH",
        "postcode": "6065"
    },
    {
        "name": "DARDADINE",
        "postcode": "6392"
    },
    {
        "name": "DARDANUP",
        "postcode": "6236"
    },
    {
        "name": "DARDANUP WEST",
        "postcode": "6236"
    },
    {
        "name": "DARKAN",
        "postcode": "6392"
    },
    {
        "name": "DARLING DOWNS",
        "postcode": "6122"
    },
    {
        "name": "DARLINGTON",
        "postcode": "6070"
    },
    {
        "name": "DARRADUP",
        "postcode": "6275"
    },
    {
        "name": "DARTMOOR",
        "postcode": "6532"
    },
    {
        "name": "DARTNALL",
        "postcode": "6320"
    },
    {
        "name": "DATATINE",
        "postcode": "6317"
    },
    {
        "name": "DAVENPORT",
        "postcode": "6230"
    },
    {
        "name": "DAWESVILLE",
        "postcode": "6211"
    },
    {
        "name": "DAYTON",
        "postcode": "6055"
    },
    {
        "name": "DE GREY",
        "postcode": "6722"
    },
    {
        "name": "DEANMILL",
        "postcode": "6258"
    },
    {
        "name": "DEEPDALE",
        "postcode": "6532"
    },
    {
        "name": "DEEPDENE",
        "postcode": "6290"
    },
    {
        "name": "DENBARKER",
        "postcode": "6324"
    },
    {
        "name": "DENHAM",
        "postcode": "6537"
    },
    {
        "name": "DENMARK",
        "postcode": "6333"
    },
    {
        "name": "DERBY",
        "postcode": "6728"
    },
    {
        "name": "DEVILS CREEK",
        "postcode": "6630"
    },
    {
        "name": "DEWARS POOL",
        "postcode": "6567"
    },
    {
        "name": "DIAMOND TREE",
        "postcode": "6258"
    },
    {
        "name": "DIANELLA",
        "postcode": "6059"
    },
    {
        "name": "DINDILOA",
        "postcode": "6532"
    },
    {
        "name": "DINGUP",
        "postcode": "6258"
    },
    {
        "name": "DINNINUP",
        "postcode": "6244"
    },
    {
        "name": "DIRK HARTOG ISLAND",
        "postcode": "6537"
    },
    {
        "name": "DIXVALE",
        "postcode": "6258"
    },
    {
        "name": "DJUGUN",
        "postcode": "6725"
    },
    {
        "name": "DONGARA",
        "postcode": "6525"
    },
    {
        "name": "DONGOLOCKING",
        "postcode": "6315"
    },
    {
        "name": "DONNELLY RIVER",
        "postcode": "6258"
    },
    {
        "name": "DONNYBROOK",
        "postcode": "6239"
    },
    {
        "name": "DOODENANNING",
        "postcode": "6383"
    },
    {
        "name": "DOODLAKINE",
        "postcode": "6411"
    },
    {
        "name": "DORRE ISLAND",
        "postcode": "6701"
    },
    {
        "name": "DOUBLEVIEW",
        "postcode": "6018"
    },
    {
        "name": "DOWERIN",
        "postcode": "6461"
    },
    {
        "name": "DROME",
        "postcode": "6330"
    },
    {
        "name": "DRUMMOND COVE",
        "postcode": "6532"
    },
    {
        "name": "DRYANDRA",
        "postcode": "6311"
    },
    {
        "name": "DRYSDALE RIVER",
        "postcode": "6740"
    },
    {
        "name": "DUDAWA",
        "postcode": "6519"
    },
    {
        "name": "DUDININ",
        "postcode": "6363"
    },
    {
        "name": "DUDLEY PARK",
        "postcode": "6210"
    },
    {
        "name": "DUKIN",
        "postcode": "6475"
    },
    {
        "name": "DULBELLING",
        "postcode": "6383"
    },
    {
        "name": "DULYALBIN",
        "postcode": "6425"
    },
    {
        "name": "DUMBARTON",
        "postcode": "6566"
    },
    {
        "name": "DUMBERNING",
        "postcode": "6312"
    },
    {
        "name": "DUMBLEYUNG",
        "postcode": "6350"
    },
    {
        "name": "DUNCRAIG",
        "postcode": "6023"
    },
    {
        "name": "DUNDAS",
        "postcode": "6443"
    },
    {
        "name": "DUNN ROCK",
        "postcode": "6355"
    },
    {
        "name": "DUNSBOROUGH",
        "postcode": "6281"
    },
    {
        "name": "DURACK",
        "postcode": "6743"
    },
    {
        "name": "DURANILLIN",
        "postcode": "6393"
    },
    {
        "name": "DURAWAH",
        "postcode": "6532"
    },
    {
        "name": "DWARDA",
        "postcode": "6308"
    },
    {
        "name": "DWELLINGUP",
        "postcode": "6213"
    },
    {
        "name": "EAGLE BAY",
        "postcode": "6281"
    },
    {
        "name": "EAST AUGUSTA",
        "postcode": "6290"
    },
    {
        "name": "EAST BALLIDU",
        "postcode": "6606"
    },
    {
        "name": "EAST BEVERLEY",
        "postcode": "6304"
    },
    {
        "name": "EAST BOWES",
        "postcode": "6535"
    },
    {
        "name": "EAST BUNBURY",
        "postcode": "6230"
    },
    {
        "name": "EAST CANNINGTON",
        "postcode": "6107"
    },
    {
        "name": "EAST CARNARVON",
        "postcode": "6701"
    },
    {
        "name": "EAST CHAPMAN",
        "postcode": "6532"
    },
    {
        "name": "EAST DAMBORING",
        "postcode": "6608"
    },
    {
        "name": "EAST FREMANTLE",
        "postcode": "6158"
    },
    {
        "name": "EAST LYONS RIVER",
        "postcode": "6705"
    },
    {
        "name": "EAST MUNGLINUP",
        "postcode": "6450"
    },
    {
        "name": "EAST MURCHISON",
        "postcode": "6640"
    },
    {
        "name": "EAST NABAWA",
        "postcode": "6532"
    },
    {
        "name": "EAST NANNUP",
        "postcode": "6275"
    },
    {
        "name": "EAST NEWDEGATE",
        "postcode": "6355"
    },
    {
        "name": "EAST PERTH",
        "postcode": "6004"
    },
    {
        "name": "EAST PINGELLY",
        "postcode": "6308"
    },
    {
        "name": "EAST POPANYINNING",
        "postcode": "6309"
    },
    {
        "name": "EAST ROCKINGHAM",
        "postcode": "6168"
    },
    {
        "name": "EAST VICTORIA PARK",
        "postcode": "6101"
    },
    {
        "name": "EAST WICKEPIN",
        "postcode": "6370"
    },
    {
        "name": "EAST YUNA",
        "postcode": "6532"
    },
    {
        "name": "EASTBROOK",
        "postcode": "6260"
    },
    {
        "name": "EATON",
        "postcode": "6232"
    },
    {
        "name": "EDEN HILL",
        "postcode": "6054"
    },
    {
        "name": "EDGEWATER",
        "postcode": "6027"
    },
    {
        "name": "EGANU",
        "postcode": "6515"
    },
    {
        "name": "EGLINTON",
        "postcode": "6034"
    },
    {
        "name": "EIGHTY MILE BEACH",
        "postcode": "6725"
    },
    {
        "name": "ELABBIN",
        "postcode": "6490"
    },
    {
        "name": "ELACHBUTTING",
        "postcode": "6479"
    },
    {
        "name": "ELGIN",
        "postcode": "6237"
    },
    {
        "name": "ELLEKER",
        "postcode": "6330"
    },
    {
        "name": "ELLENBROOK",
        "postcode": "6069"
    },
    {
        "name": "ELLENBROOK EAST",
        "postcode": "6069"
    },
    {
        "name": "ELLENDALE",
        "postcode": "6532"
    },
    {
        "name": "EMBLETON",
        "postcode": "6062"
    },
    {
        "name": "EMU FLAT",
        "postcode": "6431"
    },
    {
        "name": "EMU POINT",
        "postcode": "6330"
    },
    {
        "name": "ENEABBA",
        "postcode": "6518"
    },
    {
        "name": "ENNUIN",
        "postcode": "6484"
    },
    {
        "name": "ERADU",
        "postcode": "6532"
    },
    {
        "name": "ERADU SOUTH",
        "postcode": "6532"
    },
    {
        "name": "ERSKINE",
        "postcode": "6210"
    },
    {
        "name": "ESPERANCE",
        "postcode": "6450"
    },
    {
        "name": "ETMILYN",
        "postcode": "6213"
    },
    {
        "name": "EUCLA",
        "postcode": "6443"
    },
    {
        "name": "EURARDY",
        "postcode": "6532"
    },
    {
        "name": "EWLYAMARTUP",
        "postcode": "6317"
    },
    {
        "name": "EXMOUTH",
        "postcode": "6707"
    },
    {
        "name": "EXMOUTH GULF",
        "postcode": "6707"
    },
    {
        "name": "FAIRBRIDGE",
        "postcode": "6208"
    },
    {
        "name": "FALCON",
        "postcode": "6210"
    },
    {
        "name": "FERGUSON",
        "postcode": "6236"
    },
    {
        "name": "FERNDALE",
        "postcode": "6148"
    },
    {
        "name": "FEYSVILLE",
        "postcode": "6431"
    },
    {
        "name": "FIMISTON",
        "postcode": "6432"
    },
    {
        "name": "FINUCANE",
        "postcode": "6722"
    },
    {
        "name": "FITZGERALD",
        "postcode": "6337"
    },
    {
        "name": "FITZGERALD RIVER NATIONAL PARK",
        "postcode": "6346"
    },
    {
        "name": "FITZROY CROSSING",
        "postcode": "6765"
    },
    {
        "name": "FLINT",
        "postcode": "6302"
    },
    {
        "name": "FLOREAT",
        "postcode": "6014"
    },
    {
        "name": "FLYNN",
        "postcode": "6302"
    },
    {
        "name": "FOREST GROVE",
        "postcode": "6286"
    },
    {
        "name": "FOREST HILL",
        "postcode": "6324"
    },
    {
        "name": "FORREST",
        "postcode": "6434"
    },
    {
        "name": "FORREST BEACH",
        "postcode": "6271"
    },
    {
        "name": "FORRESTANIA",
        "postcode": "6359"
    },
    {
        "name": "FORRESTDALE",
        "postcode": "6112"
    },
    {
        "name": "FORRESTFIELD",
        "postcode": "6058"
    },
    {
        "name": "FORTESCUE",
        "postcode": "6716"
    },
    {
        "name": "FRANCOIS PERON NATIONAL PARK",
        "postcode": "6537"
    },
    {
        "name": "FRANKLAND RIVER",
        "postcode": "6396"
    },
    {
        "name": "FRASER RANGE",
        "postcode": "6443"
    },
    {
        "name": "FREMANTLE",
        "postcode": "6160"
    },
    {
        "name": "FRENCHMAN BAY",
        "postcode": "6330"
    },
    {
        "name": "FURNISSDALE",
        "postcode": "6209"
    },
    {
        "name": "GABALONG",
        "postcode": "6574"
    },
    {
        "name": "GABBADAH",
        "postcode": "6041"
    },
    {
        "name": "GABBIN",
        "postcode": "6476"
    },
    {
        "name": "GAIRDNER",
        "postcode": "6337"
    },
    {
        "name": "GAP RIDGE",
        "postcode": "6714"
    },
    {
        "name": "GARDEN ISLAND",
        "postcode": "6168"
    },
    {
        "name": "GASCOYNE JUNCTION",
        "postcode": "6705"
    },
    {
        "name": "GASCOYNE RIVER",
        "postcode": "6705"
    },
    {
        "name": "GEEGULLY CREEK",
        "postcode": "6728"
    },
    {
        "name": "GELORUP",
        "postcode": "6230"
    },
    {
        "name": "GEOGRAPHE",
        "postcode": "6280"
    },
    {
        "name": "GEORGINA",
        "postcode": "6532"
    },
    {
        "name": "GERALDTON",
        "postcode": "6530"
    },
    {
        "name": "GERALDTON PO",
        "postcode": "6531"
    },
    {
        "name": "GHOOLI",
        "postcode": "6426"
    },
    {
        "name": "GIBB",
        "postcode": "6743"
    },
    {
        "name": "GIBSON",
        "postcode": "6448"
    },
    {
        "name": "GIBSON DESERT NORTH",
        "postcode": "0872"
    },
    {
        "name": "GIBSON DESERT SOUTH",
        "postcode": "0872"
    },
    {
        "name": "GIDGEGANNUP",
        "postcode": "6083"
    },
    {
        "name": "GILGERING",
        "postcode": "6302"
    },
    {
        "name": "GILLIMANNING",
        "postcode": "6308"
    },
    {
        "name": "GILLINGARRA",
        "postcode": "6510"
    },
    {
        "name": "GILROYD",
        "postcode": "6701"
    },
    {
        "name": "GINGERAH",
        "postcode": "6725"
    },
    {
        "name": "GINGIN",
        "postcode": "6503"
    },
    {
        "name": "GINGINUP",
        "postcode": "6503"
    },
    {
        "name": "GIRRAWHEEN",
        "postcode": "6064"
    },
    {
        "name": "GLEDHOW",
        "postcode": "6330"
    },
    {
        "name": "GLEN FORREST",
        "postcode": "6071"
    },
    {
        "name": "GLEN IRIS",
        "postcode": "6230"
    },
    {
        "name": "GLEN MERVYN",
        "postcode": "6239"
    },
    {
        "name": "GLENCOE",
        "postcode": "6316"
    },
    {
        "name": "GLENDALOUGH",
        "postcode": "6016"
    },
    {
        "name": "GLENFIELD",
        "postcode": "6532"
    },
    {
        "name": "GLENLYNN",
        "postcode": "6256"
    },
    {
        "name": "GLENORAN",
        "postcode": "6258"
    },
    {
        "name": "GLENTROMIE",
        "postcode": "6509"
    },
    {
        "name": "GNANGARA",
        "postcode": "6077"
    },
    {
        "name": "GNARABUP",
        "postcode": "6285"
    },
    {
        "name": "GNOOREA",
        "postcode": "6714"
    },
    {
        "name": "GNOWANGERUP",
        "postcode": "6335"
    },
    {
        "name": "GNOWELLEN",
        "postcode": "6328"
    },
    {
        "name": "GOLDEN BAY",
        "postcode": "6174"
    },
    {
        "name": "GOODE BEACH",
        "postcode": "6330"
    },
    {
        "name": "GOODLANDS",
        "postcode": "6468"
    },
    {
        "name": "GOOMALLING",
        "postcode": "6460"
    },
    {
        "name": "GOOMARIN",
        "postcode": "6415"
    },
    {
        "name": "GOOSEBERRY HILL",
        "postcode": "6076"
    },
    {
        "name": "GORGE ROCK",
        "postcode": "6375"
    },
    {
        "name": "GORRIE",
        "postcode": "6556"
    },
    {
        "name": "GOSNELLS",
        "postcode": "6110"
    },
    {
        "name": "GRACETOWN",
        "postcode": "6284"
    },
    {
        "name": "GRANVILLE",
        "postcode": "6503"
    },
    {
        "name": "GRASS PATCH",
        "postcode": "6446"
    },
    {
        "name": "GRASS VALLEY",
        "postcode": "6403"
    },
    {
        "name": "GREEN HEAD",
        "postcode": "6514"
    },
    {
        "name": "GREEN RANGE",
        "postcode": "6328"
    },
    {
        "name": "GREEN VALLEY",
        "postcode": "6330"
    },
    {
        "name": "GREENBUSHES",
        "postcode": "6254"
    },
    {
        "name": "GREENFIELDS",
        "postcode": "6210"
    },
    {
        "name": "GREENHILLS",
        "postcode": "6302"
    },
    {
        "name": "GREENMOUNT",
        "postcode": "6056"
    },
    {
        "name": "GREENOUGH",
        "postcode": "6532"
    },
    {
        "name": "GREENWOOD",
        "postcode": "6024"
    },
    {
        "name": "GREENWOODS VALLEY",
        "postcode": "6405"
    },
    {
        "name": "GREGORY",
        "postcode": "6535"
    },
    {
        "name": "GREY",
        "postcode": "6521"
    },
    {
        "name": "GREYS PLAIN",
        "postcode": "6701"
    },
    {
        "name": "GRIMWADE",
        "postcode": "6253"
    },
    {
        "name": "GUILDERTON",
        "postcode": "6041"
    },
    {
        "name": "GUILDFORD",
        "postcode": "6055"
    },
    {
        "name": "GUNDARING",
        "postcode": "6315"
    },
    {
        "name": "GUNYIDI",
        "postcode": "6513"
    },
    {
        "name": "GUTHA",
        "postcode": "6623"
    },
    {
        "name": "GWAMBYGINE",
        "postcode": "6302"
    },
    {
        "name": "GWELUP",
        "postcode": "6018"
    },
    {
        "name": "GWELUP DC",
        "postcode": "6018"
    },
    {
        "name": "GWINDINUP",
        "postcode": "6237"
    },
    {
        "name": "HACKETTS GULLY",
        "postcode": "6076"
    },
    {
        "name": "HALLS CREEK",
        "postcode": "6770"
    },
    {
        "name": "HALLS HEAD",
        "postcode": "6210"
    },
    {
        "name": "HAMEL",
        "postcode": "6215"
    },
    {
        "name": "HAMELIN BAY",
        "postcode": "6288"
    },
    {
        "name": "HAMELIN POOL",
        "postcode": "6532"
    },
    {
        "name": "HAMERSLEY",
        "postcode": "6022"
    },
    {
        "name": "HAMERSLEY RANGE",
        "postcode": "6716"
    },
    {
        "name": "HAMILTON HILL",
        "postcode": "6163"
    },
    {
        "name": "HAMMOND PARK",
        "postcode": "6164"
    },
    {
        "name": "HANNANS",
        "postcode": "6430"
    },
    {
        "name": "HANNANS PO",
        "postcode": "6433"
    },
    {
        "name": "HARRIS RIVER",
        "postcode": "6225"
    },
    {
        "name": "HARRISDALE",
        "postcode": "6112"
    },
    {
        "name": "HARRISMITH",
        "postcode": "6361"
    },
    {
        "name": "HARVEY",
        "postcode": "6220"
    },
    {
        "name": "HASTINGS",
        "postcode": "6308"
    },
    {
        "name": "HATTER HILL",
        "postcode": "6356"
    },
    {
        "name": "HAY",
        "postcode": "6333"
    },
    {
        "name": "HAYNES",
        "postcode": "6112"
    },
    {
        "name": "HAZELMERE",
        "postcode": "6055"
    },
    {
        "name": "HAZELVALE",
        "postcode": "6333"
    },
    {
        "name": "HEATHRIDGE",
        "postcode": "6027"
    },
    {
        "name": "HELENA VALLEY",
        "postcode": "6056"
    },
    {
        "name": "HENDERSON",
        "postcode": "6166"
    },
    {
        "name": "HENLEY BROOK",
        "postcode": "6055"
    },
    {
        "name": "HENTY",
        "postcode": "6236"
    },
    {
        "name": "HERDSMAN",
        "postcode": "6017"
    },
    {
        "name": "HERNE HILL",
        "postcode": "6056"
    },
    {
        "name": "HERRON",
        "postcode": "6211"
    },
    {
        "name": "HESTER",
        "postcode": "6255"
    },
    {
        "name": "HESTER BROOK",
        "postcode": "6255"
    },
    {
        "name": "HICKETY",
        "postcode": "6532"
    },
    {
        "name": "HIGGINSVILLE",
        "postcode": "6443"
    },
    {
        "name": "HIGH WYCOMBE",
        "postcode": "6057"
    },
    {
        "name": "HIGHBURY",
        "postcode": "6313"
    },
    {
        "name": "HIGHGATE",
        "postcode": "6003"
    },
    {
        "name": "HILBERT",
        "postcode": "6112"
    },
    {
        "name": "HILL RIVER",
        "postcode": "6521"
    },
    {
        "name": "HILLARYS",
        "postcode": "6025"
    },
    {
        "name": "HILLMAN",
        "postcode": "6168"
    },
    {
        "name": "HILLSIDE",
        "postcode": "6312"
    },
    {
        "name": "HILTON",
        "postcode": "6163"
    },
    {
        "name": "HINDMARSH",
        "postcode": "6462"
    },
    {
        "name": "HINES HILL",
        "postcode": "6413"
    },
    {
        "name": "HITHERGREEN",
        "postcode": "6280"
    },
    {
        "name": "HOCKING",
        "postcode": "6065"
    },
    {
        "name": "HODDYS WELL",
        "postcode": "6566"
    },
    {
        "name": "HOFFMAN",
        "postcode": "6220"
    },
    {
        "name": "HOLLETON",
        "postcode": "6426"
    },
    {
        "name": "HOLMWOOD",
        "postcode": "6522"
    },
    {
        "name": "HOLT ROCK",
        "postcode": "6355"
    },
    {
        "name": "HOLYOAKE",
        "postcode": "6213"
    },
    {
        "name": "HOPE VALLEY",
        "postcode": "6165"
    },
    {
        "name": "HOPELAND",
        "postcode": "6125"
    },
    {
        "name": "HOPETOUN",
        "postcode": "6348"
    },
    {
        "name": "HORROCKS",
        "postcode": "6535"
    },
    {
        "name": "HOUTMAN ABROLHOS",
        "postcode": "6530"
    },
    {
        "name": "HOVEA",
        "postcode": "6071"
    },
    {
        "name": "HOWATHARRA",
        "postcode": "6532"
    },
    {
        "name": "HOWICK",
        "postcode": "6450"
    },
    {
        "name": "HULONGINE",
        "postcode": "6460"
    },
    {
        "name": "HUNTINGDALE",
        "postcode": "6110"
    },
    {
        "name": "HYDEN",
        "postcode": "6359"
    },
    {
        "name": "IKEWA",
        "postcode": "6522"
    },
    {
        "name": "ILUKA",
        "postcode": "6028"
    },
    {
        "name": "INDEE",
        "postcode": "6721"
    },
    {
        "name": "INGGARDA",
        "postcode": "6701"
    },
    {
        "name": "INGLEHOPE",
        "postcode": "6213"
    },
    {
        "name": "INGLEWOOD",
        "postcode": "6052"
    },
    {
        "name": "INKPEN",
        "postcode": "6302"
    },
    {
        "name": "INNALOO",
        "postcode": "6018"
    },
    {
        "name": "INNAWANGA",
        "postcode": "6751"
    },
    {
        "name": "IRISHTOWN",
        "postcode": "6401"
    },
    {
        "name": "IRWIN",
        "postcode": "6525"
    },
    {
        "name": "ISRAELITE BAY",
        "postcode": "6452"
    },
    {
        "name": "ISSEKA",
        "postcode": "6535"
    },
    {
        "name": "JACKITUP",
        "postcode": "6335"
    },
    {
        "name": "JACUP",
        "postcode": "6337"
    },
    {
        "name": "JALBARRAGUP",
        "postcode": "6275"
    },
    {
        "name": "JALORAN",
        "postcode": "6315"
    },
    {
        "name": "JANDABUP",
        "postcode": "6077"
    },
    {
        "name": "JANDAKOT",
        "postcode": "6164"
    },
    {
        "name": "JANE BROOK",
        "postcode": "6056"
    },
    {
        "name": "JARDEE",
        "postcode": "6258"
    },
    {
        "name": "JARRAHDALE",
        "postcode": "6124"
    },
    {
        "name": "JARRAHWOOD",
        "postcode": "6275"
    },
    {
        "name": "JELCOBINE",
        "postcode": "6306"
    },
    {
        "name": "JENNACUBBINE",
        "postcode": "6401"
    },
    {
        "name": "JENNAPULLIN",
        "postcode": "6401"
    },
    {
        "name": "JERDACUTTUP",
        "postcode": "6346"
    },
    {
        "name": "JERRAMUNGUP",
        "postcode": "6337"
    },
    {
        "name": "JIBBERDING",
        "postcode": "6612"
    },
    {
        "name": "JILAKIN",
        "postcode": "6365"
    },
    {
        "name": "JINDALEE",
        "postcode": "6036"
    },
    {
        "name": "JINDONG",
        "postcode": "6280"
    },
    {
        "name": "JINGALUP",
        "postcode": "6395"
    },
    {
        "name": "JITARNING",
        "postcode": "6365"
    },
    {
        "name": "JOLIMONT",
        "postcode": "6014"
    },
    {
        "name": "JOONDALUP",
        "postcode": "6027"
    },
    {
        "name": "JOONDALUP DC",
        "postcode": "6027"
    },
    {
        "name": "JOONDANNA",
        "postcode": "6060"
    },
    {
        "name": "JULIMAR",
        "postcode": "6567"
    },
    {
        "name": "JUNA DOWNS",
        "postcode": "6751"
    },
    {
        "name": "JURIEN BAY",
        "postcode": "6516"
    },
    {
        "name": "KADATHINNI",
        "postcode": "6519"
    },
    {
        "name": "KALAMUNDA",
        "postcode": "6076"
    },
    {
        "name": "KALANNIE",
        "postcode": "6468"
    },
    {
        "name": "KALBARRI",
        "postcode": "6536"
    },
    {
        "name": "KALBARRI NATIONAL PARK",
        "postcode": "6536"
    },
    {
        "name": "KALGAN",
        "postcode": "6330"
    },
    {
        "name": "KALGOORLIE",
        "postcode": "6430"
    },
    {
        "name": "KALGOORLIE DC",
        "postcode": "6433"
    },
    {
        "name": "KALGOORLIE PO",
        "postcode": "6433"
    },
    {
        "name": "KALGUP",
        "postcode": "6280"
    },
    {
        "name": "KALLAROO",
        "postcode": "6025"
    },
    {
        "name": "KALOORUP",
        "postcode": "6280"
    },
    {
        "name": "KALUMBURU",
        "postcode": "6740"
    },
    {
        "name": "KAMBALDA EAST",
        "postcode": "6442"
    },
    {
        "name": "KAMBALDA WEST",
        "postcode": "6442"
    },
    {
        "name": "KANGAROO GULLY",
        "postcode": "6255"
    },
    {
        "name": "KANOWNA",
        "postcode": "6431"
    },
    {
        "name": "KARAKIN",
        "postcode": "6044"
    },
    {
        "name": "KARAWARA",
        "postcode": "6152"
    },
    {
        "name": "KARDINYA",
        "postcode": "6163"
    },
    {
        "name": "KARIJINI",
        "postcode": "6751"
    },
    {
        "name": "KARLGARIN",
        "postcode": "6358"
    },
    {
        "name": "KARLKURLA",
        "postcode": "6430"
    },
    {
        "name": "KARLONING",
        "postcode": "6479"
    },
    {
        "name": "KARLOO",
        "postcode": "6530"
    },
    {
        "name": "KARNUP",
        "postcode": "6176"
    },
    {
        "name": "KARRAGULLEN",
        "postcode": "6111"
    },
    {
        "name": "KARRAKATTA",
        "postcode": "6010"
    },
    {
        "name": "KARRAKUP",
        "postcode": "6122"
    },
    {
        "name": "KARRAMINDIE",
        "postcode": "6429"
    },
    {
        "name": "KARRANADGIN",
        "postcode": "6460"
    },
    {
        "name": "KARRATHA",
        "postcode": "6714"
    },
    {
        "name": "KARRATHA INDUSTRIAL ESTATE",
        "postcode": "6714"
    },
    {
        "name": "KARRIDALE",
        "postcode": "6288"
    },
    {
        "name": "KARRINYUP",
        "postcode": "6018"
    },
    {
        "name": "KARROUN HILL",
        "postcode": "6472"
    },
    {
        "name": "KATANNING",
        "postcode": "6317"
    },
    {
        "name": "KATRINE",
        "postcode": "6566"
    },
    {
        "name": "KAURING",
        "postcode": "6302"
    },
    {
        "name": "KEALY",
        "postcode": "6280"
    },
    {
        "name": "KEBARINGUP",
        "postcode": "6335"
    },
    {
        "name": "KELLERBERRIN",
        "postcode": "6410"
    },
    {
        "name": "KELMSCOTT",
        "postcode": "6111"
    },
    {
        "name": "KELMSCOTT DC",
        "postcode": "6111"
    },
    {
        "name": "KENDENUP",
        "postcode": "6323"
    },
    {
        "name": "KENMARE",
        "postcode": "6316"
    },
    {
        "name": "KENNEDY RANGE",
        "postcode": "6701"
    },
    {
        "name": "KENSINGTON",
        "postcode": "6151"
    },
    {
        "name": "KENTDALE",
        "postcode": "6333"
    },
    {
        "name": "KENWICK",
        "postcode": "6107"
    },
    {
        "name": "KERALUP",
        "postcode": "6182"
    },
    {
        "name": "KEWDALE",
        "postcode": "6105"
    },
    {
        "name": "KEYSBROOK",
        "postcode": "6126"
    },
    {
        "name": "KIARA",
        "postcode": "6054"
    },
    {
        "name": "KIMBOLTON",
        "postcode": "6728"
    },
    {
        "name": "KING LEOPOLD RANGES",
        "postcode": "6728"
    },
    {
        "name": "KING RIVER",
        "postcode": "6330"
    },
    {
        "name": "KINGS PARK",
        "postcode": "6005"
    },
    {
        "name": "KINGSFORD",
        "postcode": "6701"
    },
    {
        "name": "KINGSLEY",
        "postcode": "6026"
    },
    {
        "name": "KINGSTON",
        "postcode": "6256"
    },
    {
        "name": "KINGSWAY",
        "postcode": "6065"
    },
    {
        "name": "KINROSS",
        "postcode": "6028"
    },
    {
        "name": "KIRK ROCK",
        "postcode": "6370"
    },
    {
        "name": "KIRUP",
        "postcode": "6251"
    },
    {
        "name": "KIWIRRKURRA",
        "postcode": "0872"
    },
    {
        "name": "KOJANEERUP SOUTH",
        "postcode": "6328"
    },
    {
        "name": "KOJARENA",
        "postcode": "6532"
    },
    {
        "name": "KOJONUP",
        "postcode": "6395"
    },
    {
        "name": "KOKEBY",
        "postcode": "6304"
    },
    {
        "name": "KONDININ",
        "postcode": "6367"
    },
    {
        "name": "KONDUT",
        "postcode": "6605"
    },
    {
        "name": "KONNONGORRING",
        "postcode": "6603"
    },
    {
        "name": "KOOJAN",
        "postcode": "6510"
    },
    {
        "name": "KOOKYNIE",
        "postcode": "6431"
    },
    {
        "name": "KOOLAN ISLAND",
        "postcode": "6733"
    },
    {
        "name": "KOOLANOOKA",
        "postcode": "6623"
    },
    {
        "name": "KOOLYANOBBING",
        "postcode": "6427"
    },
    {
        "name": "KOOMBERKINE",
        "postcode": "6461"
    },
    {
        "name": "KOONDOOLA",
        "postcode": "6064"
    },
    {
        "name": "KOONGAMIA",
        "postcode": "6056"
    },
    {
        "name": "KOORDA",
        "postcode": "6475"
    },
    {
        "name": "KORBEL",
        "postcode": "6415"
    },
    {
        "name": "KORDABUP",
        "postcode": "6333"
    },
    {
        "name": "KORRELOCKING",
        "postcode": "6485"
    },
    {
        "name": "KRONKUP",
        "postcode": "6330"
    },
    {
        "name": "KUDARDUP",
        "postcode": "6290"
    },
    {
        "name": "KUENDER",
        "postcode": "6353"
    },
    {
        "name": "KUKERIN",
        "postcode": "6352"
    },
    {
        "name": "KULIKUP",
        "postcode": "6244"
    },
    {
        "name": "KULIN",
        "postcode": "6365"
    },
    {
        "name": "KULIN WEST",
        "postcode": "6365"
    },
    {
        "name": "KULJA",
        "postcode": "6470"
    },
    {
        "name": "KUMARINA",
        "postcode": "6642"
    },
    {
        "name": "KUNJIN",
        "postcode": "6375"
    },
    {
        "name": "KUNUNOPPIN",
        "postcode": "6489"
    },
    {
        "name": "KUNUNURRA",
        "postcode": "6743"
    },
    {
        "name": "KURNALPI",
        "postcode": "6431"
    },
    {
        "name": "KURRENKUTTEN",
        "postcode": "6375"
    },
    {
        "name": "KWEDA",
        "postcode": "6306"
    },
    {
        "name": "KWELKAN",
        "postcode": "6490"
    },
    {
        "name": "KWINANA",
        "postcode": "6966"
    },
    {
        "name": "KWINANA BEACH",
        "postcode": "6167"
    },
    {
        "name": "KWINANA TOWN CENTRE",
        "postcode": "6167"
    },
    {
        "name": "KWOLYIN",
        "postcode": "6385"
    },
    {
        "name": "LAGRANGE",
        "postcode": "6725"
    },
    {
        "name": "LAKE ARGYLE",
        "postcode": "6743"
    },
    {
        "name": "LAKE AUSTIN",
        "postcode": "6640"
    },
    {
        "name": "LAKE BIDDY",
        "postcode": "6355"
    },
    {
        "name": "LAKE BROWN",
        "postcode": "6479"
    },
    {
        "name": "LAKE CAMM",
        "postcode": "6355"
    },
    {
        "name": "LAKE CARNEGIE",
        "postcode": "6646"
    },
    {
        "name": "LAKE CLIFTON",
        "postcode": "6215"
    },
    {
        "name": "LAKE DARLOT",
        "postcode": "6438"
    },
    {
        "name": "LAKE DEBORAH",
        "postcode": "6484"
    },
    {
        "name": "LAKE GRACE",
        "postcode": "6353"
    },
    {
        "name": "LAKE HINDS",
        "postcode": "6603"
    },
    {
        "name": "LAKE JASPER",
        "postcode": "6260"
    },
    {
        "name": "LAKE KING",
        "postcode": "6356"
    },
    {
        "name": "LAKE MARGARETTE",
        "postcode": "6475"
    },
    {
        "name": "LAKE MUIR",
        "postcode": "6258"
    },
    {
        "name": "LAKE NINAN",
        "postcode": "6603"
    },
    {
        "name": "LAKE TOOLBRUNUP",
        "postcode": "6320"
    },
    {
        "name": "LAKE WELLS",
        "postcode": "6440"
    },
    {
        "name": "LAKELANDS",
        "postcode": "6180"
    },
    {
        "name": "LAKEWOOD",
        "postcode": "6431"
    },
    {
        "name": "LAMINGTON",
        "postcode": "6430"
    },
    {
        "name": "LANCELIN",
        "postcode": "6044"
    },
    {
        "name": "LANDSDALE",
        "postcode": "6065"
    },
    {
        "name": "LANGE",
        "postcode": "6330"
    },
    {
        "name": "LANGFORD",
        "postcode": "6147"
    },
    {
        "name": "LATHAM",
        "postcode": "6616"
    },
    {
        "name": "LATHLAIN",
        "postcode": "6100"
    },
    {
        "name": "LAVERTON",
        "postcode": "6440"
    },
    {
        "name": "LEARMONTH",
        "postcode": "6707"
    },
    {
        "name": "LEDA",
        "postcode": "6170"
    },
    {
        "name": "LEDGE POINT",
        "postcode": "6043"
    },
    {
        "name": "LEEDERVILLE",
        "postcode": "6007"
    },
    {
        "name": "LEEMAN",
        "postcode": "6514"
    },
    {
        "name": "LEEMING",
        "postcode": "6149"
    },
    {
        "name": "LEEUWIN",
        "postcode": "6290"
    },
    {
        "name": "LEINSTER",
        "postcode": "6437"
    },
    {
        "name": "LENNARD BROOK",
        "postcode": "6503"
    },
    {
        "name": "LEONORA",
        "postcode": "6438"
    },
    {
        "name": "LESCHENAULT",
        "postcode": "6233"
    },
    {
        "name": "LESLEY",
        "postcode": "6111"
    },
    {
        "name": "LESMURDIE",
        "postcode": "6076"
    },
    {
        "name": "LEXIA",
        "postcode": "6079"
    },
    {
        "name": "LIME LAKE",
        "postcode": "6315"
    },
    {
        "name": "LINFARNE",
        "postcode": "6258"
    },
    {
        "name": "LITTLE GROVE",
        "postcode": "6330"
    },
    {
        "name": "LITTLE ITALY",
        "postcode": "6355"
    },
    {
        "name": "LITTLE SANDY DESERT",
        "postcode": "6646"
    },
    {
        "name": "LOCKIER",
        "postcode": "6522"
    },
    {
        "name": "LOCKRIDGE",
        "postcode": "6054"
    },
    {
        "name": "LOCKYER",
        "postcode": "6330"
    },
    {
        "name": "LOL GRAY",
        "postcode": "6311"
    },
    {
        "name": "LONDONDERRY",
        "postcode": "6429"
    },
    {
        "name": "LORT RIVER",
        "postcode": "6447"
    },
    {
        "name": "LOWDEN",
        "postcode": "6240"
    },
    {
        "name": "LOWER CHITTERING",
        "postcode": "6084"
    },
    {
        "name": "LOWER HOTHAM",
        "postcode": "6390"
    },
    {
        "name": "LOWER KING",
        "postcode": "6330"
    },
    {
        "name": "LOWLANDS",
        "postcode": "6330"
    },
    {
        "name": "LUDLOW",
        "postcode": "6280"
    },
    {
        "name": "LUMEAH",
        "postcode": "6395"
    },
    {
        "name": "LYALLS MILL",
        "postcode": "6225"
    },
    {
        "name": "LYNDON",
        "postcode": "6701"
    },
    {
        "name": "LYNWOOD",
        "postcode": "6147"
    },
    {
        "name": "MACLEOD",
        "postcode": "6701"
    },
    {
        "name": "MADDINGTON",
        "postcode": "6109"
    },
    {
        "name": "MADELEY",
        "postcode": "6065"
    },
    {
        "name": "MADORA BAY",
        "postcode": "6210"
    },
    {
        "name": "MADURA",
        "postcode": "6443"
    },
    {
        "name": "MAGENTA",
        "postcode": "6355"
    },
    {
        "name": "MAGITUP",
        "postcode": "6338"
    },
    {
        "name": "MAHOGANY CREEK",
        "postcode": "6072"
    },
    {
        "name": "MAHOMETS FLATS",
        "postcode": "6530"
    },
    {
        "name": "MAIDA VALE",
        "postcode": "6057"
    },
    {
        "name": "MAITLAND",
        "postcode": "6714"
    },
    {
        "name": "MALABAINE",
        "postcode": "6401"
    },
    {
        "name": "MALAGA",
        "postcode": "6090"
    },
    {
        "name": "MALAGA DC",
        "postcode": "6945"
    },
    {
        "name": "MALEBELLING",
        "postcode": "6302"
    },
    {
        "name": "MALLEE HILL",
        "postcode": "6353"
    },
    {
        "name": "MALMALLING",
        "postcode": "6556"
    },
    {
        "name": "MALYALLING",
        "postcode": "6370"
    },
    {
        "name": "MANDOGALUP",
        "postcode": "6167"
    },
    {
        "name": "MANDURAH",
        "postcode": "6210"
    },
    {
        "name": "MANDURAH DC",
        "postcode": "6210"
    },
    {
        "name": "MANDURAH EAST",
        "postcode": "6210"
    },
    {
        "name": "MANDURAH NORTH",
        "postcode": "6210"
    },
    {
        "name": "MANJIMUP",
        "postcode": "6258"
    },
    {
        "name": "MANMANNING",
        "postcode": "6465"
    },
    {
        "name": "MANNING",
        "postcode": "6152"
    },
    {
        "name": "MANYPEAKS",
        "postcode": "6328"
    },
    {
        "name": "MARANGAROO",
        "postcode": "6064"
    },
    {
        "name": "MARANUP",
        "postcode": "6256"
    },
    {
        "name": "MARBELUP",
        "postcode": "6330"
    },
    {
        "name": "MARBLE BAR",
        "postcode": "6760"
    },
    {
        "name": "MARCHAGEE",
        "postcode": "6515"
    },
    {
        "name": "MARDELLA",
        "postcode": "6125"
    },
    {
        "name": "MARDIE",
        "postcode": "6714"
    },
    {
        "name": "MARGARET RIVER",
        "postcode": "6285"
    },
    {
        "name": "MARIGINIUP",
        "postcode": "6078"
    },
    {
        "name": "MARMION",
        "postcode": "6020"
    },
    {
        "name": "MARNE",
        "postcode": "6608"
    },
    {
        "name": "MARRACOONDA",
        "postcode": "6317"
    },
    {
        "name": "MARRADONG",
        "postcode": "6390"
    },
    {
        "name": "MARRAH",
        "postcode": "6532"
    },
    {
        "name": "MARRINUP",
        "postcode": "6213"
    },
    {
        "name": "MARTIN",
        "postcode": "6110"
    },
    {
        "name": "MARVEL LOCH",
        "postcode": "6426"
    },
    {
        "name": "MARYBROOK",
        "postcode": "6280"
    },
    {
        "name": "MASSEY BAY",
        "postcode": "6701"
    },
    {
        "name": "MAYA",
        "postcode": "6614"
    },
    {
        "name": "MAYANUP",
        "postcode": "6244"
    },
    {
        "name": "MAYLANDS",
        "postcode": "6051"
    },
    {
        "name": "MCALINDEN",
        "postcode": "6225"
    },
    {
        "name": "MCBEATH",
        "postcode": "6770"
    },
    {
        "name": "MCKAIL",
        "postcode": "6330"
    },
    {
        "name": "MEADOW",
        "postcode": "6532"
    },
    {
        "name": "MEADOW SPRINGS",
        "postcode": "6210"
    },
    {
        "name": "MECKERING",
        "postcode": "6405"
    },
    {
        "name": "MEDA",
        "postcode": "6728"
    },
    {
        "name": "MEDINA",
        "postcode": "6167"
    },
    {
        "name": "MEEKATHARRA",
        "postcode": "6642"
    },
    {
        "name": "MEEKING",
        "postcode": "6392"
    },
    {
        "name": "MEELON",
        "postcode": "6208"
    },
    {
        "name": "MEENAAR",
        "postcode": "6401"
    },
    {
        "name": "MEERUP",
        "postcode": "6262"
    },
    {
        "name": "MELALEUCA",
        "postcode": "6079"
    },
    {
        "name": "MELVILLE",
        "postcode": "6156"
    },
    {
        "name": "MENORA",
        "postcode": "6050"
    },
    {
        "name": "MENZIES",
        "postcode": "6436"
    },
    {
        "name": "MERILUP",
        "postcode": "6352"
    },
    {
        "name": "MERIVALE",
        "postcode": "6450"
    },
    {
        "name": "MERKANOOKA",
        "postcode": "6625"
    },
    {
        "name": "MERREDIN",
        "postcode": "6415"
    },
    {
        "name": "MERRIWA",
        "postcode": "6030"
    },
    {
        "name": "MERU",
        "postcode": "6530"
    },
    {
        "name": "METRICUP",
        "postcode": "6280"
    },
    {
        "name": "METTLER",
        "postcode": "6328"
    },
    {
        "name": "MIAMOON",
        "postcode": "6612"
    },
    {
        "name": "MIDDLE SWAN",
        "postcode": "6056"
    },
    {
        "name": "MIDDLESEX",
        "postcode": "6258"
    },
    {
        "name": "MIDDLETON BEACH",
        "postcode": "6330"
    },
    {
        "name": "MIDLAND",
        "postcode": "6056"
    },
    {
        "name": "MIDLAND DC",
        "postcode": "6936"
    },
    {
        "name": "MIDVALE",
        "postcode": "6056"
    },
    {
        "name": "MILING",
        "postcode": "6575"
    },
    {
        "name": "MILLARS WELL",
        "postcode": "6714"
    },
    {
        "name": "MILLBRIDGE",
        "postcode": "6232"
    },
    {
        "name": "MILLBROOK",
        "postcode": "6330"
    },
    {
        "name": "MILLENDON",
        "postcode": "6056"
    },
    {
        "name": "MILLS LAKE",
        "postcode": "6336"
    },
    {
        "name": "MILLSTREAM",
        "postcode": "6716"
    },
    {
        "name": "MILO",
        "postcode": "6525"
    },
    {
        "name": "MILPARA",
        "postcode": "6330"
    },
    {
        "name": "MIMEGARRA",
        "postcode": "6507"
    },
    {
        "name": "MINDARABIN",
        "postcode": "6336"
    },
    {
        "name": "MINDARIE",
        "postcode": "6030"
    },
    {
        "name": "MINDARRA",
        "postcode": "6503"
    },
    {
        "name": "MINDING",
        "postcode": "6315"
    },
    {
        "name": "MINGENEW",
        "postcode": "6522"
    },
    {
        "name": "MINIGIN",
        "postcode": "6312"
    },
    {
        "name": "MINILYA",
        "postcode": "6701"
    },
    {
        "name": "MINNENOOKA",
        "postcode": "6532"
    },
    {
        "name": "MINNIVALE",
        "postcode": "6462"
    },
    {
        "name": "MINYIRR",
        "postcode": "6725"
    },
    {
        "name": "MIRA MAR",
        "postcode": "6330"
    },
    {
        "name": "MIRRABOOKA",
        "postcode": "6061"
    },
    {
        "name": "MITCHELL PLATEAU",
        "postcode": "6740"
    },
    {
        "name": "MOBRUP",
        "postcode": "6395"
    },
    {
        "name": "MOCARDY",
        "postcode": "6603"
    },
    {
        "name": "MOGUMBER",
        "postcode": "6506"
    },
    {
        "name": "MOKINE",
        "postcode": "6401"
    },
    {
        "name": "MOKUP",
        "postcode": "6394"
    },
    {
        "name": "MOLLERIN",
        "postcode": "6475"
    },
    {
        "name": "MOLLOY ISLAND",
        "postcode": "6290"
    },
    {
        "name": "MONJEBUP",
        "postcode": "6338"
    },
    {
        "name": "MONJINGUP",
        "postcode": "6450"
    },
    {
        "name": "MONKEY MIA",
        "postcode": "6537"
    },
    {
        "name": "MOODIARRUP",
        "postcode": "6393"
    },
    {
        "name": "MOOJEBING",
        "postcode": "6317"
    },
    {
        "name": "MOOLIABEENEE",
        "postcode": "6504"
    },
    {
        "name": "MOONDAH",
        "postcode": "6503"
    },
    {
        "name": "MOONDYNE",
        "postcode": "6567"
    },
    {
        "name": "MOONIES HILL",
        "postcode": "6320"
    },
    {
        "name": "MOONYOONOOKA",
        "postcode": "6532"
    },
    {
        "name": "MOORA",
        "postcode": "6510"
    },
    {
        "name": "MOORE RIVER NATIONAL PARK",
        "postcode": "6503"
    },
    {
        "name": "MOORIARY",
        "postcode": "6522"
    },
    {
        "name": "MOORINE ROCK",
        "postcode": "6425"
    },
    {
        "name": "MORANGUP",
        "postcode": "6083"
    },
    {
        "name": "MORAWA",
        "postcode": "6623"
    },
    {
        "name": "MORBINNING",
        "postcode": "6304"
    },
    {
        "name": "MORDALUP",
        "postcode": "6258"
    },
    {
        "name": "MORESBY",
        "postcode": "6530"
    },
    {
        "name": "MORGANTOWN",
        "postcode": "6701"
    },
    {
        "name": "MORLEY",
        "postcode": "6062"
    },
    {
        "name": "MORNINGTON",
        "postcode": "6221"
    },
    {
        "name": "MOSMAN PARK",
        "postcode": "6012"
    },
    {
        "name": "MOULYINNING",
        "postcode": "6351"
    },
    {
        "name": "MOUNT ADAMS",
        "postcode": "6525"
    },
    {
        "name": "MOUNT ANKETELL",
        "postcode": "6714"
    },
    {
        "name": "MOUNT BARKER",
        "postcode": "6324"
    },
    {
        "name": "MOUNT BUDD",
        "postcode": "6522"
    },
    {
        "name": "MOUNT BURGES",
        "postcode": "6429"
    },
    {
        "name": "MOUNT CAROLINE",
        "postcode": "6410"
    },
    {
        "name": "MOUNT CLAREMONT",
        "postcode": "6010"
    },
    {
        "name": "MOUNT CLARENCE",
        "postcode": "6330"
    },
    {
        "name": "MOUNT COOKE",
        "postcode": "6390"
    },
    {
        "name": "MOUNT ELPHINSTONE",
        "postcode": "6330"
    },
    {
        "name": "MOUNT ERIN",
        "postcode": "6532"
    },
    {
        "name": "MOUNT HAMPTON",
        "postcode": "6426"
    },
    {
        "name": "MOUNT HARDEY",
        "postcode": "6302"
    },
    {
        "name": "MOUNT HARDMAN",
        "postcode": "6765"
    },
    {
        "name": "MOUNT HAWTHORN",
        "postcode": "6016"
    },
    {
        "name": "MOUNT HELENA",
        "postcode": "6082"
    },
    {
        "name": "MOUNT HILL",
        "postcode": "6528"
    },
    {
        "name": "MOUNT HOLLAND",
        "postcode": "6426"
    },
    {
        "name": "MOUNT HORNER",
        "postcode": "6525"
    },
    {
        "name": "MOUNT JACKSON",
        "postcode": "6426"
    },
    {
        "name": "MOUNT LAWLEY",
        "postcode": "6050"
    },
    {
        "name": "MOUNT LINDESAY",
        "postcode": "6333"
    },
    {
        "name": "MOUNT MADDEN",
        "postcode": "6356"
    },
    {
        "name": "MOUNT MAGNET",
        "postcode": "6638"
    },
    {
        "name": "MOUNT MELVILLE",
        "postcode": "6330"
    },
    {
        "name": "MOUNT NASURA",
        "postcode": "6112"
    },
    {
        "name": "MOUNT NEY",
        "postcode": "6447"
    },
    {
        "name": "MOUNT OBSERVATION",
        "postcode": "6302"
    },
    {
        "name": "MOUNT PALMER",
        "postcode": "6426"
    },
    {
        "name": "MOUNT PLEASANT",
        "postcode": "6153"
    },
    {
        "name": "MOUNT RICHON",
        "postcode": "6112"
    },
    {
        "name": "MOUNT ROMANCE",
        "postcode": "6333"
    },
    {
        "name": "MOUNT SHEILA",
        "postcode": "6751"
    },
    {
        "name": "MOUNT SHERIDAN",
        "postcode": "6355"
    },
    {
        "name": "MOUNT STIRLING",
        "postcode": "6383"
    },
    {
        "name": "MOUNT TARCOOLA",
        "postcode": "6530"
    },
    {
        "name": "MOUNT WALKER",
        "postcode": "6369"
    },
    {
        "name": "MOUNT WELLS",
        "postcode": "6390"
    },
    {
        "name": "MOUROUBRA",
        "postcode": "6472"
    },
    {
        "name": "MUCHEA",
        "postcode": "6501"
    },
    {
        "name": "MUCKENBURRA",
        "postcode": "6503"
    },
    {
        "name": "MUELLER RANGES",
        "postcode": "6770"
    },
    {
        "name": "MUJA",
        "postcode": "6225"
    },
    {
        "name": "MUKINBUDIN",
        "postcode": "6479"
    },
    {
        "name": "MULATAGA",
        "postcode": "6714"
    },
    {
        "name": "MULGA DOWNS",
        "postcode": "6751"
    },
    {
        "name": "MULLALOO",
        "postcode": "6027"
    },
    {
        "name": "MULLALYUP",
        "postcode": "6252"
    },
    {
        "name": "MULLEWA",
        "postcode": "6630"
    },
    {
        "name": "MULLINGAR",
        "postcode": "6430"
    },
    {
        "name": "MULUCKINE",
        "postcode": "6401"
    },
    {
        "name": "MUMBALLUP",
        "postcode": "6225"
    },
    {
        "name": "MUMBERKINE",
        "postcode": "6401"
    },
    {
        "name": "MUNDABULLANGANA",
        "postcode": "6721"
    },
    {
        "name": "MUNDARING",
        "postcode": "6073"
    },
    {
        "name": "MUNDARING DC",
        "postcode": "6073"
    },
    {
        "name": "MUNDIJONG",
        "postcode": "6123"
    },
    {
        "name": "MUNDRABILLA",
        "postcode": "6443"
    },
    {
        "name": "MUNGALUP",
        "postcode": "6225"
    },
    {
        "name": "MUNGLINUP",
        "postcode": "6450"
    },
    {
        "name": "MUNSTER",
        "postcode": "6166"
    },
    {
        "name": "MUNTADGIN",
        "postcode": "6420"
    },
    {
        "name": "MURADUP",
        "postcode": "6394"
    },
    {
        "name": "MURCHISON",
        "postcode": "6630"
    },
    {
        "name": "MURDOCH",
        "postcode": "6150"
    },
    {
        "name": "MURDONG",
        "postcode": "6317"
    },
    {
        "name": "MURESK",
        "postcode": "6401"
    },
    {
        "name": "MYALUP",
        "postcode": "6220"
    },
    {
        "name": "MYARA",
        "postcode": "6207"
    },
    {
        "name": "MYAREE",
        "postcode": "6154"
    },
    {
        "name": "MYAREE BC",
        "postcode": "6960"
    },
    {
        "name": "MYRUP",
        "postcode": "6450"
    },
    {
        "name": "NABAWA",
        "postcode": "6532"
    },
    {
        "name": "NAIRIBIN",
        "postcode": "6350"
    },
    {
        "name": "NALKAIN",
        "postcode": "6485"
    },
    {
        "name": "NALYERLUP",
        "postcode": "6338"
    },
    {
        "name": "NAMBAN",
        "postcode": "6512"
    },
    {
        "name": "NAMBEELUP",
        "postcode": "6207"
    },
    {
        "name": "NAMBUNG",
        "postcode": "6521"
    },
    {
        "name": "NANARUP",
        "postcode": "6330"
    },
    {
        "name": "NANGA",
        "postcode": "6537"
    },
    {
        "name": "NANGA BROOK",
        "postcode": "6215"
    },
    {
        "name": "NANGEENAN",
        "postcode": "6414"
    },
    {
        "name": "NANGETTY",
        "postcode": "6522"
    },
    {
        "name": "NANNUP",
        "postcode": "6275"
    },
    {
        "name": "NANSON",
        "postcode": "6532"
    },
    {
        "name": "NANUTARRA",
        "postcode": "6751"
    },
    {
        "name": "NAPIER",
        "postcode": "6330"
    },
    {
        "name": "NARALING",
        "postcode": "6532"
    },
    {
        "name": "NAREMBEEN",
        "postcode": "6369"
    },
    {
        "name": "NARNGULU",
        "postcode": "6532"
    },
    {
        "name": "NARRA TARRA",
        "postcode": "6532"
    },
    {
        "name": "NARRALOGGAN",
        "postcode": "6302"
    },
    {
        "name": "NARRIKUP",
        "postcode": "6326"
    },
    {
        "name": "NARROGIN",
        "postcode": "6312"
    },
    {
        "name": "NARROGIN VALLEY",
        "postcode": "6312"
    },
    {
        "name": "NATURALISTE",
        "postcode": "6281"
    },
    {
        "name": "NAVAL BASE",
        "postcode": "6165"
    },
    {
        "name": "NEALE",
        "postcode": "6440"
    },
    {
        "name": "NEDLANDS",
        "postcode": "6009"
    },
    {
        "name": "NEDLANDS DC",
        "postcode": "6009"
    },
    {
        "name": "NEEDILUP",
        "postcode": "6336"
    },
    {
        "name": "NEENDALING",
        "postcode": "6353"
    },
    {
        "name": "NEERABUP",
        "postcode": "6031"
    },
    {
        "name": "NEERGABBY",
        "postcode": "6503"
    },
    {
        "name": "NEMBUDDING",
        "postcode": "6485"
    },
    {
        "name": "NERIDUP",
        "postcode": "6450"
    },
    {
        "name": "NERRAMYNE",
        "postcode": "6630"
    },
    {
        "name": "NERREN NERREN",
        "postcode": "6532"
    },
    {
        "name": "NEW NORCIA",
        "postcode": "6509"
    },
    {
        "name": "NEWCARLBEON",
        "postcode": "6475"
    },
    {
        "name": "NEWDEGATE",
        "postcode": "6355"
    },
    {
        "name": "NEWLANDS",
        "postcode": "6251"
    },
    {
        "name": "NEWMAN",
        "postcode": "6753"
    },
    {
        "name": "NGAANYATJARRA-GILES",
        "postcode": "0872"
    },
    {
        "name": "NICKOL",
        "postcode": "6714"
    },
    {
        "name": "NILGEN",
        "postcode": "6044"
    },
    {
        "name": "NILLUP",
        "postcode": "6288"
    },
    {
        "name": "NINGALOO",
        "postcode": "6701"
    },
    {
        "name": "NIPPERING",
        "postcode": "6350"
    },
    {
        "name": "NIRIMBA",
        "postcode": "6208"
    },
    {
        "name": "NOGGERUP",
        "postcode": "6225"
    },
    {
        "name": "NOKANING",
        "postcode": "6415"
    },
    {
        "name": "NOLBA",
        "postcode": "6532"
    },
    {
        "name": "NOLLAMARA",
        "postcode": "6061"
    },
    {
        "name": "NOMANS LAKE",
        "postcode": "6312"
    },
    {
        "name": "NORANDA",
        "postcode": "6062"
    },
    {
        "name": "NORNALUP",
        "postcode": "6333"
    },
    {
        "name": "NORPA",
        "postcode": "6415"
    },
    {
        "name": "NORSEMAN",
        "postcode": "6443"
    },
    {
        "name": "NORTH BAANDEE",
        "postcode": "6412"
    },
    {
        "name": "NORTH BANNISTER",
        "postcode": "6390"
    },
    {
        "name": "NORTH BEACH",
        "postcode": "6020"
    },
    {
        "name": "NORTH BODALLIN",
        "postcode": "6424"
    },
    {
        "name": "NORTH BOYANUP",
        "postcode": "6237"
    },
    {
        "name": "NORTH BURNGUP",
        "postcode": "6353"
    },
    {
        "name": "NORTH CASCADE",
        "postcode": "6445"
    },
    {
        "name": "NORTH COOGEE",
        "postcode": "6163"
    },
    {
        "name": "NORTH DANDALUP",
        "postcode": "6207"
    },
    {
        "name": "NORTH ERADU",
        "postcode": "6532"
    },
    {
        "name": "NORTH FREMANTLE",
        "postcode": "6159"
    },
    {
        "name": "NORTH GREENBUSHES",
        "postcode": "6254"
    },
    {
        "name": "NORTH JINDONG",
        "postcode": "6280"
    },
    {
        "name": "NORTH KELLERBERRIN",
        "postcode": "6410"
    },
    {
        "name": "NORTH KUKERIN",
        "postcode": "6352"
    },
    {
        "name": "NORTH KUNUNOPPIN",
        "postcode": "6489"
    },
    {
        "name": "NORTH LAKE",
        "postcode": "6163"
    },
    {
        "name": "NORTH LAKE GRACE",
        "postcode": "6353"
    },
    {
        "name": "NORTH MOULYINNING",
        "postcode": "6351"
    },
    {
        "name": "NORTH PERTH",
        "postcode": "6006"
    },
    {
        "name": "NORTH PLANTATIONS",
        "postcode": "6701"
    },
    {
        "name": "NORTH STIRLINGS",
        "postcode": "6338"
    },
    {
        "name": "NORTH TAMMIN",
        "postcode": "6409"
    },
    {
        "name": "NORTH TRAYNING",
        "postcode": "6488"
    },
    {
        "name": "NORTH WALPOLE",
        "postcode": "6398"
    },
    {
        "name": "NORTH WEST CAPE",
        "postcode": "6707"
    },
    {
        "name": "NORTH WIALKI",
        "postcode": "6473"
    },
    {
        "name": "NORTH YELBENI",
        "postcode": "6487"
    },
    {
        "name": "NORTH YUNDERUP",
        "postcode": "6208"
    },
    {
        "name": "NORTHAM",
        "postcode": "6401"
    },
    {
        "name": "NORTHAMPTON",
        "postcode": "6535"
    },
    {
        "name": "NORTHBRIDGE",
        "postcode": "6003"
    },
    {
        "name": "NORTHCLIFFE",
        "postcode": "6262"
    },
    {
        "name": "NORTHERN GULLY",
        "postcode": "6532"
    },
    {
        "name": "NORTHLANDS PO",
        "postcode": "6905"
    },
    {
        "name": "NOWERGUP",
        "postcode": "6032"
    },
    {
        "name": "NUGADONG",
        "postcode": "6609"
    },
    {
        "name": "NUKARNI",
        "postcode": "6480"
    },
    {
        "name": "NULLAGINE",
        "postcode": "6758"
    },
    {
        "name": "NULLAKI",
        "postcode": "6330"
    },
    {
        "name": "NULSEN",
        "postcode": "6450"
    },
    {
        "name": "NUNGARIN",
        "postcode": "6490"
    },
    {
        "name": "NUNIERRA",
        "postcode": "6630"
    },
    {
        "name": "NUNILE",
        "postcode": "6566"
    },
    {
        "name": "NYABING",
        "postcode": "6341"
    },
    {
        "name": "OAKAJEE",
        "postcode": "6532"
    },
    {
        "name": "OAKFORD",
        "postcode": "6121"
    },
    {
        "name": "OAKLEY",
        "postcode": "6208"
    },
    {
        "name": "OCEAN BEACH",
        "postcode": "6333"
    },
    {
        "name": "OCEAN REEF",
        "postcode": "6027"
    },
    {
        "name": "O'CONNOR",
        "postcode": "6163"
    },
    {
        "name": "OGILVIE",
        "postcode": "6535"
    },
    {
        "name": "OLD PLAINS",
        "postcode": "6569"
    },
    {
        "name": "OLDBURY",
        "postcode": "6121"
    },
    {
        "name": "ONGERUP",
        "postcode": "6336"
    },
    {
        "name": "ONSLOW",
        "postcode": "6710"
    },
    {
        "name": "OOMBULGURRI",
        "postcode": "6740"
    },
    {
        "name": "ORA BANDA",
        "postcode": "6431"
    },
    {
        "name": "ORANA",
        "postcode": "6330"
    },
    {
        "name": "ORANGE GROVE",
        "postcode": "6109"
    },
    {
        "name": "ORANGE SPRINGS",
        "postcode": "6503"
    },
    {
        "name": "ORCHID VALLEY",
        "postcode": "6394"
    },
    {
        "name": "ORD RIVER",
        "postcode": "6770"
    },
    {
        "name": "ORELIA",
        "postcode": "6167"
    },
    {
        "name": "OSBORNE PARK",
        "postcode": "6017"
    },
    {
        "name": "OSBORNE PARK DC",
        "postcode": "6017"
    },
    {
        "name": "OSMINGTON",
        "postcode": "6285"
    },
    {
        "name": "PADBURY",
        "postcode": "6025"
    },
    {
        "name": "PALGARUP",
        "postcode": "6258"
    },
    {
        "name": "PALLINUP",
        "postcode": "6335"
    },
    {
        "name": "PALMDALE",
        "postcode": "6328"
    },
    {
        "name": "PALMER",
        "postcode": "6225"
    },
    {
        "name": "PALMYRA",
        "postcode": "6157"
    },
    {
        "name": "PALMYRA DC",
        "postcode": "6157"
    },
    {
        "name": "PANNAWONICA",
        "postcode": "6716"
    },
    {
        "name": "PANTAPIN",
        "postcode": "6384"
    },
    {
        "name": "PARABURDOO",
        "postcode": "6754"
    },
    {
        "name": "PARADISE",
        "postcode": "6236"
    },
    {
        "name": "PARDOO",
        "postcode": "6721"
    },
    {
        "name": "PARKER RANGE",
        "postcode": "6426"
    },
    {
        "name": "PARKERVILLE",
        "postcode": "6081"
    },
    {
        "name": "PARKESTON",
        "postcode": "6434"
    },
    {
        "name": "PARKFIELD",
        "postcode": "6233"
    },
    {
        "name": "PARKLANDS",
        "postcode": "6180"
    },
    {
        "name": "PARKWOOD",
        "postcode": "6147"
    },
    {
        "name": "PARMELIA",
        "postcode": "6167"
    },
    {
        "name": "PARRYVILLE",
        "postcode": "6333"
    },
    {
        "name": "PATJARR",
        "postcode": "0872"
    },
    {
        "name": "PAULLS VALLEY",
        "postcode": "6076"
    },
    {
        "name": "PAYNEDALE",
        "postcode": "6239"
    },
    {
        "name": "PAYNES FIND",
        "postcode": "6612"
    },
    {
        "name": "PAYNESVILLE",
        "postcode": "6638"
    },
    {
        "name": "PEACEFUL BAY",
        "postcode": "6333"
    },
    {
        "name": "PEAK HILL",
        "postcode": "6642"
    },
    {
        "name": "PEARSALL",
        "postcode": "6065"
    },
    {
        "name": "PEEDAMULLA",
        "postcode": "6710"
    },
    {
        "name": "PEERABEELUP",
        "postcode": "6260"
    },
    {
        "name": "PEGS CREEK",
        "postcode": "6714"
    },
    {
        "name": "PELICAN POINT",
        "postcode": "6230"
    },
    {
        "name": "PEMBERTON",
        "postcode": "6260"
    },
    {
        "name": "PEPPERMINT GROVE",
        "postcode": "6011"
    },
    {
        "name": "PEPPERMINT GROVE BEACH",
        "postcode": "6271"
    },
    {
        "name": "PERENJORI",
        "postcode": "6620"
    },
    {
        "name": "PERILLUP",
        "postcode": "6324"
    },
    {
        "name": "PERON",
        "postcode": "6168"
    },
    {
        "name": "PERTH",
        "postcode": "6000"
    },
    {
        "name": "PERTH ADELAIDE TCE",
        "postcode": "6832"
    },
    {
        "name": "PERTH AIRPORT",
        "postcode": "6105"
    },
    {
        "name": "PERTH BC",
        "postcode": "6849"
    },
    {
        "name": "PERTH GPO",
        "postcode": "6000"
    },
    {
        "name": "PERTH ST GEORGES TCE",
        "postcode": "6831"
    },
    {
        "name": "PERUP",
        "postcode": "6258"
    },
    {
        "name": "PETRUDOR",
        "postcode": "6468"
    },
    {
        "name": "PIARA WATERS",
        "postcode": "6112"
    },
    {
        "name": "PIAWANING",
        "postcode": "6572"
    },
    {
        "name": "PICCADILLY",
        "postcode": "6430"
    },
    {
        "name": "PICKERING BROOK",
        "postcode": "6076"
    },
    {
        "name": "PICTON",
        "postcode": "6229"
    },
    {
        "name": "PICTON EAST",
        "postcode": "6229"
    },
    {
        "name": "PIESSE BROOK",
        "postcode": "6076"
    },
    {
        "name": "PIESSEVILLE",
        "postcode": "6315"
    },
    {
        "name": "PINDAR",
        "postcode": "6631"
    },
    {
        "name": "PINGARING",
        "postcode": "6357"
    },
    {
        "name": "PINGELLY",
        "postcode": "6308"
    },
    {
        "name": "PINGRUP",
        "postcode": "6343"
    },
    {
        "name": "PINJAR",
        "postcode": "6078"
    },
    {
        "name": "PINJARRA",
        "postcode": "6208"
    },
    {
        "name": "PINK LAKE",
        "postcode": "6450"
    },
    {
        "name": "PINTHARUKA",
        "postcode": "6623"
    },
    {
        "name": "PINWERNYING",
        "postcode": "6317"
    },
    {
        "name": "PIPPINGARRA",
        "postcode": "6722"
    },
    {
        "name": "PITHARA",
        "postcode": "6608"
    },
    {
        "name": "PLUMRIDGE LAKES",
        "postcode": "6431"
    },
    {
        "name": "POINT GREY",
        "postcode": "6208"
    },
    {
        "name": "POINT SAMSON",
        "postcode": "6720"
    },
    {
        "name": "POPANYINNING",
        "postcode": "6309"
    },
    {
        "name": "PORONGURUP",
        "postcode": "6324"
    },
    {
        "name": "PORT ALBANY",
        "postcode": "6330"
    },
    {
        "name": "PORT DENISON",
        "postcode": "6525"
    },
    {
        "name": "PORT HEDLAND",
        "postcode": "6721"
    },
    {
        "name": "PORT KENNEDY",
        "postcode": "6172"
    },
    {
        "name": "POSTANS",
        "postcode": "6167"
    },
    {
        "name": "PRESTON BEACH",
        "postcode": "6215"
    },
    {
        "name": "PRESTON SETTLEMENT",
        "postcode": "6225"
    },
    {
        "name": "PREVELLY",
        "postcode": "6285"
    },
    {
        "name": "PRINCE REGENT RIVER",
        "postcode": "6740"
    },
    {
        "name": "PUMPHREYS BRIDGE",
        "postcode": "6308"
    },
    {
        "name": "PURNULULU",
        "postcode": "6770"
    },
    {
        "name": "QUAIRADING",
        "postcode": "6383"
    },
    {
        "name": "QUALEUP",
        "postcode": "6394"
    },
    {
        "name": "QUEDJINUP",
        "postcode": "6281"
    },
    {
        "name": "QUEENS PARK",
        "postcode": "6107"
    },
    {
        "name": "QUEENWOOD",
        "postcode": "6239"
    },
    {
        "name": "QUELAGETTING",
        "postcode": "6405"
    },
    {
        "name": "QUELLINGTON",
        "postcode": "6302"
    },
    {
        "name": "QUINDALUP",
        "postcode": "6281"
    },
    {
        "name": "QUINDANNING",
        "postcode": "6391"
    },
    {
        "name": "QUINNINUP",
        "postcode": "6258"
    },
    {
        "name": "QUINNS ROCKS",
        "postcode": "6030"
    },
    {
        "name": "RANFORD",
        "postcode": "6390"
    },
    {
        "name": "RANGEWAY",
        "postcode": "6530"
    },
    {
        "name": "RAVENSTHORPE",
        "postcode": "6346"
    },
    {
        "name": "RAVENSWOOD",
        "postcode": "6208"
    },
    {
        "name": "RAWLINNA",
        "postcode": "6434"
    },
    {
        "name": "RED GULLY",
        "postcode": "6503"
    },
    {
        "name": "RED HILL",
        "postcode": "6056"
    },
    {
        "name": "REDBANK",
        "postcode": "6721"
    },
    {
        "name": "REDCLIFFE",
        "postcode": "6104"
    },
    {
        "name": "REDGATE",
        "postcode": "6286"
    },
    {
        "name": "REDMOND",
        "postcode": "6327"
    },
    {
        "name": "REDMOND WEST",
        "postcode": "6327"
    },
    {
        "name": "REEDY",
        "postcode": "6640"
    },
    {
        "name": "REGANS FORD",
        "postcode": "6507"
    },
    {
        "name": "REINSCOURT",
        "postcode": "6280"
    },
    {
        "name": "REMLAP",
        "postcode": "6472"
    },
    {
        "name": "RESERVOIR",
        "postcode": "6076"
    },
    {
        "name": "RIDGEWOOD",
        "postcode": "6030"
    },
    {
        "name": "RINGBARK",
        "postcode": "6258"
    },
    {
        "name": "RIVERTON",
        "postcode": "6148"
    },
    {
        "name": "RIVERVALE",
        "postcode": "6103"
    },
    {
        "name": "ROBINSON",
        "postcode": "6330"
    },
    {
        "name": "ROCKINGHAM",
        "postcode": "6168"
    },
    {
        "name": "ROCKINGHAM BEACH",
        "postcode": "6168"
    },
    {
        "name": "ROCKINGHAM DC",
        "postcode": "6168"
    },
    {
        "name": "ROCKLEA",
        "postcode": "6751"
    },
    {
        "name": "ROCKWELL",
        "postcode": "6532"
    },
    {
        "name": "ROCKY GULLY",
        "postcode": "6397"
    },
    {
        "name": "ROEBOURNE",
        "postcode": "6718"
    },
    {
        "name": "ROEBUCK",
        "postcode": "6725"
    },
    {
        "name": "ROELANDS",
        "postcode": "6226"
    },
    {
        "name": "ROLEYSTONE",
        "postcode": "6111"
    },
    {
        "name": "ROSA BROOK",
        "postcode": "6285"
    },
    {
        "name": "ROSA GLEN",
        "postcode": "6285"
    },
    {
        "name": "ROSSMORE",
        "postcode": "6401"
    },
    {
        "name": "ROSSMOYNE",
        "postcode": "6148"
    },
    {
        "name": "ROTHSAY",
        "postcode": "6620"
    },
    {
        "name": "ROTTNEST ISLAND",
        "postcode": "6161"
    },
    {
        "name": "ROYAL AUSTRALIAN NAVY WARSHIPS",
        "postcode": "6958"
    },
    {
        "name": "RUABON",
        "postcode": "6280"
    },
    {
        "name": "RUDDS GULLY",
        "postcode": "6532"
    },
    {
        "name": "RYANSBROOK",
        "postcode": "6395"
    },
    {
        "name": "SABINA RIVER",
        "postcode": "6280"
    },
    {
        "name": "SAFETY BAY",
        "postcode": "6169"
    },
    {
        "name": "SALMON GUMS",
        "postcode": "6445"
    },
    {
        "name": "SALTER POINT",
        "postcode": "6152"
    },
    {
        "name": "SAMSON",
        "postcode": "6163"
    },
    {
        "name": "SAN REMO",
        "postcode": "6210"
    },
    {
        "name": "SANDPATCH",
        "postcode": "6330"
    },
    {
        "name": "SANDSPRINGS",
        "postcode": "6532"
    },
    {
        "name": "SANDSTONE",
        "postcode": "6639"
    },
    {
        "name": "SANDY GULLY",
        "postcode": "6535"
    },
    {
        "name": "SAWYERS VALLEY",
        "postcode": "6074"
    },
    {
        "name": "SCADDAN",
        "postcode": "6447"
    },
    {
        "name": "SCARBOROUGH",
        "postcode": "6019"
    },
    {
        "name": "SCHROEDER",
        "postcode": "6285"
    },
    {
        "name": "SCOTSDALE",
        "postcode": "6333"
    },
    {
        "name": "SCOTT RIVER",
        "postcode": "6288"
    },
    {
        "name": "SCOTT RIVER EAST",
        "postcode": "6275"
    },
    {
        "name": "SCOTTS BROOK",
        "postcode": "6244"
    },
    {
        "name": "SEABIRD",
        "postcode": "6042"
    },
    {
        "name": "SECRET HARBOUR",
        "postcode": "6173"
    },
    {
        "name": "SEPPINGS",
        "postcode": "6330"
    },
    {
        "name": "SERPENTINE",
        "postcode": "6125"
    },
    {
        "name": "SEVILLE GROVE",
        "postcode": "6112"
    },
    {
        "name": "SHACKLETON",
        "postcode": "6386"
    },
    {
        "name": "SHADFORTH",
        "postcode": "6333"
    },
    {
        "name": "SHANNON",
        "postcode": "6262"
    },
    {
        "name": "SHARK BAY",
        "postcode": "6537"
    },
    {
        "name": "SHELLEY",
        "postcode": "6148"
    },
    {
        "name": "SHENTON PARK",
        "postcode": "6008"
    },
    {
        "name": "SHERLOCK",
        "postcode": "6714"
    },
    {
        "name": "SHOALWATER",
        "postcode": "6169"
    },
    {
        "name": "SHOTTS",
        "postcode": "6225"
    },
    {
        "name": "SIESTA PARK",
        "postcode": "6280"
    },
    {
        "name": "SILVER SANDS",
        "postcode": "6210"
    },
    {
        "name": "SINAGRA",
        "postcode": "6065"
    },
    {
        "name": "SINCLAIR",
        "postcode": "6450"
    },
    {
        "name": "SINGLETON",
        "postcode": "6175"
    },
    {
        "name": "SIR SAMUEL",
        "postcode": "6437"
    },
    {
        "name": "SKELETON ROCK",
        "postcode": "6426"
    },
    {
        "name": "SMITH BROOK",
        "postcode": "6258"
    },
    {
        "name": "SOLUS",
        "postcode": "6207"
    },
    {
        "name": "SOMERVILLE",
        "postcode": "6430"
    },
    {
        "name": "SORRENTO",
        "postcode": "6020"
    },
    {
        "name": "SOUTH BODALLIN",
        "postcode": "6424"
    },
    {
        "name": "SOUTH BOULDER",
        "postcode": "6432"
    },
    {
        "name": "SOUTH BUNBURY",
        "postcode": "6230"
    },
    {
        "name": "SOUTH BURRACOPPIN",
        "postcode": "6421"
    },
    {
        "name": "SOUTH CARNARVON",
        "postcode": "6701"
    },
    {
        "name": "SOUTH DATATINE",
        "postcode": "6317"
    },
    {
        "name": "SOUTH DOODLAKINE",
        "postcode": "6411"
    },
    {
        "name": "SOUTH FREMANTLE",
        "postcode": "6162"
    },
    {
        "name": "SOUTH GLENCOE",
        "postcode": "6317"
    },
    {
        "name": "SOUTH GREENOUGH",
        "postcode": "6528"
    },
    {
        "name": "SOUTH GUILDFORD",
        "postcode": "6055"
    },
    {
        "name": "SOUTH HEDLAND",
        "postcode": "6722"
    },
    {
        "name": "SOUTH KALGOORLIE",
        "postcode": "6430"
    },
    {
        "name": "SOUTH KUKERIN",
        "postcode": "6352"
    },
    {
        "name": "SOUTH KUMMININ",
        "postcode": "6368"
    },
    {
        "name": "SOUTH KUNUNOPPIN",
        "postcode": "6489"
    },
    {
        "name": "SOUTH LAKE",
        "postcode": "6164"
    },
    {
        "name": "SOUTH LAKE GRACE",
        "postcode": "6353"
    },
    {
        "name": "SOUTH MURCHISON",
        "postcode": "6635"
    },
    {
        "name": "SOUTH NEWDEGATE",
        "postcode": "6355"
    },
    {
        "name": "SOUTH PERTH",
        "postcode": "6151"
    },
    {
        "name": "SOUTH PERTH ANGELO ST",
        "postcode": "6151"
    },
    {
        "name": "SOUTH PLANTATIONS",
        "postcode": "6701"
    },
    {
        "name": "SOUTH QUAIRADING",
        "postcode": "6383"
    },
    {
        "name": "SOUTH STIRLING",
        "postcode": "6324"
    },
    {
        "name": "SOUTH TAMMIN",
        "postcode": "6409"
    },
    {
        "name": "SOUTH TRAYNING",
        "postcode": "6488"
    },
    {
        "name": "SOUTH YELBENI",
        "postcode": "6487"
    },
    {
        "name": "SOUTH YILGARN",
        "postcode": "6426"
    },
    {
        "name": "SOUTH YUNA",
        "postcode": "6532"
    },
    {
        "name": "SOUTH YUNDERUP",
        "postcode": "6208"
    },
    {
        "name": "SOUTHAMPTON",
        "postcode": "6253"
    },
    {
        "name": "SOUTHERN BROOK",
        "postcode": "6401"
    },
    {
        "name": "SOUTHERN CROSS",
        "postcode": "6426"
    },
    {
        "name": "SOUTHERN RIVER",
        "postcode": "6110"
    },
    {
        "name": "SPALDING",
        "postcode": "6530"
    },
    {
        "name": "SPEARWOOD",
        "postcode": "6163"
    },
    {
        "name": "SPENCER PARK",
        "postcode": "6330"
    },
    {
        "name": "SPENCERS BROOK",
        "postcode": "6401"
    },
    {
        "name": "SPRINGFIELD",
        "postcode": "6525"
    },
    {
        "name": "SPRINGS",
        "postcode": "6308"
    },
    {
        "name": "ST GEORGE RANGES",
        "postcode": "6728"
    },
    {
        "name": "ST JAMES",
        "postcode": "6102"
    },
    {
        "name": "ST RONANS",
        "postcode": "6302"
    },
    {
        "name": "STAKE HILL",
        "postcode": "6181"
    },
    {
        "name": "STIRLING",
        "postcode": "6021"
    },
    {
        "name": "STIRLING ESTATE",
        "postcode": "6271"
    },
    {
        "name": "STIRLING RANGE NATIONAL PARK",
        "postcode": "6338"
    },
    {
        "name": "STONEVILLE",
        "postcode": "6081"
    },
    {
        "name": "STOVE HILL",
        "postcode": "6714"
    },
    {
        "name": "STRATHALBYN",
        "postcode": "6530"
    },
    {
        "name": "STRATHAM",
        "postcode": "6237"
    },
    {
        "name": "STRATHERNE",
        "postcode": "6309"
    },
    {
        "name": "STRATTON",
        "postcode": "6056"
    },
    {
        "name": "STRELLEY",
        "postcode": "6721"
    },
    {
        "name": "STURT CREEK",
        "postcode": "6770"
    },
    {
        "name": "SUBIACO",
        "postcode": "6008"
    },
    {
        "name": "SUBIACO EAST",
        "postcode": "6008"
    },
    {
        "name": "SUBIACO PO",
        "postcode": "6904"
    },
    {
        "name": "SUCCESS",
        "postcode": "6164"
    },
    {
        "name": "SUNSET BEACH",
        "postcode": "6530"
    },
    {
        "name": "SUNNYSIDE",
        "postcode": "6256"
    },
    {
        "name": "SWAN VIEW",
        "postcode": "6056"
    },
    {
        "name": "SWANBOURNE",
        "postcode": "6010"
    },
    {
        "name": "TAKALARUP",
        "postcode": "6324"
    },
    {
        "name": "TALANDJI",
        "postcode": "6710"
    },
    {
        "name": "TALBOT",
        "postcode": "6302"
    },
    {
        "name": "TALBOT WEST",
        "postcode": "6302"
    },
    {
        "name": "TALGOMINE",
        "postcode": "6490"
    },
    {
        "name": "TALISKER",
        "postcode": "6701"
    },
    {
        "name": "TAMALA",
        "postcode": "6532"
    },
    {
        "name": "TAMALA PARK",
        "postcode": "6030"
    },
    {
        "name": "TAMBELLUP",
        "postcode": "6320"
    },
    {
        "name": "TAMMIN",
        "postcode": "6409"
    },
    {
        "name": "TAMPU",
        "postcode": "6472"
    },
    {
        "name": "TANAMI",
        "postcode": "6770"
    },
    {
        "name": "TANDEGIN",
        "postcode": "6415"
    },
    {
        "name": "TAPPING",
        "postcode": "6065"
    },
    {
        "name": "TARCOOLA BEACH",
        "postcode": "6530"
    },
    {
        "name": "TARDUN",
        "postcode": "6628"
    },
    {
        "name": "TARIN ROCK",
        "postcode": "6353"
    },
    {
        "name": "TEESDALE",
        "postcode": "6213"
    },
    {
        "name": "TELFER",
        "postcode": "6762"
    },
    {
        "name": "TENINDEWA",
        "postcode": "6632"
    },
    {
        "name": "TENTERDEN",
        "postcode": "6322"
    },
    {
        "name": "THE LAKES",
        "postcode": "6556"
    },
    {
        "name": "THE PLAINS",
        "postcode": "6237"
    },
    {
        "name": "THE SPECTACLES",
        "postcode": "6167"
    },
    {
        "name": "THE VINES",
        "postcode": "6069"
    },
    {
        "name": "THEVENARD ISLAND",
        "postcode": "6711"
    },
    {
        "name": "THOMSON BROOK",
        "postcode": "6239"
    },
    {
        "name": "THORNLIE",
        "postcode": "6108"
    },
    {
        "name": "THREE SPRINGS",
        "postcode": "6519"
    },
    {
        "name": "THROSSELL",
        "postcode": "6401"
    },
    {
        "name": "TIBRADDEN",
        "postcode": "6532"
    },
    {
        "name": "TINCURRIN",
        "postcode": "6361"
    },
    {
        "name": "TINGLEDALE",
        "postcode": "6333"
    },
    {
        "name": "TJIRRKARLI",
        "postcode": "0872"
    },
    {
        "name": "TJUKURLA",
        "postcode": "0872"
    },
    {
        "name": "TOM PRICE",
        "postcode": "6751"
    },
    {
        "name": "TONEBRIDGE",
        "postcode": "6244"
    },
    {
        "name": "TOODYAY",
        "postcode": "6566"
    },
    {
        "name": "TOOLIBIN",
        "postcode": "6312"
    },
    {
        "name": "TOOLONGA",
        "postcode": "6532"
    },
    {
        "name": "TOOMPUP",
        "postcode": "6336"
    },
    {
        "name": "TORBAY",
        "postcode": "6330"
    },
    {
        "name": "TORNDIRRUP",
        "postcode": "6330"
    },
    {
        "name": "TOWNSENDALE",
        "postcode": "6311"
    },
    {
        "name": "TRAFALGAR",
        "postcode": "6431"
    },
    {
        "name": "TRAYNING",
        "postcode": "6488"
    },
    {
        "name": "TREETON",
        "postcode": "6284"
    },
    {
        "name": "TRENT",
        "postcode": "6333"
    },
    {
        "name": "TRIGG",
        "postcode": "6029"
    },
    {
        "name": "TRIGWELL",
        "postcode": "6244"
    },
    {
        "name": "TUART HILL",
        "postcode": "6060"
    },
    {
        "name": "TURKEY HILL",
        "postcode": "6426"
    },
    {
        "name": "TUTUNUP",
        "postcode": "6280"
    },
    {
        "name": "TWO ROCKS",
        "postcode": "6037"
    },
    {
        "name": "UCARTY",
        "postcode": "6462"
    },
    {
        "name": "UCARTY WEST",
        "postcode": "6460"
    },
    {
        "name": "UDUC",
        "postcode": "6220"
    },
    {
        "name": "ULARRING",
        "postcode": "6436"
    },
    {
        "name": "UPPER CAPEL",
        "postcode": "6239"
    },
    {
        "name": "UPPER MURRAY",
        "postcode": "6390"
    },
    {
        "name": "UPPER SWAN",
        "postcode": "6069"
    },
    {
        "name": "UPPER WARREN",
        "postcode": "6258"
    },
    {
        "name": "USELESS LOOP",
        "postcode": "6537"
    },
    {
        "name": "USHER",
        "postcode": "6230"
    },
    {
        "name": "UTAKARRA",
        "postcode": "6530"
    },
    {
        "name": "VALENTINE",
        "postcode": "6532"
    },
    {
        "name": "VANCOUVER PENINSULA",
        "postcode": "6330"
    },
    {
        "name": "VARLEY",
        "postcode": "6355"
    },
    {
        "name": "VASSE",
        "postcode": "6280"
    },
    {
        "name": "VICTORIA PARK",
        "postcode": "6100"
    },
    {
        "name": "VICTORIA ROCK",
        "postcode": "6429"
    },
    {
        "name": "VICTORY HEIGHTS",
        "postcode": "6432"
    },
    {
        "name": "VITTORIA",
        "postcode": "6230"
    },
    {
        "name": "VIVEASH",
        "postcode": "6056"
    },
    {
        "name": "WADDERIN",
        "postcode": "6369"
    },
    {
        "name": "WADDINGTON",
        "postcode": "6509"
    },
    {
        "name": "WADDY FOREST",
        "postcode": "6515"
    },
    {
        "name": "WAEEL",
        "postcode": "6407"
    },
    {
        "name": "WAGERUP",
        "postcode": "6215"
    },
    {
        "name": "WAGGRAKINE",
        "postcode": "6530"
    },
    {
        "name": "WAGIN",
        "postcode": "6315"
    },
    {
        "name": "WAIKIKI",
        "postcode": "6169"
    },
    {
        "name": "WALEBING",
        "postcode": "6510"
    },
    {
        "name": "WALGOOLAN",
        "postcode": "6422"
    },
    {
        "name": "WALKAWAY",
        "postcode": "6528"
    },
    {
        "name": "WALLAREENYA",
        "postcode": "6721"
    },
    {
        "name": "WALLAROO",
        "postcode": "6429"
    },
    {
        "name": "WALLISTON",
        "postcode": "6076"
    },
    {
        "name": "WALLISTON DC",
        "postcode": "6925"
    },
    {
        "name": "WALMSLEY",
        "postcode": "6330"
    },
    {
        "name": "WALPOLE",
        "postcode": "6398"
    },
    {
        "name": "WALSALL",
        "postcode": "6280"
    },
    {
        "name": "WALYORMOURING",
        "postcode": "6460"
    },
    {
        "name": "WALYUNGA NATIONAL PARK",
        "postcode": "6084"
    },
    {
        "name": "WALYURIN",
        "postcode": "6363"
    },
    {
        "name": "WAMENUSKING",
        "postcode": "6383"
    },
    {
        "name": "WANDANA",
        "postcode": "6532"
    },
    {
        "name": "WANDERING",
        "postcode": "6308"
    },
    {
        "name": "WANDI",
        "postcode": "6167"
    },
    {
        "name": "WANDILLUP",
        "postcode": "6256"
    },
    {
        "name": "WANDINA",
        "postcode": "6530"
    },
    {
        "name": "WANERIE",
        "postcode": "6503"
    },
    {
        "name": "WANGARA",
        "postcode": "6065"
    },
    {
        "name": "WANGARA DC",
        "postcode": "6065"
    },
    {
        "name": "WANNAMAL",
        "postcode": "6505"
    },
    {
        "name": "WANNANUP",
        "postcode": "6210"
    },
    {
        "name": "WANNARN",
        "postcode": "0872"
    },
    {
        "name": "WANNEROO",
        "postcode": "6065"
    },
    {
        "name": "WANSBROUGH",
        "postcode": "6320"
    },
    {
        "name": "WARAWARRUP",
        "postcode": "6220"
    },
    {
        "name": "WARBURTON",
        "postcode": "6431"
    },
    {
        "name": "WARDERING",
        "postcode": "6311"
    },
    {
        "name": "WARDING EAST",
        "postcode": "6405"
    },
    {
        "name": "WARMUN",
        "postcode": "6743"
    },
    {
        "name": "WARNBRO",
        "postcode": "6169"
    },
    {
        "name": "WARNER GLEN",
        "postcode": "6288"
    },
    {
        "name": "WAROONA",
        "postcode": "6215"
    },
    {
        "name": "WARRACHUPPIN",
        "postcode": "6423"
    },
    {
        "name": "WARRADARGE",
        "postcode": "6518"
    },
    {
        "name": "WARRALAKIN",
        "postcode": "6421"
    },
    {
        "name": "WARRENUP",
        "postcode": "6330"
    },
    {
        "name": "WARWICK",
        "postcode": "6024"
    },
    {
        "name": "WATERBANK",
        "postcode": "6725"
    },
    {
        "name": "WATERCARRIN",
        "postcode": "6407"
    },
    {
        "name": "WATERFORD",
        "postcode": "6152"
    },
    {
        "name": "WATERLOO",
        "postcode": "6228"
    },
    {
        "name": "WATERMANS BAY",
        "postcode": "6020"
    },
    {
        "name": "WATHEROO",
        "postcode": "6513"
    },
    {
        "name": "WATTENING",
        "postcode": "6568"
    },
    {
        "name": "WATTLE GROVE",
        "postcode": "6107"
    },
    {
        "name": "WATTLEUP",
        "postcode": "6166"
    },
    {
        "name": "WATTONING",
        "postcode": "6479"
    },
    {
        "name": "WEBBERTON",
        "postcode": "6530"
    },
    {
        "name": "WEDGE ISLAND",
        "postcode": "6044"
    },
    {
        "name": "WEDGECARRUP",
        "postcode": "6315"
    },
    {
        "name": "WEDGEFIELD",
        "postcode": "6721"
    },
    {
        "name": "WELBUNGIN",
        "postcode": "6477"
    },
    {
        "name": "WELD RANGE",
        "postcode": "6640"
    },
    {
        "name": "WELLARD",
        "postcode": "6170"
    },
    {
        "name": "WELLESLEY",
        "postcode": "6233"
    },
    {
        "name": "WELLINGTON FOREST",
        "postcode": "6236"
    },
    {
        "name": "WELLINGTON MILL",
        "postcode": "6236"
    },
    {
        "name": "WELLSTEAD",
        "postcode": "6328"
    },
    {
        "name": "WELSHPOOL",
        "postcode": "6106"
    },
    {
        "name": "WELSHPOOL DC",
        "postcode": "6986"
    },
    {
        "name": "WEMBLEY",
        "postcode": "6014"
    },
    {
        "name": "WEMBLEY DOWNS",
        "postcode": "6019"
    },
    {
        "name": "WEST BALLIDU",
        "postcode": "6606"
    },
    {
        "name": "WEST BEACH",
        "postcode": "6450"
    },
    {
        "name": "WEST BINNU",
        "postcode": "6532"
    },
    {
        "name": "WEST BUSSELTON",
        "postcode": "6280"
    },
    {
        "name": "WEST CAPE HOWE",
        "postcode": "6330"
    },
    {
        "name": "WEST CASUARINAS",
        "postcode": "6630"
    },
    {
        "name": "WEST COOLUP",
        "postcode": "6214"
    },
    {
        "name": "WEST END",
        "postcode": "6530"
    },
    {
        "name": "WEST FITZGERALD",
        "postcode": "6337"
    },
    {
        "name": "WEST HOLLETON",
        "postcode": "6369"
    },
    {
        "name": "WEST KALGOORLIE",
        "postcode": "6430"
    },
    {
        "name": "WEST LAMINGTON",
        "postcode": "6430"
    },
    {
        "name": "WEST LEEDERVILLE",
        "postcode": "6007"
    },
    {
        "name": "WEST LYONS RIVER",
        "postcode": "6705"
    },
    {
        "name": "WEST PERTH",
        "postcode": "6005"
    },
    {
        "name": "WEST PINGELLY",
        "postcode": "6308"
    },
    {
        "name": "WEST PINJARRA",
        "postcode": "6208"
    },
    {
        "name": "WEST POPANYINNING",
        "postcode": "6309"
    },
    {
        "name": "WEST RIVER",
        "postcode": "6346"
    },
    {
        "name": "WEST SWAN",
        "postcode": "6055"
    },
    {
        "name": "WEST TOODYAY",
        "postcode": "6566"
    },
    {
        "name": "WESTDALE",
        "postcode": "6304"
    },
    {
        "name": "WESTMINSTER",
        "postcode": "6061"
    },
    {
        "name": "WESTONIA",
        "postcode": "6423"
    },
    {
        "name": "WESTWOOD",
        "postcode": "6316"
    },
    {
        "name": "WHIM CREEK",
        "postcode": "6718"
    },
    {
        "name": "WHITBY",
        "postcode": "6123"
    },
    {
        "name": "WHITE GUM VALLEY",
        "postcode": "6162"
    },
    {
        "name": "WHITE PEAK",
        "postcode": "6532"
    },
    {
        "name": "WHITEMAN",
        "postcode": "6068"
    },
    {
        "name": "WHITTAKER",
        "postcode": "6207"
    },
    {
        "name": "WIALKI",
        "postcode": "6473"
    },
    {
        "name": "WICHERINA",
        "postcode": "6532"
    },
    {
        "name": "WICHERINA SOUTH",
        "postcode": "6532"
    },
    {
        "name": "WICKEPIN",
        "postcode": "6370"
    },
    {
        "name": "WICKHAM",
        "postcode": "6720"
    },
    {
        "name": "WIDGIEMOOLTHA",
        "postcode": "6443"
    },
    {
        "name": "WILBERFORCE",
        "postcode": "6302"
    },
    {
        "name": "WILBINGA",
        "postcode": "6041"
    },
    {
        "name": "WILGA",
        "postcode": "6243"
    },
    {
        "name": "WILGA WEST",
        "postcode": "6243"
    },
    {
        "name": "WILGARRUP",
        "postcode": "6258"
    },
    {
        "name": "WILGOYNE",
        "postcode": "6479"
    },
    {
        "name": "WILLAGEE",
        "postcode": "6156"
    },
    {
        "name": "WILLAGEE CENTRAL",
        "postcode": "6156"
    },
    {
        "name": "WILLARE",
        "postcode": "6728"
    },
    {
        "name": "WILLETTON",
        "postcode": "6155"
    },
    {
        "name": "WILLIAM BAY",
        "postcode": "6333"
    },
    {
        "name": "WILLIAMS",
        "postcode": "6391"
    },
    {
        "name": "WILLIAMSTOWN",
        "postcode": "6430"
    },
    {
        "name": "WILSON",
        "postcode": "6107"
    },
    {
        "name": "WILUNA",
        "postcode": "6646"
    },
    {
        "name": "WILYABRUP",
        "postcode": "6280"
    },
    {
        "name": "WILLYUNG",
        "postcode": "6330"
    },
    {
        "name": "WINDABOUT",
        "postcode": "6450"
    },
    {
        "name": "WINDY HARBOUR",
        "postcode": "6262"
    },
    {
        "name": "WINGELLINA",
        "postcode": "0872"
    },
    {
        "name": "WINNEJUP",
        "postcode": "6255"
    },
    {
        "name": "WINTHROP",
        "postcode": "6150"
    },
    {
        "name": "WITCHCLIFFE",
        "postcode": "6286"
    },
    {
        "name": "WITHERS",
        "postcode": "6230"
    },
    {
        "name": "WITTENOOM",
        "postcode": "6751"
    },
    {
        "name": "WITTENOOM HILLS",
        "postcode": "6447"
    },
    {
        "name": "WOGOLIN",
        "postcode": "6370"
    },
    {
        "name": "WOKALUP",
        "postcode": "6221"
    },
    {
        "name": "WOMARDEN",
        "postcode": "6519"
    },
    {
        "name": "WONGAMINE",
        "postcode": "6401"
    },
    {
        "name": "WONGAN HILLS",
        "postcode": "6603"
    },
    {
        "name": "WONGOONDY",
        "postcode": "6630"
    },
    {
        "name": "WONNERUP",
        "postcode": "6280"
    },
    {
        "name": "WONTHELLA",
        "postcode": "6530"
    },
    {
        "name": "WOODANILLING",
        "postcode": "6316"
    },
    {
        "name": "WOODBRIDGE",
        "postcode": "6056"
    },
    {
        "name": "WOODLANDS",
        "postcode": "6018"
    },
    {
        "name": "WOODLEIGH",
        "postcode": "6701"
    },
    {
        "name": "WOODRIDGE",
        "postcode": "6041"
    },
    {
        "name": "WOODVALE",
        "postcode": "6026"
    },
    {
        "name": "WOOGENELLUP",
        "postcode": "6324"
    },
    {
        "name": "WOOLGORONG",
        "postcode": "6630"
    },
    {
        "name": "WOOLOCUTTY",
        "postcode": "6369"
    },
    {
        "name": "WOORAMEL",
        "postcode": "6701"
    },
    {
        "name": "WOOROLOO",
        "postcode": "6558"
    },
    {
        "name": "WOORREE",
        "postcode": "6530"
    },
    {
        "name": "WOOTTATING",
        "postcode": "6562"
    },
    {
        "name": "WORSLEY",
        "postcode": "6225"
    },
    {
        "name": "WUBIN",
        "postcode": "6612"
    },
    {
        "name": "WUNDOWIE",
        "postcode": "6560"
    },
    {
        "name": "WUNGONG",
        "postcode": "6112"
    },
    {
        "name": "WURAMING",
        "postcode": "6390"
    },
    {
        "name": "WYALKATCHEM",
        "postcode": "6485"
    },
    {
        "name": "WYENING",
        "postcode": "6568"
    },
    {
        "name": "WYNDHAM",
        "postcode": "6740"
    },
    {
        "name": "WYOLA WEST",
        "postcode": "6407"
    },
    {
        "name": "XANTIPPE",
        "postcode": "6609"
    },
    {
        "name": "YABBERUP",
        "postcode": "6239"
    },
    {
        "name": "YAKAMIA",
        "postcode": "6330"
    },
    {
        "name": "YALARDY",
        "postcode": "6701"
    },
    {
        "name": "YALGOO",
        "postcode": "6635"
    },
    {
        "name": "YALLABATHARRA",
        "postcode": "6535"
    },
    {
        "name": "YALLINGUP",
        "postcode": "6282"
    },
    {
        "name": "YALLINGUP SIDING",
        "postcode": "6282"
    },
    {
        "name": "YALYALUP",
        "postcode": "6280"
    },
    {
        "name": "YANCHEP",
        "postcode": "6035"
    },
    {
        "name": "YANDANOOKA",
        "postcode": "6522"
    },
    {
        "name": "YANDOO CREEK",
        "postcode": "6701"
    },
    {
        "name": "YANGEBUP",
        "postcode": "6164"
    },
    {
        "name": "YANMAH",
        "postcode": "6258"
    },
    {
        "name": "YANNARIE",
        "postcode": "6710"
    },
    {
        "name": "YARAWINDAH",
        "postcode": "6509"
    },
    {
        "name": "YARDARINO",
        "postcode": "6525"
    },
    {
        "name": "YARLOOP",
        "postcode": "6218"
    },
    {
        "name": "YARRAGADEE",
        "postcode": "6522"
    },
    {
        "name": "YATHROO",
        "postcode": "6507"
    },
    {
        "name": "YEAGARUP",
        "postcode": "6260"
    },
    {
        "name": "YEAL",
        "postcode": "6503"
    },
    {
        "name": "YEALERING",
        "postcode": "6372"
    },
    {
        "name": "YELBENI",
        "postcode": "6487"
    },
    {
        "name": "YELLOWDINE",
        "postcode": "6426"
    },
    {
        "name": "YELVERTON",
        "postcode": "6280"
    },
    {
        "name": "YERECOIN",
        "postcode": "6571"
    },
    {
        "name": "YETNA",
        "postcode": "6532"
    },
    {
        "name": "YILKARI",
        "postcode": "6430"
    },
    {
        "name": "YILLIMINNING",
        "postcode": "6312"
    },
    {
        "name": "YOGANUP",
        "postcode": "6275"
    },
    {
        "name": "YOKINE",
        "postcode": "6060"
    },
    {
        "name": "YOKINE SOUTH",
        "postcode": "6060"
    },
    {
        "name": "YOONGARILLUP",
        "postcode": "6280"
    },
    {
        "name": "YORK",
        "postcode": "6302"
    },
    {
        "name": "YORNANING",
        "postcode": "6311"
    },
    {
        "name": "YORNUP",
        "postcode": "6256"
    },
    {
        "name": "YOTING",
        "postcode": "6383"
    },
    {
        "name": "YOUNDEGIN",
        "postcode": "6407"
    },
    {
        "name": "YOUNGS SIDING",
        "postcode": "6330"
    },
    {
        "name": "YOURDAMUNG LAKE",
        "postcode": "6225"
    },
    {
        "name": "YUNA",
        "postcode": "6532"
    },
    {
        "name": "ZANTHUS",
        "postcode": "6434"
    },
    {
        "name": "ZUYTDORP",
        "postcode": "6536"
    }
]
